City,Location,Address,Latitude,Longitude,State
Ahmedabad,CT Gold Ahmedabad,"City Gold Multiplex, Gr.floor Ashram Road Ahmedabad 380009",23.03178,72.57015,Gujarat
Ahmedabad,Maninagar Ahmedabad,"City Pluse Multiplex, Akash Ganga Enclave,Rajapur Hirapur,Kankaria Rd Amedabad-380006",23.01479,72.59656,Gujarat
Ahmedabad,Himalaya Mall Ahmedabad,"Himalaya Mall, Next to indraprasth Tower,Drive-In Road Amedabad-380015",23.04641,72.53097,Gujarat
Ahmedabad,AHMEDABAD-SAFAL PEGASUS,"Shop no A-04 & A-05 Pegasus Commercial Co-operative Society Ltd Praladnagar Road, Near AUDA Garden,Anand Nagar, Ahmedabad - West, Ahd - 380054",23.012368,72.511203,Gujarat
Ahmedabad,AHMEDABAD-CG ROAD,"Shop no 1&2,Ground Floor,3rd Eye 2 complex Panchvati,Near Parimal Garden, Ahmedabad-380009",23.02174,72.5571,Gujarat
Ahmedabad,Science City-Ahmedabad,"Shop no 8-14, Sub plot No 1, Final Plot 5,TP No 40 Green City-City Centre, Opp Science City Amusement Park, Science City Road, Sola, Ahmedabad-380060",23.081263,72.498612,Gujarat
Ahmedabad,Yash Aqua,"Ground / First Floor, Yash Aqua Vijay Char Rasta, Near Rasranjan Sweet Shop 120 circular Road, Navrangpura Ahmedabad 380009",23.042413,72.548649,Gujarat
Ahmedabad,AHMEDABAD-ALPHA GCORP,"Alpha G- Corp, Plot no 216 T.P,Scheme - 1, Near Vastrapur Lake Vastrapur Lake, Ahmedabad - 380054",23.039782,72.531379,Gujarat
Ahmedabad,Chandkheda,"Unit no G- 1 & F-1,Akshar III Commercial Hub, Near Tapovan Circle,Opp Radha Swami Satsang, Visat Koba Gandhi Nagar Road, Motera, Chandkheda, Ahd - 380005",23.113566,72.608813,Gujarat
Ahmedabad,Wide Angle,"Wide Angle, Satellite Cross Raod S. G. Road, Village Jodhpur Ahmedabad , Gujarat 380055",23.024712,72.507447,Gujarat
Ahmedabad,Changodhar,"Block / Survey No 18 Paiki Mouje Changodar, Taluka Sanand Ahmedabad Gujarat 382213",22.923393,72.443137,Gujarat
Ahmedabad,Limbdi-Havmore Food Mall,"Revenue Survey No 782/2 Moje Limbdi, Tal Limbdi National Highway 8 A Limbdi, Ahmedabad, 363421",22.56719,71.774126,Gujarat
Ahmedabad,Ahmedabad Pavillion Mall,"McDonalds Family Restaurant ,  Shop No- 13 &110, Pavalion Mall,  Opposite Platinium Plaza,   Sukhan Cross Road, Nikol,   Ahmedabad,  Pin -382330",23.05065,72.66734,Gujarat
Baroda,Baroda Inox,"Inox Multiplex, Grnd Flr. Plot No. 326 Race Course Circle West Baroda - 390007",22.31307,73.15773,Gujarat
Baroda,BARODA TNW,"Old Padra Rd,Manisha Chowkdi Near Gail India Office Baroda-390015",22.296986,73.164956,Gujarat
Baroda,SEVEN SEAS,"7 Seas Mall, Fatehgunj, Vadodara 390002",22.322925,73.186749,Gujarat
Baroda,Inorbit FC,"Kiosk no 11 & 12, 2nd Floor Food Court, Inorbit Mall , Gorwa Road Vadodara 390023, Gujarat",22.321839,73.165527,Gujarat
Baroda,Sama Savali,"Shop No 19 to 34, Siddhartha Annexe - F, Plot no 44/P, Vemali, Sama Savali Road",22.351079,73.200932,Gujarat
Baroda,Baroda Bapod,"Survey No 385/1 390 National Highway 8,Opp L&T Knowledge City,VADODARA-390019,GUJRAT",22.314854,73.254079,Gujarat
Bharuch,Bharuch,"Gopinathji Agency,(Cheverolet Showroom), N.H No-8 Vadadla Bharuch, Near R.T.O. Bharuch,Pin – 392015",21.748506,73.019888,Gujarat
Mehsana,Mehsana Ahmedabad,"Plot No 2 Paiki, 3 Paiki 14 Paiki, 15, 16, 17, 18 & 19 Revenue Survey No 342, Village Nagalpur, Beside Essar Petrol Pump Taluka & District Mehsana 384002",23.582708,72.370874,Gujarat
Nadiad,Nadiad,"Revenue Survey no. 1253/1-4, situated at Chaklashi Party Sim, Nadiad, Gujarat 387001, India",22.672486,72.885983,Gujarat
Rajkot,Kalawad Road  - Rajkot,"Ground Floor/ First Floor, Jupiter Atrium, Everest Park,Nanamava On Kalawad Road, Rajkot - 360005",22.272897,70.756544,Gujarat
Surat,SURAT- VALENTINE MALL,"Valentine Cine Vision Surat, Dhumas Road, Near Govardhan Haveli, Surat 395007",21.155379,72.764259,Gujarat
Surat,SURAT - MILLIONAIRE,"Ground Floor, Millionaire Business Park, opp TGB Restaurants, L.P Savani Road Near Star Bazaar, Adajan Surat -395009",21.193977,72.787024,Gujarat
Surat,Kadodra,,21.1784,72.96286,Gujarat
Surat,Surat Virtuous Mall,"Virtuous Mall Retail F.P.29, Rundh Village Dumas Road, Magdalla, Surat 395 007, Gujarat",21.144898,72.757576,Gujarat
Surat,Surat Ghod Daud Road,"McDonalds Family Restaurants, Mark-Developer Opp. 24 carat Mithai, Parle point Junction Pin – 395009",21.173786,72.794449,Gujarat
Surat,Surat Kamrej,"Survey No. 445,Subb plot no. 3, Block No. 574 Moje Umbhel, Taluka Kamrej, Kadodara-394425 ( Gujarat)",21.276602,72.95365,Gujarat
Vapi,EMPRESS CITY CENTRE- VAPI,"Empress Mall, Shop No.40 Village Salvav, Taluk Paradi District Val sad, vapi-396191",20.412236,72.91554,Gujarat
Vapi,Gunjan Vapi,"Arte Services Pvt Ltd Plot No: C7/67/1, Gunjan Crossroads National Highway No:8, Vapi Gujarat 396191",20.373479,72.920438,Gujarat
Goa,Mall de Goa,"McDonald`s Family Restaurants, NH 66, Porvorim, Pilerne, Goa- 403501",15.5256,73.82737,Goa
Indore,Treasure Island Indore,"Treasure Island, 11, Tukoganj, M.G Rd, Indore, Madhya Pradesh 452001, India",22.721498,75.878568,Madhya Pradesh
Indore,INDORE-MANGAL CITY,"Shop # 9-12, Ground Floor Scheme # 54, A.B. Road Viajay Nagar Indore- 452008",22.752538,75.896344,Madhya Pradesh
Indore,INDORE-MALHAR MEGA MALL,"Shop No 12 – 14 - 15 Malhar Mega Mall, Scheme No. 54, A.B. Road Indore – 452 010",22.744647,75.894576,Madhya Pradesh
Aurangabad,Aurangabad,"Plot No. 1-B/2 Chikhalthana Industrial Area MIDC, Aurangabad, Maharashatra 431006",19.870908,75.393709,Maharashtra
Kolhapur,KOLHAPUR FSDT,,16.686845,74.272555,Maharashtra
Kolhapur,D.Y.Patil - Kolhapur,"D.Y.Patil City Mall Plot No 1 (Part) & C.S No 2104 /15 E-Ward, Kawla Naka, Kolhapur 416003",16.703608,74.250186,Maharashtra
Lonavala,LONAVALA SQUARE,"Lonawala Square G-20, Ground Floor, CTS No 208A M.G Road, Lonawala 410401",18.751941,73.403153,Maharashtra
Mumbai,Bandra,"532,Kadamba Kudpi House V P Road (Linking Road), Khar (West), Mumbai",19.065999,72.834502,Maharashtra
Mumbai,Lokhandwala,"28 B, Sunrise Apartments, Sami Samarth Nagar, Lokhandwala Complex Andheri West",19.14084,72.8256,Maharashtra
Mumbai,Vashi Sector 17,"Mansarovar C.H.S.L., Plot No. 14, Sector 17, Vashi. Vashi, Navi Mumbai 400 705",19.07214,72.99863,Maharashtra
Mumbai,Ville Parle,"Ground Floor,Liberty Lodge, D.J.Marg Vile Parle (West), Mumbai 56",19.10026,72.84071,Maharashtra
Mumbai,New Empire,"134 - 136, Mahendra Chambers D.N.Road, Fort Mumbai-400 001",18.93892,72.83453,Maharashtra
Mumbai,Andheri,"18, Unity Mansion, Gazdar Road Opp Andheri Station, Andheri (w), Mumbai 400 058.",19.11961,72.84606,Maharashtra
Mumbai,Crossroads,"SOBO Central Mall, 28, Pt M.M. Malviya Road, Tardeo Main Road,Haji Ali, Mumbai 400 034",18.9758,72.81217,Maharashtra
Mumbai,Thane,"Gr Fl,Plot # 23,Wadhavicar Wadi Bhav Baug,Gokhale Road, Naupada, Thane West 400 602",19.18775,72.97491,Maharashtra
Mumbai,Kalamboli,"Plot No. 13, Ground Floor, Sector 1E, Kalamboli Navi Mumbai - 410218",19.02136,73.10256,Maharashtra
Mumbai,Phoenix Mills,"Block No. 5, The Pheonix Mills Ltd. 462, Senapati Bapat Marg Lower Parel, Mumbai 400013",18.99441,72.82459,Maharashtra
Mumbai,Colaba,"1st Floor, Metro House Shahid Bhagat Singh Road Colaba Causeway, Mumbai 400001",18.92361,72.83194,Maharashtra
Mumbai,Mulund,"S1 / Building # 3, Nirmal Lifestyle LBS Marg, Mulund West, Mumbai - 400 080",19.16596,72.93787,Maharashtra
Mumbai,Borivili,"Agora Business Plaza Near Kora Kendra S.V. Road. Borivili,Mumbai- 400092",19.22093,72.85232,Maharashtra
Mumbai,The Hub,"The Hub,Nirlon Compound, Upper Ground Fl,,Western Express Highway Goregaon E. Mumbai-400 069",19.15463,72.85632,Maharashtra
Mumbai,Ghatkopar,"001/101,The Destination Next Shopper Stop,M.G. Rd, Chembur Mumbai- 400089",19.06875,72.90013,Maharashtra
Mumbai,Lake City Thane2,GA5-GA8-Lake City Mall Kapurwadi Junction Balkum Road Thane W - 400 601,19.21712,72.97897,Maharashtra
Mumbai,ANDHERI-FUN REPULIC,Fun Republic Multiplex Off Link Rd Andheri w. Mumbai- 400 053,19.134927,72.832841,Maharashtra
Mumbai,MUMBAI CENTRAL II-PATEL,"273/275 Bellasis Road Near City Centre,Jehangir Boman Behram Marg Mumbai Central. Mumbai- 400 008",18.967826,72.824408,Maharashtra
Mumbai,VASHI-PALMBEACH GALLERIA,"Palm Beach Galleria Plot No-18, Sector -19/D Vashi. Navi- Mumbai- 400706",19.084838,73.007317,Maharashtra
Mumbai,THAKUR MALL-DAHISAR,Near Dahisar Naka Western Express HIghway Dahisar East,19.26303,72.874399,Maharashtra
Mumbai,MUMBAI- METRO JUNCTION,"Ground Floor – G44 & G45, Metro Junction Netivali Baug Shil Phata Road, Kalyan – 421 306. Tel No.9970022132",19.229087,73.123321,Maharashtra
Mumbai,PUNE-MUMBAI EXPRESSWAY,McDonalds Family REstaurants Sajgaon B Villaage Sajgaon Taluka Khalpur District Raigad,18.790447,73.298599,Maharashtra
Mumbai,MUMBAI- OM SAI PLAZA,"Om Sai Plaza., Opp Jain Sweet Near Kandivali Station Kandiwali West MUmbai 400067",19.204155,72.851114,Maharashtra
Mumbai,KHARGHAR- LITTLE WORLD,"Little World Mall & Multiplex Shop no. 13 & 14, Plot no. 21, Sector – 2,",19.030738,73.066472,Maharashtra
Mumbai,MUMBAI- OBEROI MALL,"Oberoi Mall, 3rd Floor Food court Gokuldam, Off Western Express Highway Goregoan (E), Mumbai - 66",19.173513,72.86004,Maharashtra
Mumbai,MUMBAI- EVERSHINE MALL,"Evershine Mall, Junction of Mind space & Link Road Malad West, Mumbai - 400064",19.179053,72.836167,Maharashtra
Mumbai,MUMBAI- MIRA BHAYANDAR,"Ostval Orbit, Mira Bhayanadar Road, Mira Raod, Thane- 401107",19.287248,72.867629,Maharashtra
Mumbai,MUMBAI- K STAR MALL,V N Purav Marg Near Diomand Garden Chembur East Mumbai -400071,19.05224,72.901733,Maharashtra
Mumbai,INORBIT VASHI,"Unit no 9 & 10, 2nd floor Food Court, Inorbit Mall , Plot no 39/1 Sector 30-A, Opp Vashi Railway Station, 400705",19.065904,73.000759,Maharashtra
Mumbai,KALYAN FOOD COURT,"2nd Floor , KS 37, Metro Junction Mal Netivali Baug Shil Phata Road, Kalyan – 421 306.",19.230241,73.123178,Maharashtra
Mumbai,MUMBAI- R MALL,"R mall, Unit No.1 Food Court, 3rd Floor, LBS Marg, Mulund West Mumbai-400080",19.18409,72.951398,Maharashtra
Mumbai,BIG MALL - THANE,"Big Mall - Thane, Big Shopping centre Ghodbunder Road, Kasarwadavali P.O Thane West, Thane 400607",19.267946,72.964954,Maharashtra
Mumbai,GROWELL 101 MALL,"G 01 & G O1A, GROWEL 101, Akurli Road Kandivili (East), Mumbai - 400 101",19.203403,72.85967,Maharashtra
Mumbai,SHIVAI-ANDHERI KURLA RD,"Unit nos 2 & 3, Shivai Dongre Industrial Premises co-op Soc Ltd 89, Kurla Andheri Road, Saki Naka, Mumbai 400 072",19.106022,72.884873,Maharashtra
Mumbai,ANDHERI(W) INFINITI MALL,"Unit no 209 - 210, 2nd floor Infinity mall, Link Road Oshiwara - Andheri(West), Mumbai",19.141054,72.831255,Maharashtra
Mumbai,INIFINITI MALL-MALAD(W),"Infinity Mall Malad (west), Kitchen Unit No. TF 314 - 315 - 316, Mumbai, Maharashtra 400064, India",19.184733,72.833512,Maharashtra
Mumbai,MUMBAI-DAHISAR LINK RD,"Unit no 1, A-Wing, Jayaram Heights Gagangiri Complex, New Link Road, Kandarpada, Dahisar(w), Mumbai 400 068",19.258283,72.853011,Maharashtra
Mumbai,MUMBAI-INORBIT MALAD,"Units no 15B & 16, Food Court, Inorbit Mall, Link Road, Mumbai, Maharashtra 400064, India",19.172703,72.835483,Maharashtra
Mumbai,MUMBAI-GHANSOLI,"Plot no 11, Near Ghansoli Railway Station Thane Belapur Raod, Ghansoli District Thane - 400 701",19.118343,73.006558,Maharashtra
Mumbai,MUMBAI-CAFE IDEAL ANDHERI,"Shirin Mansion, Ground Floor, Shop No 1, Gazder Road, Mumbail, Maharashtra 400058, India",19.11985,72.846139,Maharashtra
Mumbai,MUMBAI-MAGNET MALL,"Magnet Mal -Bhandup Neptune Magnet Mall LBS Marg, Bandup - West Mumbai -78",19.141738,72.931891,Maharashtra
Mumbai,MUMBAI MARKET CITY,"Unit Nos S1 & S2, Phoenix Market City Food Court, 2nd Floor, L.B.S Marg Kurla (West) Mumbai - 400070",19.08713,72.8889,Maharashtra
Mumbai,MUMBAI-SAI SAGAR BELAPUR,"Sai Sagar, Shop No 17, Ground Floor Plot no 69, Sector no 15, CBD Belapur Navi Mumbai 400 614",19.011198,73.034858,Maharashtra
Mumbai,MUMBAI-CASCADE KANDIVILI,,19.208959,72.87269,Maharashtra
Mumbai,MUMBAI-KOPARKHAIRANE,"Balaji Multiplex,Plot no. 90, Sector 8, Koparkhairane, Navi Mumbai - 400 709",19.101084,73.010199,Maharashtra
Mumbai,MUMBAI-BROADWAY AVENUE,"Evershine City,Vasai (East), Maharashtra, Pin Code 401208 Vasai",19.403958,72.837654,Maharashtra
Mumbai,MUMBAI-LODHA BOULEVARD,"Lodha Boulevard, Shop no 1,2,3,4 &5 Ground Floor, Opp Eastern Express Highway Thane West, 400 601",19.211783,72.984947,Maharashtra
Mumbai,MUMBAI-VISHWAMAHAL MULUND,"Shanti Bhuvan Junction Of J.D. Road and N.S. Road Mulund (West), Mumbai Mumbai-400080",19.173228,72.957033,Maharashtra
Mumbai,MUMBAI-BANSURI ULHASNAGAR,"Green Land Apt, Block No A-40 Room No 235 to 238, Bansuri Restaurant Gol Maidan, Ulhasnagar- 421002",19.235217,73.159641,Maharashtra
Mumbai,RIPPLES - NAVI MUMBAI,"Plot no 6A, Ripples Mall Sector -7, Airoli Navi Mumbai - 400 708",19.147335,72.995337,Maharashtra
Mumbai,Magnet Mall FC,"Magnet Mal -Bhandup, Unit no F-302 3rd Floor, Neptune Magnet Mall LBS Marg, Bandup - West Mumbai -78",19.142043,72.931816,Maharashtra
Mumbai,Viviana Mall-Thane,"Unit number FC-11 A, Viviana Mall Second Floor, Near Jupiter Hospital Eastern Express Highway,Panch Pakhadi Thane – 400 706",19.20884,72.972106,Maharashtra
Mumbai,Flames- Belapur,,17.289021,78.416576,Maharashtra
Mumbai,Thakur Aviation,"Thakur Polytechnic College 90 Feet Road, Thakur Complex Kandivili (East), Mumbai - 400 101",19.213688,72.864776,Maharashtra
Mumbai,Star Mall,V N Purav Marg Near Diomand Garden Chembur East Mumbai -400071,19.023115,72.841838,Maharashtra
Mumbai,R-City Ghatkopar-FC,"Unit No T-2C, 3rd Floor, R City LBS Marg, Ghatkopar West, Mumbai 400 086, Ghatkopar, Maharashatra",19.099629,72.916448,Maharashtra
Mumbai,R-City Ghatkopar-Store,"Unit no G- 57C, Ground Floor, R City LBS Marg, Ghatkopar West, Mumbai 400 086, Ghatkopar, Maharashatra",19.099381,72.916453,Maharashtra
Mumbai,R Mall- Thane,"R Mall Thane Shop No GF 13 & 14, FF 15, 16 & 17 Godbunder Road, Manpada",19.229987,72.977177,Maharashtra
Mumbai,Landmark Bhayander,"Landmark, Next to Nidh Hotel, Opp Maxus Mall, Uttan Road, Bhayander West Thane 401 101",19.294382,72.848108,Maharashtra
Mumbai,Centurion- Navi Mumbai,"Shop NO RB.1, Hawares centurion Mall 1st Floor, Sector No 19, Nerul - East, Seawood Navi Mumbai 400 706",19.024539,73.022273,Maharashtra
Mumbai,Shelar Park Kalyan,"Shelar park, Bldg No.5, Barave Road, Near Khadakpada Circle Khadakpada, Kalyan(West) 421301.",19.253248,73.137297,Maharashtra
Mumbai,A2Z Vasai,"Ground / First Floor, A to Z, Near Kauls Heritage City, Agrawal Complex Beside Allahabad Bank , Bhabhola Naka Vasai West, 401202",19.367614,72.816369,Maharashtra
Mumbai,Sai Elegance,"Sai Elegance, Village Mulgaon Mahakali Caves Road, Taluka Andheri Andheri East, 400 097",19.123016,72.864338,Maharashtra
Mumbai,Vaibhav Andheri,"Hingu Bhavan, Sahar Road Andheri East Station, Agarkar Chowk Mumbai, Maharashatra 400059",19.1184,72.847812,Maharashtra
Mumbai,Unity Heights Malad,"Shop no 1, 2 Unity Heights S V Road Malad West, Mumbai,S V Road Malad W",19.17908,72.846367,Maharashtra
Mumbai,Shalimar Goregaon,"Shalimar Miracle (Landmark: Near to City Centre Mall) Jawahar Nagar, SV road Goregaon (W) -400104",19.161525,72.846216,Maharashtra
Mumbai,Anupam Goregaon,"Anupam Chitra Mandir Pahadi Eksar, Station Road, near Bus Sta Goregaon East, Mumbai 400063",19.165325,72.851203,Maharashtra
Mumbai,Virar Global City,"Global City,Yashwant Building Opposite Magnus Motor,Bypass Road,Vasai Taluka Virar West.Palghar – 401303.",19.465396,72.805671,Maharashtra
Mumbai,NH8 Manor,Food Hub Mall Opposite Apple Restaurant Haloli Gaon NH8 Manor Palghar District – Thane Pin code- 401403,19.678909,72.908111,Maharashtra
Mumbai,Balaji Orion Mall,"Balaji Aangan Orion Mall, Shop No 18 & 19 Mumbai –Goa Road FP No 311, Nr. Panvel Bus Depot Navi Mumbai, Panvel, Pin – 410206",18.992957,73.115786,Maharashtra
Mumbai,Bandra NTS,"McDonalds Family Restaurants, Khan House, 1st Floor, Next Times square, Next to Stanislaus High School, Hill Road, Bandra West, Mumbai - 400050",19.054478,72.828207,Maharashtra
Mumbai,Walshind (Rohit DT),"McDonalds Family Restaurant, Rohit Petrol Pump, Beside Arham Logic parc, Near Pre Residency School , Mumbai –Nasik highway(NH3), Town Bhiwnadi,   Dist – Thane, Pin code - 421302",19.303224,73.109326,Maharashtra
Mumbai,Mumbai BKC MMRDA,"Urban Plaza, Plot C-5, GN block, Near Asian Heart Hospital, BKC, Mumbai- 400051",19.065363,72.861564,Maharashtra
Mumbai,Swastik Naigaon,"McDonalds Family restaurants. Survey No.58, Maljipada,  Mumbai Ahmedabad National Highway No.8,  Opposite Krishna Resorts & Water Park. Behind SP Dhaba, Near HP Petrol Pump, Naigaon, Tal - Vasai, Dist - Palghar Pin CODE- 401208",19.329416,72.892939,Maharashtra
Mumbai,Mumbai Goregaon Nesco,"McDonalds Family Restaurants,  Nesco Hospitality Pvt Ltd, Hall no. 2,  Food court , Nesco Complex, gate no.2 ,   Off. western express highway, Opp. Mahananda Dairy,   Goregaon (East) Mumbai - 400063",19.14998,72.85504,Maharashtra
Mumbai,"Kolar, Highway Star","McDonald\s Family Restaurants, Highway Star Rest, Sy No.11 and 12,NH - 75, Venkatapura Vill, Huthur Hobli, Kolar, Karnataka, 563131",13.13809,78.2083,Maharashtra
Nasik,Nasik,"Devi Zone, Opp Big Bazaar College Rd,Nasik- 4220055",20.00568,73.76639,Maharashtra
Nasik,Nashik Road Inox,"Devi Zone, Opp Big Bazaar College Rd,Nasik- 4220055",19.97839,73.807697,Maharashtra
Pune,JM Road Pune,"Suyog Plaza, Plot No. 1278, Jangli Maharaj Road, Shivaji Nagar Pune - 411 004.",18.51823,73.84458,Maharashtra
Pune,Pune Inox,"Inox Multiplex, Plot No. D Near Council Hall Bund Garden Road, Pune 411001",18.52682,73.87794,Maharashtra
Pune,Pune Marigold,"Marigold Complex ,Gr Floor,Survey No 15,Wadgaon Sheri,Kalyani Nagar,Pune- 411014",18.54555,73.90642,Maharashtra
Pune,Kothrud Pune,"Survey-No -127, Gopal House Opp Harshal Gardens,Karve Rd. Kothrud Pune- 411029",18.50478,73.82159,Maharashtra
Pune,PUNE-AUNDH,"Shop # 8-14, Stellar Enclave D.P. Road, Aundh. Pune- 411007",18.562623,73.807643,Maharashtra
Pune,PUNE-MOLEDINA,"Shop # 34, Kakade Magnum Mall, Moledina Rd ,Pune- 411001",18.519444,73.877222,Maharashtra
Pune,PUNE-PCMC,"Premier Plaza, Mumbai- Pune Road Chinchwad. Pune- 411019",18.636518,73.796567,Maharashtra
Pune,PUNE HINJEWADI,"Hinjewadi Pune HPCL Plot No.152/3/1A, KPIT commerce, Hinjewadi Marunie road, Tehsil muishi, Pune -411057.",18.593968,73.735747,Maharashtra
Pune,PUNE-SACRED WORLD,"Sacred World- Pune Unit NO. G A 18& GA-19 Sacred World S NO 75/2/2B, MOuje Wanowrie, Fatima Nagar",18.490953,73.900286,Maharashtra
Pune,PUNE - KHEDSHIVAPUR,"BPCL Company Pump Near Hotel Nataraj, At post warve, NH4, Pune Satara Road Taluka Bhor, District Pune 412205",18.29979,73.874413,Maharashtra
Pune,PUNE-INORBIT MALL,"Food court area, Survey no 35 Opp CTR factory, Opp Giga space Village Wadgaon sheri, 7, Ahmednagar Rd, Taluka Haveli - Pune",18.560846,73.920458,Maharashtra
Pune,PUNE-MARKETCITY FOODCOURT,"Food Court, 2nd Floor, Unit no S-12 & S-13 Survey no. 207 Next to Tyco Electronics, Nagar Road Viman Nagar , Pune 411014",18.561655,73.917044,Maharashtra
Pune,PUNE-MARKET CITY,"Food Court, 2nd Floor, Unit no S-12 & S-13 Survey no. 207 Next to Tyco Electronics, Nagar Road Viman Nagar , Pune 411014",18.561655,73.917044,Maharashtra
Pune,PUNE-AMANORA,"Amanora Park Township Village Sadesatranali ( 17 - 1/2 Nali) Hadapsar, Taluka Haveli, District Pune Pune - 411028",18.518225,73.935458,Maharashtra
Pune,PUNE-MEGA MART,"Survey no 365, Parts no 1/2, 1/3, 1/4 & 1/5 Situated at Old Mumbai Pune Road Dapodi, PCMC, Pune 411012",18.58687,73.83358,Maharashtra
Pune,PUNE-KUMAR PACIFIC,"Kumar Pacific Mall CTS 42 & 43, 3rd Floor, Shankar Sheth Road Gultekdi, Pune 411 042 Pune",18.50094,73.8725,Maharashtra
Pune,PUNE-BPCL TALEGAON,"Off Mumbai Pune Expressway, Talegaon - Pune 410506, Pune, Maharashtra 410506, India",18.711657,73.652731,Maharashtra
Pune,PUNE-CENTRAL MALL,"Kakade Centre Port, Unit no 201 CST No.2687B, Bhamburda Shivaji Nagar,Near Pune University, Pune 411 005",18.5103,73.83877,Maharashtra
Pune,PUNE - CENTER PORT,"Kakade Centre Port, Unit no 201 CST No.2687B, Bhamburda Shivaji Nagar,Near Pune University, Pune 411 005",18.53744,73.83585,Maharashtra
Pune,PUNE - PIMPLE SAUDAGAR,"Tiffin`s, Rainbow Plaza,Near Domino`s Pizza Beside Hotel Dalchini,Happy Thoughts Road, Rahatani,Pune - 411017",18.596098,73.788645,Maharashtra
Pune,PUNE-PAUD ROAD,"94/4, Plot no 5/2 + 6, Bhusari Colony Paud Road, Near Kothrud Bus depot Kothrud - Pune -38",18.5081,73.79653,Maharashtra
Pune,PUNE-THERGOAN,"Survey no 15 / 4, Near Santosh Nagar Pune 411 033",18.608405,73.770597,Maharashtra
Pune,Magarpatta - Pune,"Unit No F22, Seasons Mall Magarpatta, Hadapsar Pune - 411 028",18.519116,73.931899,Maharashtra
Pune,Loni  Pune,"M/S. Sanjay Service Station ( HPCL Oil Terminal), Loni Village, Kadamwak wasti, Pune - Solapur Road, 412201",18.490762,74.01372,Maharashtra
Pune,Poorva Heights,"Poorva Shrushti, Bldg No C, Ground Floor S.no 33 /1 /1, Wadgoan Khurd, Near Lokmat Bhavan Sinhagad Rd, Pune , Maharashatra 410048",18.458136,73.807017,Maharashtra
Pune,Megamart Sinhagad Rd,"Survey no 365, Parts no 1/2, 1/3, 1/4 & 1/5 Situated at Old Mumbai Pune Road Dapodi, PCMC, Pune 411012",18.475766,73.822491,Maharashtra
Pune,Pune Warje,"Showroom nos. 102 and 103 bearing survey number 116 and Hissa numb Village Warje, Tal Haveli, Dist - Pune - 411 058",18.487374,73.796431,Maharashtra
Pune,Pune Balewadi,"Unit No. 19, Balewadi High Street Cummins India Campus, Survey No. 21 Balewadi, Pune,Balewadi - 411045",18.570209,73.774481,Maharashtra
Pune,Sonali Satara,"Saluja Chambers, Survey No. 692/A/2A, Bibwewadi,Next to City Pride. Pune- Satara Road Pune - 411037",18.487798,73.857776,Maharashtra
Pune,Ambegaon Pune,"Survey No:32/2, Gurukrupa hall, Ambegaon Budruk, Near Dmart,  Pune 411046.",18.451693,73.844587,Maharashtra
Pune,"NIBM, Royal Heritage Mall, Pune","McDonald\s Family Restaurants,Unit No SF 09, 2nd Floor, Dorabjees Royal Heritage Mall, S No 24, Mohammadwadi, Pune,Kondhwa , Pin-411060",18.46719,73.90597,Maharashtra
Pune,Central  4,"Central Mall - Pune, MSM Hall, Near Garware College, Karve Road, Pune, MH 411004, India",18.51071,73.83529,Maharashtra
Solapur,Solapur Oasis Mall,"OASIS MALL ,Gr flr Meena Theatre , Murarji Peth,Solapur Oasis -413001 Maharashtra.",17.676626,75.898616,Maharashtra
Nellore,"Felicity  Mall, Nellore","McDonald\s Family Restaurants,MGB Felicity Mall, GT Road, Dargamittai, Nellore, Andhra Pradesh 524003",14.43227,79.96668,Andhra Pradesh
Bangalore,BENGALURU-BRIGADE,"43,44,45 Brigade Road Opp. Space Centre Bangalore- 560029",12.973286,77.607558,Karnataka
Bangalore,BENGALURU-ECOSPACE,"Unit no.001 , Ground floor ,RMZ Ecospace Bellandur Village , Varthur Hob Banglore East Taluk, Bangalore-5600087",12.926276,77.680589,Karnataka
Bangalore,BENGALURU-INFINITY,"RMZ Infinity , Municipal No. 3, Old Madras Road, Opp Goplan Siganture Mall, Bengaluru., Karnataka 560016, India",12.994079,77.66134,Karnataka
Bangalore,BENGALURU-JUMBO MALL,"Total Mall (Jumbo Mall) Madivala Commercial plaza, Junction of Hosur road & Sarjapur road Banglore 560068",12.921668,77.620593,Karnataka
Bangalore,BENGALURU- CHANNAPATNA,"BPCL Gas Station, Sy No. 166 & 2/1 Bangalore Mysore Road, Belakere Village, Maralur Hobli, Channapatna Taluk,",12.631675,77.118417,Karnataka
Bangalore,BENGALURU- KASTURBA ROAD,"M/s India Garage No. 10, Kasturba Road, Bangalore - 560 001",12.97587,77.598455,Karnataka
Bangalore,BENGALURU- BAGMANE,"The Escape Mall Food Court, Ground Floor Bagmane Commerce, Bagmane Tech Park, Byrasandra Village, C.V. Raman Nagar,",12.979312,77.657901,Karnataka
Bangalore,BENGALURU- GANDHI BAZAAR,"No 15, Bull Temple Raod Next to HSBC Bank Basavanagudi, Bangalore-56004",12.947382,77.568164,Karnataka
Bangalore,BENGALURU- KEMP FORT,"Kempfort Total Mall Airport Road Murugeshpalya, Bangalore -560017",12.959082,77.657114,Karnataka
Bangalore,BENGALURU- BEL ROAD,"Ground Floor, Shashi Arcade 215, New Bel Road Near M.S. Ramaiah Campus, Bangalore - 560049",13.029097,77.570822,Karnataka
Bangalore,BENGALURU-JP CENTRAL MALL,"Central Mall,Central -2# 45/2, 45th Cross, JP Nagar II Phase Opp Jaya Nagar, 9th Block Big Bazaar Bangalore - 560069",12.916693,77.592268,Karnataka
Bangalore,BENGALURU-ARCH MALL,"Arch Mall, No 18/2, Rajarajeshwari Nagar Nayandanahally Village, Mysore Road Bangalore - 560 039",12.935985,77.517569,Karnataka
Bangalore,BENGALURU- PEENYA,"Peenya Bengaluru, Shree Ragwendra Fuel HPCL Dealer, BDA Industrial Suburb, 2nd Stage Tumkur Road,Peenya Bengaluru - 58",13.033434,77.531097,Karnataka
Bangalore,BENGALURU-LIDO MALL,"Ground Floor, Lido Mall 1/4, Swami Vivekananda Road Near trinity circle, Bangalore 560 008",12.973051,77.621283,Karnataka
Bangalore,BENGALURU-FORUM VALUEMALL,"Unit No #32, Ground Floor, #62 whitefiled Main Road, Bangalore 560066",12.959521,77.747422,Karnataka
Bangalore,BENGALURU-COMMERCIAL STRT,"Commercial Street Bengaluru, #132, Commercial Street Opp Commercial Street Police Station, Bengaluru, 560001",12.982673,77.607169,Karnataka
Bangalore,BENGALURU-CMH 2,"Ground Floor, Ashwini Complex 539, CMH Rd, Indira Nagar Bengaluru 560 038",12.97807,77.63839,Karnataka
Bangalore,BENGALURU-BASAVESHWAR NGR,"Basaveshwar Nagar-Bangalore Basaveshwarnagar No. 5, 3 rd Stage, 4th Block, Basaveshwarnagar, Bangalore -560079",12.98862,77.537408,Karnataka
Bangalore,BENGALURU-HSR LAYOUT,"HSR Layout No.1, 14th Main HSR Layout Sector VII Bangalore 560 102",12.912159,77.637944,Karnataka
Bangalore,BENGALURU-ESTEEM MALL,"G1, Esteem Mall, Bellary Road Hebbal, near Hebbal Flyover Bangalore 562024",13.049279,77.592946,Karnataka
Bangalore,BENGALURU-JAYANAGAR,"No.654/66, 11th Main Road, 4th Block, Jayanagar Bangalore – 560011",12.92781,77.58619,Karnataka
Bangalore,BENGALURU-MALLESHWARAM,"Gokul Complex, 335 / 1 Sampige Road, Malleshwaram Bangalore 560003",13.00343,77.57142,Karnataka
Bangalore,BENGALURU-BROOKFIELD,"Brookfields DT, # 736 Kundanahalli Main Road Next to Shraddha Brindavan Apartments,Whitefied, Bengaluru 560 066",12.966957,77.71675,Karnataka
Bangalore,BENGALURU-MOSQUE ROAD,"Aziz Gold Building, Plot no 13 Mosque Road Bangalore 560 005",12.997593,77.614566,Karnataka
Bangalore,BENGALURU-MEENAKSHI MALL,"Royal Meenakshi mall, No 424 / 376 / 487 in Survey no 63 Bannerghata Main Road, Bangalore 560076",12.8759,77.5956,Karnataka
Bangalore,BENGALURU-BANASHANKARI,"Banashankari Bangalore No.2466, Situated at 24th Cross Opp to BDA Complex Banashankari 2nd Stage, Bangalore 560 070",12.924257,77.564888,Karnataka
Bangalore,BENGALURU-ORR CENTRAL MALL,"Bangalore Central S.No 5/78/7, Bellandur Village Sarjapura Rd, Bangalore Fast Taluk, Bangalore 560103",12.926016,77.675371,Karnataka
Bangalore,BENGALURU-SIGNATURE MALL,"Shop No 6, 7 & 8 Gopalan Signature Mall Benniganahalli Old Madras Road Bangalore 560045",12.99284,77.66153,Karnataka
Bangalore,BENGALURU-KAMMANAHALLI,"4M 511, HRBR 3rd Block Kammanahalli Main Road Bangalore 560043",13.02562,77.63687,Karnataka
Bangalore,BENGALURU-BRIGADE ORION,"Orion Mall, Brigade Gateway Campus 26/1 Dr. Rajkumar Road, Malleshwaram West Bangalore - 560 055",13.01114,77.55491,Karnataka
Bangalore,BANGALORE-INORBIT FC,"Inorbit Food Court Bangalore Inorbit Mall, Unit no 6, 7 and 8 Whitefield, Bengaluru - 560 066",12.979453,77.729103,Karnataka
Bangalore,BENGALURU-VIJAYA NAGAR,"Site Nos 2934 /E & 2935/E, Magadi Road, Chord Road,, Bangalore, Karnataka 560040, India",12.968512,77.537003,Karnataka
Bangalore,Ramamurthy Nagar - Bangalore,"Ramamurthy Nagar, KVS Pinnacle, IM-703, IM-701, Old Madras Road, Bangaluru, Karnataka 560043, India",13.013566,77.661485,Karnataka
Bangalore,JNC Koramangala,"Unit No 10, AKS Plaza No.10 Industrial Layout, JNC Road Koramangala Bangalore 590095",12.935356,77.615535,Karnataka
Bangalore,Mantri,"LG 49, Mantri Square, # 1, Sampige Road,Malleshwaram, Bangalore - 560003",12.991474,77.571296,Karnataka
Bangalore,Downtown Park,"Down Town Park-II- Jansons Mall,Plot No. 48, New Airport Road,Meenakunte Village,Jala Hobli, Bangalore North Taluk, Bangalore.- 562157",13.190178,77.64514,Karnataka
Bangalore,R T Nagar,"Shobha Arcade, Mumcipal No 8 PD 97-5-8, R T Nagar Main Road P&T Colony, R T Nagar, Bangalore 560032",13.023339,77.592777,Karnataka
Bangalore,Bengaluru- Bannerghatta,"# 148 / 1 / 2, Mantra Paradise Arakere Signal, Bilekahalli Village Bannerghata Road, Bangalore 560076",12.89127,77.598673,Karnataka
Bangalore,BTM - Bangalore,"ND Fusion Mall, Site no 73 / 74/ 113 / 114, BTM 2nd Stage, Ist phase,, Bengalore, Karnataka 560076, India",12.915833,77.61024,Karnataka
Bangalore,Sahakar Nagar Bangalore,"Muncipal no 3148 (Old muncipal no 490/8 & 491/8) F Block, Sahakar Nagar Main Road, SahakarNagar, BBMP Ward no 13, Bangalore 560092",13.063681,77.589552,Karnataka
Bangalore,"JP Nagar, Hanumesh","Central Mall,Central -2# 45/2, 45th Cross, JP Nagar II Phase Opp Jaya Nagar, 9th Block Big Bazaar Bangalore - 560069",12.906164,77.585466,Karnataka
Bangalore,Bengaluru-Elements Mall FC,"MSR-REGALIAA ELEMENTS No. 132/1A, 132 Nagvara Village, Thanisandra Main Road Kasaba Hobli, Bangalore North Taluka, 560045",13.04496,77.626459,Karnataka
Bangalore,Brigade Orion E,"Orion Mall, Brigade Gateway Campus 26/1 Dr. Rajkumar Road, Malleshwaram West Bangalore - 560 055",13.001409,77.632677,Karnataka
Bangalore,Ascendas Square Mall,"McDonalds Family Restaurants, ASCENDAS MALL,  Ground floor, Unit no. G-2/G3,  WHITEFIELD ROAD, OPPOSITE TAJ VIVANTA, ITPL, BANGLORE- 560048",,,Karnataka
Bangalore,Rammurthy Nagar,"Mcdonald\s Family Restaurant IM-703 and IM 701  Old Madras Banaswadi Road Layout Banaswadi, Bangalore â€“ 560043 Karnataka.",13.01196,77.64713,Karnataka
Belgaum,KLE Belgaum,"KLE University Jawaharlal Nehru Medical College Belgaum, Karnataka,KLE University, Karnataka 590010",15.8851,74.519385,Karnataka
Hubli,Hubli KLE,"B V B College Of Engg & Tech Vijay Nagar, Vidya Nagar, Old PB Road Hubli, Karnataka,B V B College,Karnataka 580031",15.368054,75.121666,Karnataka
Mangalore,Forum Mangalore,"Forum Fiza Mall, Pandeshwar Road Mangalore Forum Mall, Mangalore 575001 Karnataka",12.858101,74.838187,Karnataka
Mangalore,City Center- Mangalore,"Citi Center Mall K S Rao Road Mangalore,K S Rao Road, Karnataka 575 001",12.871369,74.842421,Karnataka
Mysore,MYSORE-JLB ROAD,"HPCL Petrol pump compound Sri Ganesh Service Station Near Dasappa circle, JLB(Jhansi Laxmi Bai Road) Mysore 570005",12.312989,76.644536,Karnataka
Mysore,Mall of Mysore,"C1, M.G. Road, Indira Nagar Extension, Nazarbad Mohalla, Opposite Race Course Near Mysore Zoo, Mysuru, Karnataka, 570010",12.297962,76.664738,Karnataka
Calicut,Hilite Mall,"Shop No. 3005 - 3008, 3rd Floor, Hi Lite Mall, Hi Lite City, NH 17 Thondayad Bypass, Guruvayoorappan College P.O., Calicut - 673014, Kerala",11.248487,75.83365,kerala
Cochin,Cochin- Lulu Mall,"G 66,67,68,77, Lulu International Shopping Mal Edapally, Cochin-682024 Kerala",10.027434,76.308198,kerala
Cochin,MG Road,"Ravi’s Arcade, Next to Citi Bank, M.G Road, Cochin - 682035.",9.980652,76.283319,kerala
Cochin,Cochin Holiday Inn,"Pallath Square, Near Akshay Granites Chakaraparambu Vyitilla, NH By Pass Road Ernakulam, Kerala 680032",9.987906,76.316273,kerala
Palakkad,Kerala – Pallakad,"Zeden Arcade, Opp Shri Chakra Hotel Chandra Nagar, Palakkad kerala 678007",10.772345,76.682523,kerala
Trissur,"Nadathara, NH-47","#124/2, Near Nadathara Junction NH Byepass, Trissur Kerala,Nadatara Junction, Kerala 680751",10.512695,76.259106,kerala
Trissur,Shobha City Mall,"FC 15, 2nd Floor, Sobha City Mall, Sobha City, Puzhakkal P.O., Puzhakkal, Thrissur – 680553, Kerala",10.54989,76.183351,kerala
Chennai,ANNA NAGAR - CHENNAI,"Plot No. 4673, 106 West Block 2nd Avenue, Near Roundtana, Anna Nagar, Chennai 600 040.",13.084875,80.217211,Tamilnadu
Chennai,AMPA SKYWALK - CHENNAI,"Ampa Skywalk , Junction of No1 Nelson Manickam Road, 627 Poonamalle High Road, Aminjikari, Chennai- 600029",13.073611,80.221389,Tamilnadu
Chennai,GRAND ARCADE - CHENNAI,"Grand Arcade Chennai(Srijan), S.No. 330/12 Vellacherry Village, Dr. Seetharaman Nagar, Nr Vijay Nagar Bus Stop Next to Sutherland & Adyar Anand Bhavan,Velachery Tambaram Rd, Chennai 600 042",12.972334,80.219785,Tamilnadu
Chennai,CHENNAI-CITI CENTER MALL,"No 10 & 11, Chennai Citi Centre Dr. RadhaKrishnan Salai Mylapore, Chennai 600004",13.04312,80.274105,Tamilnadu
Chennai,CHENNAI-KILPAUK,"Om Sakthi Plaza, 226, Kilpauk Garden Road,, Chennai, Tamil Nadu 600010, India",13.083388,80.240219,Tamilnadu
Chennai,CHENNAI-ARCOT ROAD,"No 6, Near Kesavarthini,Janaki Nagar, Valasaravakkam,Arcot Road Chennai 600087",13.042435,80.181742,Tamilnadu
Chennai,Ashok Nagar - Chennai,"New no 43 & 44, old no 96 & 97 11th Avenue, Ashok Nagar Chennai 600083",13.03175,80.211439,Tamilnadu
Chennai,OMR,"Old Mahabalipuram Road, Semmancherry Village,Sholinganallur Taluk, Kancheepuram District, Pin Code 600 119",12.864331,80.226256,Tamilnadu
Chennai,Chennai Forum Mall,"UG 25, Forum Mall, #183, NSK Salai Arcot Road, Vadapalani, Chennai TAMILNADU 600026",13.050034,80.209627,Tamilnadu
Chennai,Adyar Chennai,"Sai Bhavanam, New No 53 Old No 26, First Main Road Gandhi Nagar, Adyar, Chennai 600 020",13.006905,80.254215,Tamilnadu
Coimbatore,COIMBATORE-FUN REPUBLIC MALL,"Restaurant No 1, Gr. Floor & Upper Gr. Floor Village Sowipalayam, Peelamedu Avinashi road Coimbatore - 641 014",11.024709,77.010442,Tamilnadu
Coimbatore,COIMBATORE-D B ROAD,,19.20884,72.972106,Tamilnadu
Coimbatore,COIMBATORE-BROOKEFIELD FC,"Brooke Field Mall,Shop No 10 & 11, 3 Floor (FC) No 67 - 71, Krishnasamy Road Coimbatore 641001 Coimbatore",11.008223,76.960085,Tamilnadu
Shoolgiri District,SHOOLGIRI-CHENNAI,"HPCL Fuel Station Shoolgiri Highway, Bangalore to Chennai Highway, NH 7 Hosur Krishnagiri Road,Shoolgiri, Tamilnadu",12.66503,78.00507,Tamilnadu
Hyderabad,HYDERABAD-PRASAD MALL,"Prasads Imax,Off NTR Garden Necklace Road, Hyderabad- 500 063",17.412571,78.465722,Telangana
Hyderabad,HYDERABAD-SANALI,"Lower Ground Floor, Abids, Opp Cheramas. Hyderabad- 500001",17.393143,78.475829,Telangana
Hyderabad,HYDERABAD-CITY CENTRE,"City Centre Mall 1st Floor, Banjara Hills Road No-1-10, Opp Taj Krishna Hyderabad- 500001",17.414932,78.449422,Telangana
Hyderabad,HYDERABAD KHARKHANA RD,"Rainbow Mall, Survery No- 59/8 Kharkhana Rd, Secunderabad Cantonment. Secunderabad -500009",17.464886,78.503248,Telangana
Hyderabad,HYDERABAD- A S RAO,"Gound floor, Vega Block, Phase V, Software Units Layout, Madhapur, Hyderabad 500 081.",17.477103,78.564827,Telangana
Hyderabad,HYDERABAD- GMR AIRPORT,"C&D Level, GMR Hyderabad International Airport Ltd Off Hyderabad - Bangalore Highway, Shamshabad, Hyderabad - 501 218",17.235871,78.42921,Telangana
Hyderabad,INORBIT - CYBERABAD,"Inorbit Mall Food Court Unit no F&B 9 & 10, 2nd Floo Survey no. 64(part), Madhapur Village, Serilimgampally mandal Ranga Reddy District, Hyderabad 500 081",17.434088,78.386669,Telangana
Hyderabad,HYDERABAD-S D ROAD,"S.D Raod Hyd, Shri Arcade, M.NO.1.2.271, S.D Road, Secunderabad 500003",17.441641,78.491244,Telangana
Hyderabad,HYDERABAD-HIMAYAT NAGAR,"House No 3-6-562, Adjacent To Alto Trade Center, Himayat Nagar Hyderabad 500029",17.401137,78.486805,Telangana
Hyderabad,HYDERABAD-R K CINEPLEX,"Opp Prasad Eye Hospital Road no 2, Banjara Hills, Hyderabad - 500 034",17.423267,78.427633,Telangana
Hyderabad,HYDERABAD-TOLI CHOWKI,"Shop no 1, 1A,2A & 2B, Muncipal Nos 8-1-305 And 306, Survey no 14, Anand Silicon Chip ToliChowki, Shaikpet, Hyderbad 500008",17.405846,78.403503,Telangana
Hyderabad,HYDERABAD-HITECH CITY,"B.K Towers, Plot no 1, Sector II,, Hyderabad, Telangana 500081, India",17.448068,78.379093,Telangana
Hyderabad,HYDERABAD-CENTRAL MALL,"McDonalds Family Restaurant, Hyd Central Mall, Lower Ground Floor Punjagutta, Hyderabad, Hyderabad, Telangana 500082, India",17.426338,78.453031,Telangana
Hyderabad,HYDERABAD-SIS MALL,"Plot Nos 17,18,19 & 20, Syno :166/P Ground Floor, South India Shopping Mall KPHB Phase I, Next to Usha Mullaipudi Raod entrance KPHM Hyderabad -72",17.493693,78.402763,Telangana
Hyderabad,Manjeera,"Manjeera Trinity Mall, JNTU Road, KPHB Phase III Kukatpally, Hyderabad 500072",17.492112,78.393665,Telangana
Hyderabad,Gaganpahad,"Survey No.222, Adj to BPCL Petrol Pump, Gaganpahad Village, Rajendra Nagar Mandal, Rangareddy District, 501 323",17.289021,78.416576,Telangana
Hyderabad,Mehdipatnam,"H.No. 10-3-76 Beside Mega Mart Mehdipatnam, Hyderabad 500028, A.P",17.39651,78.44308,Telangana
Hyderabad,Uppal,"Survey No 40 & 41,Narapally Village Ghatkesar Mandal, R.R District, Hyderabad, Uppal Andra pradesh 500088",17.419236,78.635506,Telangana
Hyderabad,Appaji Complex,,17.368145,78.530202,Telangana
Hyderabad,Kukatpally-Forum Sujana,"Manjeera Trinity Mall, JNTU Road, KPHB Phase III Kukatpally, Hyderabad 500072",17.483756,78.389235,Telangana
Hyderabad,LB Road,"Hyderabad LB Nagar, H.No: 8-15-121, Survey number 55, and 56,  Karmanghat Village, Saroornagar mandal, L.B. Nagar, R.R. District – 500 074",17.342523,78.555897,Telangana
