"id","title","description","street","city","state","postal_code","country","lat","lng","phone","fax","email","website","logo_id","path","marker_id","description_2","open_hours","ordr","slug","brand","special","categories","days_str"
"508","Axis Mall","","Major Arterial Road(South-East), CF Block(Newtown), Action Area 1C, Newtown, New Town-700156","KOLKATA","WEST BENGAL","700156","India","22.5990219","88.4714193","","","","https://stylebaazar.in","0","null","1","","{""mon"":[""10:00 AM - 10:00 PM""],""tue"":[""10:00 AM - 10:00 PM""],""wed"":[""10:00 AM - 10:00 PM""],""thu"":[""10:00 AM - 10:00 PM""],""fri"":[""10:00 AM - 10:00 PM""],""sat"":[""10:00 AM - 10:00 PM""],""sun"":[""10:00 AM - 10:00 PM""]}","0","axis-mall-kolkata","","","null","Mon, Tues, Wed, Thur, Fri, Sat, Sun"
"507","CUTTACK(02)","","G T Road , Opposite Govindpur Thana , Govindpur - 828109","CUTTACK(02)","ODISHA","828109","India","20.462521","85.8829895","9147415490","","","https://stylebaazar.in","0","null","1","","{""mon"":[""10:00 AM - 10:00 PM""],""tue"":[""10:00 AM - 10:00 PM""],""wed"":[""10:00 AM - 10:00 PM""],""thu"":[""10:00 AM - 10:00 PM""],""fri"":[""10:00 AM - 10:00 PM""],""sat"":[""10:00 AM - 10:00 PM""],""sun"":[""10:00 AM - 10:00 PM""]}","0","cuttack-02-cuttack","","","null","Mon, Tues, Wed, Thur, Fri, Sat, Sun"
"520","EB – ARAMBAGH","","Arambagh Link Road, Near Axis Bank, Arambagh, West Bengal 712601","HOOGLY","WEST BENGAL","712601","India","22.8765026","87.7909507","7044080372","","","https://stylebaazar.in","0","null","1","","{""mon"":[""10:00 AM - 10:00 PM""],""tue"":[""10:00 AM - 10:00 PM""],""wed"":[""10:00 AM - 10:00 PM""],""thu"":[""10:00 AM - 10:00 PM""],""fri"":[""10:00 AM - 10:00 PM""],""sat"":[""10:00 AM - 10:00 PM""],""sun"":[""10:00 AM - 10:00 PM""]}","0","eb-arambagh-hooghly","","","null","Mon, Tues, Wed, Thur, Fri, Sat, Sun"
"510","EB-BERHAMPORE","","34, N.H. Road,Mohana Bus Stand,742101","BERHAMPORE(EB)","WEST BENGAL","742101","India","24.0980834","88.25751550000001","7044055690","","","https://stylebaazar.in","0","null","1","","{""mon"":[""10:00 AM - 10:00 PM""],""tue"":[""10:00 AM - 10:00 PM""],""wed"":[""10:00 AM - 10:00 PM""],""thu"":[""10:00 AM - 10:00 PM""],""fri"":[""10:00 AM - 10:00 PM""],""sat"":[""10:00 AM - 10:00 PM""],""sun"":[""10:00 AM - 10:00 PM""]}","0","eb-berhampore-berhampore-eb","null","null","11","Mon, Tues, Wed, Thur, Fri, Sat, Sun"
"401","KEONJHAR","","Barbil Road,Near Union Bank, Magurgadia Keonjhar, Odisha","KEONJHAR","ODISHA","758001","India","0","0","6292244966","","","","0","null","1","","{""mon"":[""10:00 AM - 10:00 PM""],""tue"":[""10:00 AM - 10:00 PM""],""wed"":[""10:00 AM - 10:00 PM""],""thu"":[""10:00 AM - 10:00 PM""],""fri"":[""10:00 AM - 10:00 PM""],""sat"":[""10:00 AM - 10:00 PM""],""sun"":[""10:00 AM - 10:00 PM""]}","0","keonjhar-keonjhar","","","null","Mon, Tues, Wed, Thur, Fri, Sat, Sun"
"513","SB – ALAMNAGAR","","Alamnagar , Azad chowk, Near khagaria bus stand , Madhepura - 852210","MADHEPURA","BIHAR","852210","India","25.9225567","86.798525","9147372796","","","https://stylebaazar.in","0","null","1","","{""mon"":[""10:00 AM - 10:00 PM""],""tue"":[""10:00 AM - 10:00 PM""],""wed"":[""10:00 AM - 10:00 PM""],""thu"":[""10:00 AM - 10:00 PM""],""fri"":[""10:00 AM - 10:00 PM""],""sat"":[""10:00 AM - 10:00 PM""],""sun"":[""10:00 AM - 10:00 PM""]}","0","sb-alamnagar-madhepura","null","null","11","Mon, Tues, Wed, Thur, Fri, Sat, Sun"
"533","SB – AYODHYA","","I.P. TOWER, Rampath Niyawan Road, Opposite ICICI Bank, Ayodhya - 224001","AYODHYA","UTTAR PRADESH","224001","India","26.7820975","82.17770589999999","9147416438","","","https://stylebaazar.in","0","null","1","","{""mon"":[""10:00 AM - 10:00 PM""],""tue"":[""10:00 AM - 10:00 PM""],""wed"":[""10:00 AM - 10:00 PM""],""thu"":[""10:00 AM - 10:00 PM""],""fri"":[""10:00 AM - 10:00 PM""],""sat"":[""10:00 AM - 10:00 PM""],""sun"":[""10:00 AM - 10:00 PM""]}","0","sb-ayodhya-ayodhya","null","null","null","Mon, Tues, Wed, Thur, Fri, Sat, Sun"
"515","SB – BADARPUR","","S.T Road, Badarpur, Near N.C College, Karimganj, Assam","BADARPUR","ASSAM","","India","24.8701428","92.55964709999999","9147415492","","","https://stylebaazar.in","0","null","1","","{""mon"":[""10:00 AM - 10:00 PM""],""tue"":[""10:00 AM - 10:00 PM""],""wed"":[""10:00 AM - 10:00 PM""],""thu"":[""10:00 AM - 10:00 PM""],""fri"":[""10:00 AM - 10:00 PM""],""sat"":[""10:00 AM - 10:00 PM""],""sun"":[""10:00 AM - 10:00 PM""]}","0","sb-badarpur-badarpur","","","null","Mon, Tues, Wed, Thur, Fri, Sat, Sun"
"529","SB – BHIKHANA PAHARI","","Bhikhina Pahari More, opp. Police chowki, Patna - 800004","BHIKHINA PAHARI","BIHAR","800004","India","25.6150204","85.1657369","9147415700","","","https://stylebaazar.in","0","null","1","","{""mon"":[""10:00 AM - 10:00 PM""],""tue"":[""10:00 AM - 10:00 PM""],""wed"":[""10:00 AM - 10:00 PM""],""thu"":[""10:00 AM - 10:00 PM""],""fri"":[""10:00 AM - 10:00 PM""],""sat"":[""10:00 AM - 10:00 PM""],""sun"":[""10:00 AM - 10:00 PM""]}","0","sb-bhikhana-pahari-bhikhina-pahari","null","null","null","Mon, Tues, Wed, Thur, Fri, Sat, Sun"
"538","SB – CHAKRADHARPUR","","BATA ROAD, OPPOSITE ICICI BANK, CHAKRADHARPUR, JHARKHAND PIN -833102","CHAKRADHARPUR","JHARKHAND","833102","India","22.67354","85.62254","03361256125","","","https://stylebaazar.in","0","null","1","","{""mon"":[""10:00 AM - 10:00 PM""],""tue"":[""10:00 AM - 10:00 PM""],""wed"":[""10:00 AM - 10:00 PM""],""thu"":[""10:00 AM - 10:00 PM""],""fri"":[""10:00 AM - 10:00 PM""],""sat"":[""10:00 AM - 10:00 PM""],""sun"":[""10:00 AM - 10:00 PM""]}","0","sb-chakradharpur-chakradharpur","","","null","Mon, Tues, Wed, Thur, Fri, Sat, Sun"
"527","SB – DARBHANGA","","G. M. Road, Beside ICICI BANK, Darbhanga, Bihar - 846004","DARBHANGA","BIHAR","846004","India","26.1569817","85.9004858","9147409536","","","https://stylebaazar.in","0","null","1","","{""mon"":[""10:00 AM - 10:00 PM""],""tue"":[""10:00 AM - 10:00 PM""],""wed"":[""10:00 AM - 10:00 PM""],""thu"":[""10:00 AM - 10:00 PM""],""fri"":[""10:00 AM - 10:00 PM""],""sat"":[""10:00 AM - 10:00 PM""],""sun"":[""10:00 AM - 10:00 PM""]}","0","sb-darbhanga-darbhanga","null","null","null","Mon, Tues, Wed, Thur, Fri, Sat, Sun"
"516","SB – DHUBRI","","C. R DAS ROAD, NEAR MUNICIPAL HIGH SCHOOL, DHUBRI -783301","DHUBRI","ASSAM","783301","India","26.0202977","89.9848134","914732803","","","https://stylebaazar.in","0","null","1","","{""mon"":[""10:00 AM - 10:00 PM""],""tue"":[""10:00 AM - 10:00 PM""],""wed"":[""10:00 AM - 10:00 PM""],""thu"":[""10:00 AM - 10:00 PM""],""fri"":[""10:00 AM - 10:00 PM""],""sat"":[""10:00 AM - 10:00 PM""],""sun"":[""10:00 AM - 10:00 PM""]}","0","sb-dhubri-dhubri","","","null","Mon, Tues, Wed, Thur, Fri, Sat, Sun"
"530","SB – FORBESGANJ","","Ram Manohar Lohia Path, Near Jyoti Cinema, Forbesganj-854318","FORBESGANJ","BIHAR","854318","India","26.2999803","87.2610615","6292125875","","","https://stylebaazar.in","0","null","1","","{""mon"":[""10:00 AM - 10:00 PM""],""tue"":[""10:00 AM - 10:00 PM""],""wed"":[""10:00 AM - 10:00 PM""],""thu"":[""10:00 AM - 10:00 PM""],""fri"":[""10:00 AM - 10:00 PM""],""sat"":[""10:00 AM - 10:00 PM""],""sun"":[""10:00 AM - 10:00 PM""]}","0","sb-forbesganj-forbesganj","null","null","null","Mon, Tues, Wed, Thur, Fri, Sat, Sun"
"518","SB – GAZOLE","","Gazole Bus stand, Near Chhana market, Dist. Malda, W.B. Pin -732124","GAZOLE","WEST BENGAL","732124","India","25.2156661","88.1954564","9147415495","","","https://stylebaazar.in","0","null","1","","{""mon"":[""10:00 AM - 10:00 PM""],""tue"":[""10:00 AM - 10:00 PM""],""wed"":[""10:00 AM - 10:00 PM""],""thu"":[""10:00 AM - 10:00 PM""],""fri"":[""10:00 AM - 10:00 PM""],""sat"":[""10:00 AM - 10:00 PM""],""sun"":[""10:00 AM - 10:00 PM""]}","0","sb-gazole-gazole","null","null","null","Mon, Tues, Wed, Thur, Fri, Sat, Sun"
"509","SB – GOVINDPUR","","OPPOSITE HDFC BANK, BAJRAKABATI ROAD, CUTTACK:753001","GOVINDPUR","JHARKHAND","753001","India","23.8325982","86.5202167","9147372806","","","https://stylebaazar.in","0","null","1","","{""mon"":[""10:00 AM - 10:00 PM""],""tue"":[""10:00 AM - 10:00 PM""],""wed"":[""10:00 AM - 10:00 PM""],""thu"":[""10:00 AM - 10:00 PM""],""fri"":[""10:00 AM - 10:00 PM""],""sat"":[""10:00 AM - 10:00 PM""],""sun"":[""10:00 AM - 10:00 PM""]}","0","sb-govindpur-govindpur","null","null","11","Mon, Tues, Wed, Thur, Fri, Sat, Sun"
"519","SB – HATIBAGAN","","88, BIDHAN SARANI,PS. SHYAMPUKUR, PO. SHYAMBAZAR OPP. NORTHLAND NURSING HOME, KOLKATA-700004","HATIBAGAN","WEST BENGAL","700004","India","22.5970003","88.3720079","9147415499","","","https://stylebaazar.in","0","null","1","","{""mon"":[""10:00 AM - 10:00 PM""],""tue"":[""10:00 AM - 10:00 PM""],""wed"":[""10:00 AM - 10:00 PM""],""thu"":[""10:00 AM - 10:00 PM""],""fri"":[""10:00 AM - 10:00 PM""],""sat"":[""10:00 AM - 10:00 PM""],""sun"":[""10:00 AM - 10:00 PM""]}","0","sb-hatibagan-hatibagan","null","null","null","Mon, Tues, Wed, Thur, Fri, Sat, Sun"
"512","SB – JAGI ROAD","","Main Chariali, Jagiroad, Opposite Police Station, Assam -782410","JAGIROAD","ASSAM","782410","India","26.1258644","92.2008692","9147372793","","","https://stylebaazar.in","0","null","1","","{""mon"":[""10:00 AM - 10:00 PM""],""tue"":[""10:00 AM - 10:00 PM""],""wed"":[""10:00 AM - 10:00 PM""],""thu"":[""10:00 AM - 10:00 PM""],""fri"":[""10:00 AM - 10:00 PM""],""sat"":[""10:00 AM - 10:00 PM""],""sun"":[""10:00 AM - 10:00 PM""]}","0","sb-jagi-road-jagiroad","","","11","Mon, Tues, Wed, Thur, Fri, Sat, Sun"
"517","SB – JALPAIGURI","","MERCHANT ROAD, SAMAJ PARA MORE, NEAR MUKTA BHAWAN, JALPAIGURI, WEST BENGAL -735101","JALPAIGURI","WEST BENGAL","735101","India","26.6966735","88.7108964","9147415496","","","https://stylebaazar.in","0","null","1","","{""mon"":[""10:00 AM - 10:00 PM""],""tue"":[""10:00 AM - 10:00 PM""],""wed"":[""10:00 AM - 10:00 PM""],""thu"":[""10:00 AM - 10:00 PM""],""fri"":[""10:00 AM - 10:00 PM""],""sat"":[""10:00 AM - 10:00 PM""],""sun"":[""10:00 AM - 10:00 PM""]}","0","sb-jalpaiguri-jalpaiguri","null","null","null","Mon, Tues, Wed, Thur, Fri, Sat, Sun"
"524","SB – MADHUBANI","","Bata chowk se Purab , Mahila college road , Madhubani - 847211","MADHUBANI","BIHAR","847211","India","26.3510641","86.07057259999999","9147415491","","","https://stylebaazar.in","0","null","1","","{""mon"":[""10:00 AM - 10:00 PM""],""tue"":[""10:00 AM - 10:00 PM""],""wed"":[""10:00 AM - 10:00 PM""],""thu"":[""10:00 AM - 10:00 PM""],""fri"":[""10:00 AM - 10:00 PM""],""sat"":[""10:00 AM - 10:00 PM""],""sun"":[""10:00 AM - 10:00 PM""]}","0","sb-madhubani-madhubani","null","null","null","Mon, Tues, Wed, Thur, Fri, Sat, Sun"
"522","SB – METRO CINEMA","","PREMISES NO.5, JAWAHARLAL NEHRU ROAD, KOLKATA-700013","KOLKATA","WEST BENGAL","700013","India","22.564354","88.35162369999999","9147415494","","","https://stylebaazar.in","0","null","1","","{""mon"":[""10:00 AM - 10:00 PM""],""tue"":[""10:00 AM - 10:00 PM""],""wed"":[""10:00 AM - 10:00 PM""],""thu"":[""10:00 AM - 10:00 PM""],""fri"":[""10:00 AM - 10:00 PM""],""sat"":[""10:00 AM - 10:00 PM""],""sun"":[""10:00 AM - 10:00 PM""]}","0","sb-metro-cinema-kolkata","","","null","Mon, Tues, Wed, Thur, Fri, Sat, Sun"
"528","SB – RAMNAGAR","","BRM Campus, Near ST. Xaviers Mission School, Narayanpur main road, Ramnagar, West Champaran. Bihar - 845106","RAMNAGAR","BIHAR","845106","India","27.1645893","84.3305266","9147416436","","","https://stylebaazar.in","0","null","1","","{""mon"":[""10:00 AM - 10:00 PM""],""tue"":[""10:00 AM - 10:00 PM""],""wed"":[""10:00 AM - 10:00 PM""],""thu"":[""10:00 AM - 10:00 PM""],""fri"":[""10:00 AM - 10:00 PM""],""sat"":[""10:00 AM - 10:00 PM""],""sun"":[""10:00 AM - 10:00 PM""]}","0","sb-ramnagar-ramnagar","null","null","null","Mon, Tues, Wed, Thur, Fri, Sat, Sun"
"521","SB – RAMRAJATALA","","RAMCHARAN SETH ROAD, NEAR-RAM MANDIR, RAMRAJATALA, HOWRAH-711104","HOWRAH","WEST BENGAL","711104","India","22.5875003","88.3023634","9147415497","","","https://stylebaazar.in","0","null","1","","{""mon"":[""10:00 AM - 10:00 PM""],""tue"":[""10:00 AM - 10:00 PM""],""wed"":[""10:00 AM - 10:00 PM""],""thu"":[""10:00 AM - 10:00 PM""],""fri"":[""10:00 AM - 10:00 PM""],""sat"":[""10:00 AM - 10:00 PM""],""sun"":[""10:00 AM - 10:00 PM""]}","0","sb-ramrajatala-howrah","","","null","Mon, Tues, Wed, Thur, Fri, Sat, Sun"
"525","SB – ROBERTSGANJ","","Civil line road , Near Savera hotel , Robertsganj , Sonbhadra -231216","ROBERTSGANJ","UTTAR PRADESH","231216","India","24.6846123","83.0686025","9147372792","","","https://stylebaazar.in","0","null","1","","{""mon"":[""10:00 AM - 10:00 PM""],""tue"":[""10:00 AM - 10:00 PM""],""wed"":[""10:00 AM - 10:00 PM""],""thu"":[""10:00 AM - 10:00 PM""],""fri"":[""10:00 AM - 10:00 PM""],""sat"":[""10:00 AM - 10:00 PM""],""sun"":[""10:00 AM - 10:00 PM""]}","0","sb-robertsganj-robertsganj","","","null","Mon, Tues, Wed, Thur, Fri, Sat, Sun"
"504","SB – SANTRAGACHI","","Santragachi Station Rd, Near Bus Stand, Howrah, West Bengal 711111","SANTRAGACHI","WEST BENGAL","711111","India","22.5840894","88.2862709","7596072875","","","https://stylebaazar.in","0","null","1","","{""mon"":[""10:00 AM - 10:00 PM""],""tue"":[""10:00 AM - 10:00 PM""],""wed"":[""10:00 AM - 10:00 PM""],""thu"":[""10:00 AM - 10:00 PM""],""fri"":[""10:00 AM - 10:00 PM""],""sat"":[""10:00 AM - 10:00 PM""],""sun"":[""10:00 AM - 10:00 PM""]}","0","sb-santragachi-santragachi","","","null","Mon, Tues, Wed, Thur, Fri, Sat, Sun"
"534","SB – TARAMANDAL","","Budh Vihar Commercial street, Deoria Bypass road , Tarmandal Gorakhpur - 273017","TARMANDAL","UTTAR PRADESH","273017","India","26.7342736","83.37708169999999","9147416437","","","https://stylebaazar.in","0","null","1","","{""mon"":[""10:00 AM - 10:00 PM""],""tue"":[""10:00 AM - 10:00 PM""],""wed"":[""10:00 AM - 10:00 PM""],""thu"":[""10:00 AM - 10:00 PM""],""fri"":[""10:00 AM - 10:00 PM""],""sat"":[""10:00 AM - 10:00 PM""],""sun"":[""10:00 AM - 10:00 PM""]}","0","sb-taramandal-tarmandal","null","null","null","Mon, Tues, Wed, Thur, Fri, Sat, Sun"
"523","SB – THAKURPUKUR","","D.H. Road, Opposite – Thakurpukur Police Station, PALLYMANGAL, PASCHIM BARISHA, KOLKATA-700063","KOLKATA","WEST BENGAL","700063","India","22.4652138","88.3074137","9147415493","","","https://stylebaazar.in","0","null","1","","{""mon"":[""10:00 AM - 10:00 PM""],""tue"":[""10:00 AM - 10:00 PM""],""wed"":[""10:00 AM - 10:00 PM""],""thu"":[""10:00 AM - 10:00 PM""],""fri"":[""10:00 AM - 10:00 PM""],""sat"":[""10:00 AM - 10:00 PM""],""sun"":[""10:00 AM - 10:00 PM""]}","0","sb-thakurpukur-kolkata","","","null","Mon, Tues, Wed, Thur, Fri, Sat, Sun"
"532","SB – TITABOR","","Titabar Chariali, Near Gandhi Park, Titabar ,in 785630, Assam","TITABAR","ASSAM","785630","India","26.6021228","94.20600209999999","9147409542","","","https://stylebaazar.in","0","null","1","","{""mon"":[""10:00 AM - 10:00 PM""],""tue"":[""10:00 AM - 10:00 PM""],""wed"":[""10:00 AM - 10:00 PM""],""thu"":[""10:00 AM - 10:00 PM""],""fri"":[""10:00 AM - 10:00 PM""],""sat"":[""10:00 AM - 10:00 PM""],""sun"":[""10:00 AM - 10:00 PM""]}","0","sb-titabor-titabar","null","null","null","Mon, Tues, Wed, Thur, Fri, Sat, Sun"
"526","SB – UMRAO MALL","","Umrao Mall, Nishat Ganj, Lucknow -226006","LUCKNOW","UTTAR PRADESH","226006","India","26.8711832","80.9564944","9147415498","","","https://stylebaazar.in","0","null","1","","{""mon"":[""10:00 AM - 10:00 PM""],""tue"":[""10:00 AM - 10:00 PM""],""wed"":[""10:00 AM - 10:00 PM""],""thu"":[""10:00 AM - 10:00 PM""],""fri"":[""10:00 AM - 10:00 PM""],""sat"":[""10:00 AM - 10:00 PM""],""sun"":[""10:00 AM - 10:00 PM""]}","0","sb-umrao-mall-lucknow","null","null","null","Mon, Tues, Wed, Thur, Fri, Sat, Sun"
"502","SB- CHITRAKOOT","","Banda Prayagraj Road, Near Karwi Bus Stand, Chitrakoot, UP – 210205","CHITRAKOOT","UTTAR PRADESH","210205","India","25.2139541","80.9164789","+91 91473 72801","","","https://stylebaazar.in","0","null","1","","{""mon"":[""10:00 AM - 10:00 PM""],""tue"":[""10:00 AM - 10:00 PM""],""wed"":[""10:00 AM - 10:00 PM""],""thu"":[""10:00 AM - 10:00 PM""],""fri"":[""10:00 AM - 10:00 PM""],""sat"":[""10:00 AM - 10:00 PM""],""sun"":[""10:00 AM - 10:00 PM""]}","0","sb-chitrakoot-chitrakoot","","","null","Mon, Tues, Wed, Thur, Fri, Sat, Sun"
"503","SB- HAZARIBAGH","","Pugmil Road, Near Kallu Chowk, Hazaribagh, Jharkhand - 825301","HAZARIBAGH","JHARKHAND","825301","India","24.0044535","85.3516817","9147372810","","","https://stylebaazar.in","0","null","1","","{""mon"":[""10:00 AM - 10:00 PM""],""tue"":[""10:00 AM - 10:00 PM""],""wed"":[""10:00 AM - 10:00 PM""],""thu"":[""10:00 AM - 10:00 PM""],""fri"":[""10:00 AM - 10:00 PM""],""sat"":[""10:00 AM - 10:00 PM""],""sun"":[""10:00 AM - 10:00 PM""]}","0","sb-hazaribagh-hazaribagh","","","null","Mon, Tues, Wed, Thur, Fri, Sat, Sun"
"505","SB- HIRAPUR","","Park Market , Hirapur , Dhanbad - 826001","HIRAPUR","JHARKHAND","826001","India","23.798884","86.4427193","9147372813","","","https://stylebaazar.in","0","null","1","","{""mon"":[""10:00 AM - 10:00 PM""],""tue"":[""10:00 AM - 10:00 PM""],""wed"":[""10:00 AM - 10:00 PM""],""thu"":[""10:00 AM - 10:00 PM""],""fri"":[""10:00 AM - 10:00 PM""],""sat"":[""10:00 AM - 10:00 PM""],""sun"":[""10:00 AM - 10:00 PM""]}","0","sb-hirapur-hirapur","","","11","Mon, Tues, Wed, Thur, Fri, Sat, Sun"
"514","SB- JAYANAGAR","","SIX MILE, NEAR BHARAT PETROL PUMP, JAYANAGAR, GUWAHATI-781022","JAYANAGAR","ASSAM","781022","India","26.1313516","91.8044127","9147372795","","","https://stylebaazar.in","0","null","1","","{""mon"":[""10:00 AM - 10:00 PM""],""tue"":[""10:00 AM - 10:00 PM""],""wed"":[""10:00 AM - 10:00 PM""],""thu"":[""10:00 AM - 10:00 PM""],""fri"":[""10:00 AM - 10:00 PM""],""sat"":[""10:00 AM - 10:00 PM""],""sun"":[""10:00 AM - 10:00 PM""]}","0","sb-jayanagar-jayanagar","","","11","Mon, Tues, Wed, Thur, Fri, Sat, Sun"
"500","SB- NABARANGPUR","","MAIN ROAD, NEAR SUB COLLECTORS' OFFICE, DIST- NABARANGPUR - 764059","NABARANGPUR","ODISHA","764059","India","19.2517865","82.5834947","9147372807","","","https://stylebaazar.in","0","null","1","","{""mon"":[""10:00 AM - 10:00 PM""],""tue"":[""10:00 AM - 10:00 PM""],""wed"":[""10:00 AM - 10:00 PM""],""thu"":[""10:00 AM - 10:00 PM""],""fri"":[""10:00 AM - 10:00 PM""],""sat"":[""10:00 AM - 10:00 PM""],""sun"":[""10:00 AM - 10:00 PM""]}","0","sb-nabarangpur-nabarangpur","","","11","Mon, Tues, Wed, Thur, Fri, Sat, Sun"
"501","SB- SUPAUL","","HOTEL THAKUR MAHAL, STATION ROAD, WARD NO : 10 , SUPAUL , PIN : 852131","SUPAUL","BIHAR","852131","India","26.1172928","86.601","9147372808","","","https://stylebaazar.in","0","null","1","","{""mon"":[""10:00 AM - 10:00 PM""],""tue"":[""10:00 AM - 10:00 PM""],""wed"":[""10:00 AM - 10:00 PM""],""thu"":[""10:00 AM - 10:00 PM""],""fri"":[""10:00 AM - 10:00 PM""],""sat"":[""10:00 AM - 10:00 PM""],""sun"":[""10:00 AM - 10:00 PM""]}","0","sb-supaul-supaul","","","11","Mon, Tues, Wed, Thur, Fri, Sat, Sun"
"498","SB-ADITYAPUR","","SATPATHY HOTEL, SHERE PANJAB CHOWK- ADITYAPUR 831013","ADITYAPUR","JHARKHAND","831013","India","22.7865802","86.1631615","9147372802","","","https://stylebaazar.in","0","null","1","","{""mon"":[""10:00 AM - 10:00 PM""],""tue"":[""10:00 AM - 10:00 PM""],""wed"":[""10:00 AM - 10:00 PM""],""thu"":[""10:00 AM - 10:00 PM""],""fri"":[""10:00 AM - 10:00 PM""],""sat"":[""10:00 AM - 10:00 PM""],""sun"":[""10:00 AM - 10:00 PM""]}","0","sb-adityapur-adityapur","","","11","Mon, Tues, Wed, Thur, Fri, Sat, Sun"
"340","SB-AGARTALA","","62/2,Central Road,Agartala,Tripura","AGARTALA","TRIPURA","799001","India","0","0","7603027440","","","","0","null","1","","{""mon"":[""10:00 AM - 10:00 PM""],""tue"":[""10:00 AM - 10:00 PM""],""wed"":[""10:00 AM - 10:00 PM""],""thu"":[""10:00 AM - 10:00 PM""],""fri"":[""10:00 AM - 10:00 PM""],""sat"":[""10:00 AM - 10:00 PM""],""sun"":[""10:00 AM - 10:00 PM""]}","0","sb-agartala-agartala","","","null","Mon, Tues, Wed, Thur, Fri, Sat, Sun"
"342","SB-ALIPURDUAR","","Marwari Patty, Ward No.12, P.O & Dist- Alipurduar","ALIPURDUAR","WEST BENGAL","736121","India","0","0","9073911670","","","","0","null","1","","{""mon"":[""10:00 AM - 10:00 PM""],""tue"":[""10:00 AM - 10:00 PM""],""wed"":[""10:00 AM - 10:00 PM""],""thu"":[""10:00 AM - 10:00 PM""],""fri"":[""10:00 AM - 10:00 PM""],""sat"":[""10:00 AM - 10:00 PM""],""sun"":[""10:00 AM - 10:00 PM""]}","0","sb-alipurduar-alipurduar","","","null","Mon, Tues, Wed, Thur, Fri, Sat, Sun"
"343","SB-AMTALA","","D.H Road, Near Amtala Chowmatha, Kanyanagar, Amtala","AMTALA","WEST BENGAL","745503","India","0","0","9147095630","","","","0","null","1","","{""mon"":[""10:00 AM - 10:00 PM""],""tue"":[""10:00 AM - 10:00 PM""],""wed"":[""10:00 AM - 10:00 PM""],""thu"":[""10:00 AM - 10:00 PM""],""fri"":[""10:00 AM - 10:00 PM""],""sat"":[""10:00 AM - 10:00 PM""],""sun"":[""10:00 AM - 10:00 PM""]}","0","sb-amtala-amtala","","","null","Mon, Tues, Wed, Thur, Fri, Sat, Sun"
"344","SB-ANGUL (01)","","Durga Sankar Road, Sri Ram Market Complex Near Axis Bank, Bazar Chowk, Angul,Odisha","ANGUL (01)","ODISHA","759122","India","22.45556255","88.25458526","7044082473","","","","0","null","1","","{""mon"":[""10:00 AM - 10:00 PM""],""tue"":[""10:00 AM - 10:00 PM""],""wed"":[""10:00 AM - 10:00 PM""],""thu"":[""10:00 AM - 10:00 PM""],""fri"":[""10:00 AM - 10:00 PM""],""sat"":[""10:00 AM - 10:00 PM""],""sun"":[""10:00 AM - 10:00 PM""]}","0","sb-angul-01-angul-01","","","null","Mon, Tues, Wed, Thur, Fri, Sat, Sun"
"345","SB-ANGUL (02)","","G S Center, Shankar Cinema Road, Gandhi Marg, Angul, Odisha","ANGUL (02)","ODISHA","759122","India","22.45786245","88.54825259","9147005750","","","","0","null","1","","{""mon"":[""10:00 AM - 10:00 PM""],""tue"":[""10:00 AM - 10:00 PM""],""wed"":[""10:00 AM - 10:00 PM""],""thu"":[""10:00 AM - 10:00 PM""],""fri"":[""10:00 AM - 10:00 PM""],""sat"":[""10:00 AM - 10:00 PM""],""sun"":[""10:00 AM - 10:00 PM""]}","0","sb-angul-02-angul-02","","","null","Mon, Tues, Wed, Thur, Fri, Sat, Sun"
"346","SB-ARAMBAGH","","Basantapur,Arambagh,Hooghly,Near-Idbi Bank","ARAMBAGH","WEST BENGAL","712601","India","0","0","7044080372","","","","0","null","1","","{""mon"":[""10:00 AM - 10:00 PM""],""tue"":[""10:00 AM - 10:00 PM""],""wed"":[""10:00 AM - 10:00 PM""],""thu"":[""10:00 AM - 10:00 PM""],""fri"":[""10:00 AM - 10:00 PM""],""sat"":[""10:00 AM - 10:00 PM""],""sun"":[""10:00 AM - 10:00 PM""]}","0","sb-arambagh-arambagh","","","null","Mon, Tues, Wed, Thur, Fri, Sat, Sun"
"347","SB-ATHAGARH","","Jagannath Baazar, Near Jagannath Temple","ATHAGARH","ODISHA","754029","India","0","0","9147094452","","","","0","null","1","","{""mon"":[""10:00 AM - 10:00 PM""],""tue"":[""10:00 AM - 10:00 PM""],""wed"":[""10:00 AM - 10:00 PM""],""thu"":[""10:00 AM - 10:00 PM""],""fri"":[""10:00 AM - 10:00 PM""],""sat"":[""10:00 AM - 10:00 PM""],""sun"":[""10:00 AM - 10:00 PM""]}","0","sb-athagarh-athagarh","","","null","Mon, Tues, Wed, Thur, Fri, Sat, Sun"
"460","SB-BAGNAN","","O.T Road, Opp. Bagnan Gramin Hospital, Bagnan","BAGNAN","WEST BENGAL","711303","India","0","0","9147095638","","","","0","null","1","","{""mon"":[""10:00 AM - 10:00 PM""],""tue"":[""10:00 AM - 10:00 PM""],""wed"":[""10:00 AM - 10:00 PM""],""thu"":[""10:00 AM - 10:00 PM""],""fri"":[""10:00 AM - 10:00 PM""],""sat"":[""10:00 AM - 10:00 PM""],""sun"":[""10:00 AM - 10:00 PM""]}","0","sb-bagnan-bagnan","","","null","Mon, Tues, Wed, Thur, Fri, Sat, Sun"
"478","SB-BAGUIHATI","","Rani Tower Building, Vip Road, Opp. Royal Garden Hotel, Sahabagan, Jyangra, Baguihati, Kolkata, West Bengal","BAGUIHATI","WEST BENGAL","700059","India","0","0","9147071270","","","","0","null","1","","{""mon"":[""10:00 AM - 10:00 PM""],""tue"":[""10:00 AM - 10:00 PM""],""wed"":[""10:00 AM - 10:00 PM""],""thu"":[""10:00 AM - 10:00 PM""],""fri"":[""10:00 AM - 10:00 PM""],""sat"":[""10:00 AM - 10:00 PM""],""sun"":[""10:00 AM - 10:00 PM""]}","0","sb-baguihati-baguihati","","","null","Mon, Tues, Wed, Thur, Fri, Sat, Sun"
"482","SB-BAHRAICH","","Choti Bazar Hospital road, near Kumar Talkies, Bahraich","BAHRAICH","UTTAR PRADESH","271801","India","0","0","9073362847","","","","0","null","1","","{""mon"":[""10:00 AM - 10:00 PM""],""tue"":[""10:00 AM - 10:00 PM""],""wed"":[""10:00 AM - 10:00 PM""],""thu"":[""10:00 AM - 10:00 PM""],""fri"":[""10:00 AM - 10:00 PM""],""sat"":[""10:00 AM - 10:00 PM""],""sun"":[""10:00 AM - 10:00 PM""]}","0","sb-bahraich-bahraich","","","null","Mon, Tues, Wed, Thur, Fri, Sat, Sun"
"348","SB-BALANGIR","","Rukmini Complex, Jaganath Para,Near-Jaganath Mandir, Balangir, Odisha, 767001.","BALANGIR","ODISHA","767001","India","0","0","9073911669","","","","0","null","1","","{""mon"":[""10:00 AM - 10:00 PM""],""tue"":[""10:00 AM - 10:00 PM""],""wed"":[""10:00 AM - 10:00 PM""],""thu"":[""10:00 AM - 10:00 PM""],""fri"":[""10:00 AM - 10:00 PM""],""sat"":[""10:00 AM - 10:00 PM""],""sun"":[""10:00 AM - 10:00 PM""]}","0","sb-balangir-balangir","","","null","Mon, Tues, Wed, Thur, Fri, Sat, Sun"
"349","SB-BALUGAON","","I B Road, Jagadamba Cinema Compound,Oppsite - Sbi Bank,Odisha","BALUGAON","ODISHA","752030","India","0","0","7596072378","","","","0","null","1","","{""mon"":[""10:00 AM - 10:00 PM""],""tue"":[""10:00 AM - 10:00 PM""],""wed"":[""10:00 AM - 10:00 PM""],""thu"":[""10:00 AM - 10:00 PM""],""fri"":[""10:00 AM - 10:00 PM""],""sat"":[""10:00 AM - 10:00 PM""],""sun"":[""10:00 AM - 10:00 PM""]}","0","sb-balugaon-balugaon","","","null","Mon, Tues, Wed, Thur, Fri, Sat, Sun"
"350","SB-BALURGHAT","","Maharaja Udyog(City Plaza),New Market(Dunlop More),Balurghat,Dakshin Dinajpur,733101.","BALURGHAT","WEST BENGAL","733101","India","0","0","7603006280","","","","0","null","1","","{""mon"":[""10:00 AM - 10:00 PM""],""tue"":[""10:00 AM - 10:00 PM""],""wed"":[""10:00 AM - 10:00 PM""],""thu"":[""10:00 AM - 10:00 PM""],""fri"":[""10:00 AM - 10:00 PM""],""sat"":[""10:00 AM - 10:00 PM""],""sun"":[""10:00 AM - 10:00 PM""]}","0","sb-balurghat-balurghat","","","null","Mon, Tues, Wed, Thur, Fri, Sat, Sun"
"351","SB-BANGAON","","Bata More, Bangaon North 24 Parganas, West Bengal","BANGAON","WEST BENGAL","743235","India","0","0","6292125841","","","","0","null","1","","{""mon"":[""10:00 AM - 10:00 PM""],""tue"":[""10:00 AM - 10:00 PM""],""wed"":[""10:00 AM - 10:00 PM""],""thu"":[""10:00 AM - 10:00 PM""],""fri"":[""10:00 AM - 10:00 PM""],""sat"":[""10:00 AM - 10:00 PM""],""sun"":[""10:00 AM - 10:00 PM""]}","0","sb-bangaon-bangaon","","","null","Mon, Tues, Wed, Thur, Fri, Sat, Sun"
"352","SB-BANKURA","","Natun Chati,Durga Mela , Bankura, West Bengal-722101.","BANKURA","WEST BENGAL","722101","India","0","0","6292127045","","","","0","null","1","","{""mon"":[""10:00 AM - 10:00 PM""],""tue"":[""10:00 AM - 10:00 PM""],""wed"":[""10:00 AM - 10:00 PM""],""thu"":[""10:00 AM - 10:00 PM""],""fri"":[""10:00 AM - 10:00 PM""],""sat"":[""10:00 AM - 10:00 PM""],""sun"":[""10:00 AM - 10:00 PM""]}","0","sb-bankura-bankura","","","null","Mon, Tues, Wed, Thur, Fri, Sat, Sun"
"353","SB-BARGARH","","Gandhi Chowk,Opp-Gaushala,Bargarh,Odisha","BARGARH","ODISHA","768028","India","0","0","7381437412","","","","0","null","1","","{""mon"":[""10:00 AM - 10:00 PM""],""tue"":[""10:00 AM - 10:00 PM""],""wed"":[""10:00 AM - 10:00 PM""],""thu"":[""10:00 AM - 10:00 PM""],""fri"":[""10:00 AM - 10:00 PM""],""sat"":[""10:00 AM - 10:00 PM""],""sun"":[""10:00 AM - 10:00 PM""]}","0","sb-bargarh-bargarh","","","null","Mon, Tues, Wed, Thur, Fri, Sat, Sun"
"354","SB-BARUIPUR","","Baruipur Kulpi Road, Near -Ajay Sangha Club ,Baruipur - 700144.","BARUIPUR","WEST BENGAL","700144","India","0","0","9051015894","","","","0","null","1","","{""mon"":[""10:00 AM - 10:00 PM""],""tue"":[""10:00 AM - 10:00 PM""],""wed"":[""10:00 AM - 10:00 PM""],""thu"":[""10:00 AM - 10:00 PM""],""fri"":[""10:00 AM - 10:00 PM""],""sat"":[""10:00 AM - 10:00 PM""],""sun"":[""10:00 AM - 10:00 PM""]}","0","sb-baruipur-baruipur","","","null","Mon, Tues, Wed, Thur, Fri, Sat, Sun"
"355","SB-BASIRHAT","","Tulo Patty ,Jamrul Tala Near Sahi Masjid , Basirhat,743411.","BASIRHAT","WEST BENGAL","743411","India","0","0","6292125876","","","","0","null","1","","{""mon"":[""10:00 AM - 10:00 PM""],""tue"":[""10:00 AM - 10:00 PM""],""wed"":[""10:00 AM - 10:00 PM""],""thu"":[""10:00 AM - 10:00 PM""],""fri"":[""10:00 AM - 10:00 PM""],""sat"":[""10:00 AM - 10:00 PM""],""sun"":[""10:00 AM - 10:00 PM""]}","0","sb-basirhat-basirhat","","","null","Mon, Tues, Wed, Thur, Fri, Sat, Sun"
"491","SB-BELTOLA","","BELTOLA (SURVEY ROAD) OPPOSITE OF NEPEDS COLLEGE","BELTOLA","ASSAM","781028","India","26.1262903","91.7973608","9147375731","","","https://stylebaazar.in","0","null","1","","{""mon"":[""10:00 AM - 10:00 PM""],""tue"":[""10:00 AM - 10:00 PM""],""wed"":[""10:00 AM - 10:00 PM""],""thu"":[""10:00 AM - 10:00 PM""],""fri"":[""10:00 AM - 10:00 PM""],""sat"":[""10:00 AM - 10:00 PM""],""sun"":[""10:00 AM - 10:00 PM""]}","0","sb-beltola-beltola","","","null","Mon, Tues, Wed, Thur, Fri, Sat, Sun"
"336","SB-BERHAMPORE","","30,Netaji Road,Khagra,Berhampore,Murshidabad","BERHAMPORE","WEST BENGAL","742103","India","0","0","8584867411","","","","0","null","1","","{""mon"":[""10:00 AM - 10:00 PM""],""tue"":[""10:00 AM - 10:00 PM""],""wed"":[""10:00 AM - 10:00 PM""],""thu"":[""10:00 AM - 10:00 PM""],""fri"":[""10:00 AM - 10:00 PM""],""sat"":[""10:00 AM - 10:00 PM""],""sun"":[""10:00 AM - 10:00 PM""]}","0","sb-berhampore-berhampore","","","null","Mon, Tues, Wed, Thur, Fri, Sat, Sun"
"356","SB-BHAWANIPATNA","","Jagannath temple road, Nandan colony, Bhawanipatna, Pin-766001","BHAWANIPATNA","ODISHA","766001","India","0","0","","","","","0","null","1","","{""mon"":[""10:00 AM - 10:00 PM""],""tue"":[""10:00 AM - 10:00 PM""],""wed"":[""10:00 AM - 10:00 PM""],""thu"":[""10:00 AM - 10:00 PM""],""fri"":[""10:00 AM - 10:00 PM""],""sat"":[""10:00 AM - 10:00 PM""],""sun"":[""10:00 AM - 10:00 PM""]}","0","sb-bhawanipatna-bhawanipatna","","","null","Mon, Tues, Wed, Thur, Fri, Sat, Sun"
"357","SB-BILASIPARA","","J.P Road,Nizamudin Market Complex, Bilasipara ,Assam","BILASIPARA","ASSAM","783348","India","0","0","7596072377","","","","0","null","1","","{""mon"":[""10:00 AM - 10:00 PM""],""tue"":[""10:00 AM - 10:00 PM""],""wed"":[""10:00 AM - 10:00 PM""],""thu"":[""10:00 AM - 10:00 PM""],""fri"":[""10:00 AM - 10:00 PM""],""sat"":[""10:00 AM - 10:00 PM""],""sun"":[""10:00 AM - 10:00 PM""]}","0","sb-bilasipara-bilasipara","","","null","Mon, Tues, Wed, Thur, Fri, Sat, Sun"
"475","SB-BISWANATH CHARILI","","Biswanath Charali,Near To Kajiranga Hotel,Dist-Biswanath,Assam","BISWANATH CHARILI","ASSAM","784176","India","0","0","7605009264","","","","0","null","1","","{""mon"":[""10:00 AM - 10:00 PM""],""tue"":[""10:00 AM - 10:00 PM""],""wed"":[""10:00 AM - 10:00 PM""],""thu"":[""10:00 AM - 10:00 PM""],""fri"":[""10:00 AM - 10:00 PM""],""sat"":[""10:00 AM - 10:00 PM""],""sun"":[""10:00 AM - 10:00 PM""]}","0","sb-biswanath-charili-biswanath-charili","","","null","Mon, Tues, Wed, Thur, Fri, Sat, Sun"
"358","SB-BOBBILI","","Fort Junction,Baljiipeta Main Road,Beside Lokebandhu Residence","BOBBILI","ANDHRA PRADESH","535558","India","0","0","8336961094","","","","0","null","1","","{""mon"":[""10:00 AM - 10:00 PM""],""tue"":[""10:00 AM - 10:00 PM""],""wed"":[""10:00 AM - 10:00 PM""],""thu"":[""10:00 AM - 10:00 PM""],""fri"":[""10:00 AM - 10:00 PM""],""sat"":[""10:00 AM - 10:00 PM""],""sun"":[""10:00 AM - 10:00 PM""]}","0","sb-bobbili-bobbili","","","null","Mon, Tues, Wed, Thur, Fri, Sat, Sun"
"359","SB-BOKARO","","City Center, Sector-4, Bokaro Steel City, Bokaro, Jharkhand","BOKARO","JHARKHAND","827004","India","0","0","9073362416","","","","0","null","1","","{""mon"":[""10:00 AM - 10:00 PM""],""tue"":[""10:00 AM - 10:00 PM""],""wed"":[""10:00 AM - 10:00 PM""],""thu"":[""10:00 AM - 10:00 PM""],""fri"":[""10:00 AM - 10:00 PM""],""sat"":[""10:00 AM - 10:00 PM""],""sun"":[""10:00 AM - 10:00 PM""]}","0","sb-bokaro-bokaro","","","null","Mon, Tues, Wed, Thur, Fri, Sat, Sun"
"360","SB-BOLPUR","","Sriniketan Road, Venus Plaza ,Bolpur, West Bengal, 731204.","BOLPUR","WEST BENGAL","731204","India","0","0","9073341789","","","","0","null","1","","{""mon"":[""10:00 AM - 10:00 PM""],""tue"":[""10:00 AM - 10:00 PM""],""wed"":[""10:00 AM - 10:00 PM""],""thu"":[""10:00 AM - 10:00 PM""],""fri"":[""10:00 AM - 10:00 PM""],""sat"":[""10:00 AM - 10:00 PM""],""sun"":[""10:00 AM - 10:00 PM""]}","0","sb-bolpur-bolpur","","","null","Mon, Tues, Wed, Thur, Fri, Sat, Sun"
"361","SB-BRAHMAPUR [ODISHA]","","Telephone Bhaban Road, Inside Janta City Mall, Berhampur","BRAHMAPUR[ODISHA]","ODISHA","760001","India","0","0","9147005754","","","","0","null","1","","{""mon"":[""10:00 AM - 10:00 PM""],""tue"":[""10:00 AM - 10:00 PM""],""wed"":[""10:00 AM - 10:00 PM""],""thu"":[""10:00 AM - 10:00 PM""],""fri"":[""10:00 AM - 10:00 PM""],""sat"":[""10:00 AM - 10:00 PM""],""sun"":[""10:00 AM - 10:00 PM""]}","0","sb-brahmapur-odisha-brahmapur-odisha","","","null","Mon, Tues, Wed, Thur, Fri, Sat, Sun"
"362","SB-CHAKDAH","","Chakdaha Bongaon Road, Near Manorama diagonastic center,Chakdaha-741222","CHAKDAH","WEST BENGAL","741222","India","0","0","7044091825","","","","0","null","1","","{""mon"":[""10:00 AM - 10:00 PM""],""tue"":[""10:00 AM - 10:00 PM""],""wed"":[""10:00 AM - 10:00 PM""],""thu"":[""10:00 AM - 10:00 PM""],""fri"":[""10:00 AM - 10:00 PM""],""sat"":[""10:00 AM - 10:00 PM""],""sun"":[""10:00 AM - 10:00 PM""]}","0","sb-chakdah-chakdah","","","null","Mon, Tues, Wed, Thur, Fri, Sat, Sun"
"363","SB-CHAKIA","","Block Road Chakia, Senani Market, Near Petrol Pump,","CHAKIA","BIHAR","845412","India","0","0","7596080795","","","","0","null","1","","{""mon"":[""10:00 AM - 10:00 PM""],""tue"":[""10:00 AM - 10:00 PM""],""wed"":[""10:00 AM - 10:00 PM""],""thu"":[""10:00 AM - 10:00 PM""],""fri"":[""10:00 AM - 10:00 PM""],""sat"":[""10:00 AM - 10:00 PM""],""sun"":[""10:00 AM - 10:00 PM""]}","0","sb-chakia-chakia","","","null","Mon, Tues, Wed, Thur, Fri, Sat, Sun"
"364","SB-CHANCHAL","","Collage Road,Beside- S.B.I Bank,Chanchal,West Bengal,732123.","CHANCHAL","WEST BENGAL","732123","India","0","0","7596072376","","","","0","null","1","","{""mon"":[""10:00 AM - 10:00 PM""],""tue"":[""10:00 AM - 10:00 PM""],""wed"":[""10:00 AM - 10:00 PM""],""thu"":[""10:00 AM - 10:00 PM""],""fri"":[""10:00 AM - 10:00 PM""],""sat"":[""10:00 AM - 10:00 PM""],""sun"":[""10:00 AM - 10:00 PM""]}","0","sb-chanchal-chanchal","","","null","Mon, Tues, Wed, Thur, Fri, Sat, Sun"
"466","SB-CHAS","","Check Point, Bedi Market, Main Rd, Near Durga Mandir,Chas,Jharkhand","CHAS","JHARKHAND","827013","India","0","0","9073670553","","","","0","null","1","","{""mon"":[""10:00 AM - 10:00 PM""],""tue"":[""10:00 AM - 10:00 PM""],""wed"":[""10:00 AM - 10:00 PM""],""thu"":[""10:00 AM - 10:00 PM""],""fri"":[""10:00 AM - 10:00 PM""],""sat"":[""10:00 AM - 10:00 PM""],""sun"":[""10:00 AM - 10:00 PM""]}","0","sb-chas-chas","","","null","Mon, Tues, Wed, Thur, Fri, Sat, Sun"
"365","SB-CHHATRAPUR","","Main Road Near Indian Bank, CHHATRAPUR. Odisha","CHHATRAPUR","ODISHA","761020","India","0","0","6292127041","","","","0","null","1","","{""mon"":[""10:00 AM - 10:00 PM""],""tue"":[""10:00 AM - 10:00 PM""],""wed"":[""10:00 AM - 10:00 PM""],""thu"":[""10:00 AM - 10:00 PM""],""fri"":[""10:00 AM - 10:00 PM""],""sat"":[""10:00 AM - 10:00 PM""],""sun"":[""10:00 AM - 10:00 PM""]}","0","sb-chhatrapur-chhatrapur","","","null","Mon, Tues, Wed, Thur, Fri, Sat, Sun"
"366","SB-CHINSURAH","","Hospital Road,Lalanaloy Building,Akhan Bazar,Chinsurah,Hooghly,712101.","CHINSURAH","WEST BENGAL","712101","India","0","0","7044055680","","","","0","null","1","","{""mon"":[""10:00 AM - 10:00 PM""],""tue"":[""10:00 AM - 10:00 PM""],""wed"":[""10:00 AM - 10:00 PM""],""thu"":[""10:00 AM - 10:00 PM""],""fri"":[""10:00 AM - 10:00 PM""],""sat"":[""10:00 AM - 10:00 PM""],""sun"":[""10:00 AM - 10:00 PM""]}","0","sb-chinsurah-chinsurah","","","null","Mon, Tues, Wed, Thur, Fri, Sat, Sun"
"367","SB-CONTAI","","Kumarpur (Junput More ),East Midnapore,Contai, West Bengal -721401. ","CONTAI","WEST BENGAL","721401","India","0","0","7596033695","","","","0","null","1","","{""mon"":[""10:00 AM - 10:00 PM""],""tue"":[""10:00 AM - 10:00 PM""],""wed"":[""10:00 AM - 10:00 PM""],""thu"":[""10:00 AM - 10:00 PM""],""fri"":[""10:00 AM - 10:00 PM""],""sat"":[""10:00 AM - 10:00 PM""],""sun"":[""10:00 AM - 10:00 PM""]}","0","sb-contai-contai","","","null","Mon, Tues, Wed, Thur, Fri, Sat, Sun"
"368","SB-COOCHBEHAR","","Nripendra Narayan Road,Ma Bhabani Chowpathy, Near- Idbi Bank, Coochbehar-736101.","COOCHBEHAR","WEST BENGAL","736101","India","0","0","9073911671","","","","0","null","1","","{""mon"":[""10:00 AM - 10:00 PM""],""tue"":[""10:00 AM - 10:00 PM""],""wed"":[""10:00 AM - 10:00 PM""],""thu"":[""10:00 AM - 10:00 PM""],""fri"":[""10:00 AM - 10:00 PM""],""sat"":[""10:00 AM - 10:00 PM""],""sun"":[""10:00 AM - 10:00 PM""]}","0","sb-coochbehar-coochbehar","","","null","Mon, Tues, Wed, Thur, Fri, Sat, Sun"
"369","SB-CUTTACK","","Badambadi Road, Opp Puri & Angul Bus Stand, Cuttack, Odisha","CUTTACK","ODISHA","753012","India","0","0","9147094458","","","","0","null","1","","{""mon"":[""10:00 AM - 10:00 PM""],""tue"":[""10:00 AM - 10:00 PM""],""wed"":[""10:00 AM - 10:00 PM""],""thu"":[""10:00 AM - 10:00 PM""],""fri"":[""10:00 AM - 10:00 PM""],""sat"":[""10:00 AM - 10:00 PM""],""sun"":[""10:00 AM - 10:00 PM""]}","0","sb-cuttack-cuttack","","","null","Mon, Tues, Wed, Thur, Fri, Sat, Sun"
"462","SB-DABOKA TOWN","","BESIDE BORO MASJID. DOBOKA TOWN","DABOKA TOWN","ASSAM","782440","India","0","0","9147071274","","","","0","null","1","","{""mon"":[""10:00 AM - 10:00 PM""],""tue"":[""10:00 AM - 10:00 PM""],""wed"":[""10:00 AM - 10:00 PM""],""thu"":[""10:00 AM - 10:00 PM""],""fri"":[""10:00 AM - 10:00 PM""],""sat"":[""10:00 AM - 10:00 PM""],""sun"":[""10:00 AM - 10:00 PM""]}","0","sb-daboka-town-daboka-town","","","null","Mon, Tues, Wed, Thur, Fri, Sat, Sun"
"370","SB-DALTONGANJ","","Dharmasala Road,Daltonganj,Jharkhand , 822101.","DALTONGANJ","JHARKHAND","822101","India","0","0","6292145378","","","","0","null","1","","{""mon"":[""10:00 AM - 10:00 PM""],""tue"":[""10:00 AM - 10:00 PM""],""wed"":[""10:00 AM - 10:00 PM""],""thu"":[""10:00 AM - 10:00 PM""],""fri"":[""10:00 AM - 10:00 PM""],""sat"":[""10:00 AM - 10:00 PM""],""sun"":[""10:00 AM - 10:00 PM""]}","0","sb-daltonganj-daltonganj","","","null","Mon, Tues, Wed, Thur, Fri, Sat, Sun"
"371","SB-DANKUNI","","T.N. Mukherjee Road. Subhash Pally,Near To Mangalchandi Mandir, Dankuni, West Bengal","DANKUNI","WEST BENGAL","712311","India","0","0","6292145380","","","","0","null","1","","{""mon"":[""10:00 AM - 10:00 PM""],""tue"":[""10:00 AM - 10:00 PM""],""wed"":[""10:00 AM - 10:00 PM""],""thu"":[""10:00 AM - 10:00 PM""],""fri"":[""10:00 AM - 10:00 PM""],""sat"":[""10:00 AM - 10:00 PM""],""sun"":[""10:00 AM - 10:00 PM""]}","0","sb-dankuni-dankuni","","","null","Mon, Tues, Wed, Thur, Fri, Sat, Sun"
"476","SB-DHANBAD","","Shiv Shakti Complex, Joraphatak Road, Near Patliputra Hospital, Dhanbad, Jharkhand- 826001","DHANBAD","JHARKHAND","826001","India","0","0","9147071275","","","","0","null","1","","{""mon"":[""10:00 AM - 10:00 PM""],""tue"":[""10:00 AM - 10:00 PM""],""wed"":[""10:00 AM - 10:00 PM""],""thu"":[""10:00 AM - 10:00 PM""],""fri"":[""10:00 AM - 10:00 PM""],""sat"":[""10:00 AM - 10:00 PM""],""sun"":[""10:00 AM - 10:00 PM""]}","0","sb-dhanbad-dhanbad","","","null","Mon, Tues, Wed, Thur, Fri, Sat, Sun"
"372","SB-DHEKIAJULI","","Main Road, Panjab Near National Bank , Nh 52, Dhekiajula","DHEKIAJULI","ASSAM","784110","India","0","0","9147094455","","","","0","null","1","","{""mon"":[""10:00 AM - 10:00 PM""],""tue"":[""10:00 AM - 10:00 PM""],""wed"":[""10:00 AM - 10:00 PM""],""thu"":[""10:00 AM - 10:00 PM""],""fri"":[""10:00 AM - 10:00 PM""],""sat"":[""10:00 AM - 10:00 PM""],""sun"":[""10:00 AM - 10:00 PM""]}","0","sb-dhekiajuli-dhekiajuli","","","null","Mon, Tues, Wed, Thur, Fri, Sat, Sun"
"373","SB-DHENKENAL","","College Road, Beside Bank Of Baroda, Dhenkanal, Odisha","DHENKENAL","ODISHA","759001","India","0","0","9147094451","","","","0","null","1","","{""mon"":[""10:00 AM - 10:00 PM""],""tue"":[""10:00 AM - 10:00 PM""],""wed"":[""10:00 AM - 10:00 PM""],""thu"":[""10:00 AM - 10:00 PM""],""fri"":[""10:00 AM - 10:00 PM""],""sat"":[""10:00 AM - 10:00 PM""],""sun"":[""10:00 AM - 10:00 PM""]}","0","sb-dhenkenal-dhenkenal","","","null","Mon, Tues, Wed, Thur, Fri, Sat, Sun"
"374","SB-DHULIYAN","","Hospital More, Dhuliyan, West Bengal","DHULIYAN","WEST BENGAL","742202","India","0","0","9147099884","","","","0","null","1","","{""mon"":[""10:00 AM - 10:00 PM""],""tue"":[""10:00 AM - 10:00 PM""],""wed"":[""10:00 AM - 10:00 PM""],""thu"":[""10:00 AM - 10:00 PM""],""fri"":[""10:00 AM - 10:00 PM""],""sat"":[""10:00 AM - 10:00 PM""],""sun"":[""10:00 AM - 10:00 PM""]}","0","sb-dhuliyan-dhuliyan","","","null","Mon, Tues, Wed, Thur, Fri, Sat, Sun"
"375","SB-DHUPGURI","","Falakata Road, Opp Indusind Bank, Dhupguri, Jalpaiguri","DHUPGURI","WEST BENGAL","735210","India","0","0","8334973331","","","","0","null","1","","{""mon"":[""10:00 AM - 10:00 PM""],""tue"":[""10:00 AM - 10:00 PM""],""wed"":[""10:00 AM - 10:00 PM""],""thu"":[""10:00 AM - 10:00 PM""],""fri"":[""10:00 AM - 10:00 PM""],""sat"":[""10:00 AM - 10:00 PM""],""sun"":[""10:00 AM - 10:00 PM""]}","0","sb-dhupguri-dhupguri","","","null","Mon, Tues, Wed, Thur, Fri, Sat, Sun"
"531","SB-DIBRUGARH","","R.K.B Path, Beside Head Post Office, Dibrugarh- Assam -786001","DIBRUGARH","ASSAM","786001","India","27.4798689","94.9052167","9147409545","","","https://stylebaazar.in","0","null","1","","{""mon"":[""10:00 AM - 10:00 PM""],""tue"":[""10:00 AM - 10:00 PM""],""wed"":[""10:00 AM - 10:00 PM""],""thu"":[""10:00 AM - 10:00 PM""],""fri"":[""10:00 AM - 10:00 PM""],""sat"":[""10:00 AM - 10:00 PM""],""sun"":[""10:00 AM - 10:00 PM""]}","0","sb-dibrugarh-dibrugarh","null","null","null","Mon, Tues, Wed, Thur, Fri, Sat, Sun"
"376","SB-DINHATA","","Rangpur Road, Chowrahaat Bazar. West Bengal,Dinhata, 736135.","DINHATA","WEST BENGAL","736135","India","0","0","9073341742","","","","0","null","1","","{""mon"":[""10:00 AM - 10:00 PM""],""tue"":[""10:00 AM - 10:00 PM""],""wed"":[""10:00 AM - 10:00 PM""],""thu"":[""10:00 AM - 10:00 PM""],""fri"":[""10:00 AM - 10:00 PM""],""sat"":[""10:00 AM - 10:00 PM""],""sun"":[""10:00 AM - 10:00 PM""]}","0","sb-dinhata-dinhata","","","null","Mon, Tues, Wed, Thur, Fri, Sat, Sun"
"377","SB-DURGAPUR","","Nachan Road, Opposite Kohinoor Hotel, Benachity, West Bengal Pin-713213","DURGAPUR","WEST BENGAL","713213","India","0","0","9147097167","","","","0","null","1","","{""mon"":[""10:00 AM - 10:00 PM""],""tue"":[""10:00 AM - 10:00 PM""],""wed"":[""10:00 AM - 10:00 PM""],""thu"":[""10:00 AM - 10:00 PM""],""fri"":[""10:00 AM - 10:00 PM""],""sat"":[""10:00 AM - 10:00 PM""],""sun"":[""10:00 AM - 10:00 PM""]}","0","sb-durgapur-durgapur","","","null","Mon, Tues, Wed, Thur, Fri, Sat, Sun"
"468","SB-DURGAPUR","","Nachan Road, Opposite Kohinoor Hotel, Benachity, West Bengal","DURGAPUR","WEST BENGAL","713213","India","0","0","9147097167","","","","0","null","1","","{""mon"":[""10:00 AM - 10:00 PM""],""tue"":[""10:00 AM - 10:00 PM""],""wed"":[""10:00 AM - 10:00 PM""],""thu"":[""10:00 AM - 10:00 PM""],""fri"":[""10:00 AM - 10:00 PM""],""sat"":[""10:00 AM - 10:00 PM""],""sun"":[""10:00 AM - 10:00 PM""]}","0","sb-durgapur-durgapur-1","","","null","Mon, Tues, Wed, Thur, Fri, Sat, Sun"
"378","SB-EGRA","","Ward no-13, Next to Kali Temple,P.O. + P.S.-Egra, Near-Hattanagar,Pin-721429","EGRA","WEST BENGAL","721429","India","0","0","6292248594","","","","0","null","1","","{""mon"":[""10:00 AM - 10:00 PM""],""tue"":[""10:00 AM - 10:00 PM""],""wed"":[""10:00 AM - 10:00 PM""],""thu"":[""10:00 AM - 10:00 PM""],""fri"":[""10:00 AM - 10:00 PM""],""sat"":[""10:00 AM - 10:00 PM""],""sun"":[""10:00 AM - 10:00 PM""]}","0","sb-egra-egra","","","null","Mon, Tues, Wed, Thur, Fri, Sat, Sun"
"469","SB-EGRA","","Ward No-13, Next To Kali Temple,P.O. + P.S.-Egra, Near-Hattanagar","EGRA","WEST BENGAL","721429","India","0","0","6292248594","","","","0","null","1","","{""mon"":[""10:00 AM - 10:00 PM""],""tue"":[""10:00 AM - 10:00 PM""],""wed"":[""10:00 AM - 10:00 PM""],""thu"":[""10:00 AM - 10:00 PM""],""fri"":[""10:00 AM - 10:00 PM""],""sat"":[""10:00 AM - 10:00 PM""],""sun"":[""10:00 AM - 10:00 PM""]}","0","sb-egra-egra-1","","","null","Mon, Tues, Wed, Thur, Fri, Sat, Sun"
"380","SB-GAJUWAKA","","Seshmahal Complex, Main Road, Gajuwaka, Visakhapatnam, Ap","GAJUWAKA","ANDHRA PRADESH","530026","India","0","0","6292127042","","","","0","null","1","","{""mon"":[""10:00 AM - 10:00 PM""],""tue"":[""10:00 AM - 10:00 PM""],""wed"":[""10:00 AM - 10:00 PM""],""thu"":[""10:00 AM - 10:00 PM""],""fri"":[""10:00 AM - 10:00 PM""],""sat"":[""10:00 AM - 10:00 PM""],""sun"":[""10:00 AM - 10:00 PM""]}","0","sb-gajuwaka-gajuwaka","","","null","Mon, Tues, Wed, Thur, Fri, Sat, Sun"
"381","SB-GARHWA","","Main Road, Maa Basanti Complex, Jharkhand, Garhwa","GARHWA","JHARKHAND","822114","India","0","0","6292127040","","","","0","null","1","","{""mon"":[""10:00 AM - 10:00 PM""],""tue"":[""10:00 AM - 10:00 PM""],""wed"":[""10:00 AM - 10:00 PM""],""thu"":[""10:00 AM - 10:00 PM""],""fri"":[""10:00 AM - 10:00 PM""],""sat"":[""10:00 AM - 10:00 PM""],""sun"":[""10:00 AM - 10:00 PM""]}","0","sb-garhwa-garhwa","","","null","Mon, Tues, Wed, Thur, Fri, Sat, Sun"
"382","SB-GARIAHAT","","UCO Bank building, Ekdalia more, Gariahat, Pin- 700029","GARIAHAT","WEST BENGAL","700029","India","0","0","9147005751","","","","0","null","1","","{""mon"":[""09:30 AM - 06:30 PM""],""tue"":[""09:30 AM - 06:30 PM""],""wed"":[""09:30 AM - 06:30 PM""],""thu"":[""09:30 AM - 06:30 PM""],""fri"":[""09:30 AM - 06:30 PM""],""sat"":[""09:30 AM - 06:30 PM""],""sun"":[""09:30 AM - 06:30 PM""]}","0","sb-gariahat-gariahat","","","null","Mon, Tues, Wed, Thur, Fri, Sat, Sun"
"492","SB-GAURIPUR","","GAURIPUR(Bepariputy), opp. Gurudwara Gate, PIN CODE","GAURIPUR","ASSAM","783331","India","26.0916341","89.9655224","9147375732","","","https://stylebaazar.in","0","null","1","","{""mon"":[""10:00 AM - 10:00 PM""],""tue"":[""10:00 AM - 10:00 PM""],""wed"":[""10:00 AM - 10:00 PM""],""thu"":[""10:00 AM - 10:00 PM""],""fri"":[""10:00 AM - 10:00 PM""],""sat"":[""10:00 AM - 10:00 PM""],""sun"":[""10:00 AM - 10:00 PM""]}","0","sb-gauripur-gauripur","","","null","Mon, Tues, Wed, Thur, Fri, Sat, Sun"
"383","SB-GHORASAHAN","","Main Road , Near Central Bank,Ghorasahan, 854303.","GHORASAHAN","BIHAR","854303","India","0","0","8420120638","","","","0","null","1","","{""mon"":[""10:00 AM - 10:00 PM""],""tue"":[""10:00 AM - 10:00 PM""],""wed"":[""10:00 AM - 10:00 PM""],""thu"":[""10:00 AM - 10:00 PM""],""fri"":[""10:00 AM - 10:00 PM""],""sat"":[""10:00 AM - 10:00 PM""],""sun"":[""10:00 AM - 10:00 PM""]}","0","sb-ghorasahan-ghorasahan","","","null","Mon, Tues, Wed, Thur, Fri, Sat, Sun"
"384","SB-GOALPARA","","Ward No-14, Holding No-381,Boc Agia Road, Nr Vishal Mega Mart","GOALPARA","ASSAM","783121","India","0","0","6292248593","","","","0","null","1","","{""mon"":[""10:00 AM - 10:00 PM""],""tue"":[""10:00 AM - 10:00 PM""],""wed"":[""10:00 AM - 10:00 PM""],""thu"":[""10:00 AM - 10:00 PM""],""fri"":[""10:00 AM - 10:00 PM""],""sat"":[""10:00 AM - 10:00 PM""],""sun"":[""10:00 AM - 10:00 PM""]}","0","sb-goalpara-goalpara","","","null","Mon, Tues, Wed, Thur, Fri, Sat, Sun"
"385","SB-GODDA","","Bhagalpur Road Near Hp Petrol Pump Godda, Jharkhand","GODDA","JHARKHAND","814133","India","0","0","9147100674","","","","0","null","1","","{""mon"":[""10:00 AM - 10:00 PM""],""tue"":[""10:00 AM - 10:00 PM""],""wed"":[""10:00 AM - 10:00 PM""],""thu"":[""10:00 AM - 10:00 PM""],""fri"":[""10:00 AM - 10:00 PM""],""sat"":[""10:00 AM - 10:00 PM""],""sun"":[""10:00 AM - 10:00 PM""]}","0","sb-godda-godda","","","null","Mon, Tues, Wed, Thur, Fri, Sat, Sun"
"386","SB-GOPALGANJ","","Cinema Road, Janglia More Gopalganj, Bihar","GOPALGANJ","BIHAR","841428","India","0","0","8335075328","","","","0","null","1","","{""mon"":[""10:00 AM - 10:00 PM""],""tue"":[""10:00 AM - 10:00 PM""],""wed"":[""10:00 AM - 10:00 PM""],""thu"":[""10:00 AM - 10:00 PM""],""fri"":[""10:00 AM - 10:00 PM""],""sat"":[""10:00 AM - 10:00 PM""],""sun"":[""10:00 AM - 10:00 PM""]}","0","sb-gopalganj-gopalganj","","","null","Mon, Tues, Wed, Thur, Fri, Sat, Sun"
"483","SB-GORAKHPUR","","Gorakhnath Road, Opposite Gorakhnath Complex, Gorakhpur","GORAKHPUR","UTTAR PRADESH","273015","India","0","0","7605009325","","","","0","null","1","","{""mon"":[""10:00 AM - 10:00 PM""],""tue"":[""10:00 AM - 10:00 PM""],""wed"":[""10:00 AM - 10:00 PM""],""thu"":[""10:00 AM - 10:00 PM""],""fri"":[""10:00 AM - 10:00 PM""],""sat"":[""10:00 AM - 10:00 PM""],""sun"":[""10:00 AM - 10:00 PM""]}","0","sb-gorakhpur-gorakhpur","","","null","Mon, Tues, Wed, Thur, Fri, Sat, Sun"
"387","SB-GOSSAIGAON","","Narzery Tower, D.K.Road, Near Kaki Mandir, Gossaigaon","GOSSAIGAON","ASSAM","783360","India","0","0","9147095632","","","","0","null","1","","{""mon"":[""10:00 AM - 10:00 PM""],""tue"":[""10:00 AM - 10:00 PM""],""wed"":[""10:00 AM - 10:00 PM""],""thu"":[""10:00 AM - 10:00 PM""],""fri"":[""10:00 AM - 10:00 PM""],""sat"":[""10:00 AM - 10:00 PM""],""sun"":[""10:00 AM - 10:00 PM""]}","0","sb-gossaigaon-gossaigaon","","","null","Mon, Tues, Wed, Thur, Fri, Sat, Sun"
"388","SB-GUNUPUR","","Station Road, Opposite Union Bank, Odisha","GUNUPUR","ODISHA","765022","India","0","0","9147100671","","","","0","null","1","","{""mon"":[""10:00 AM - 10:00 PM""],""tue"":[""10:00 AM - 10:00 PM""],""wed"":[""10:00 AM - 10:00 PM""],""thu"":[""10:00 AM - 10:00 PM""],""fri"":[""10:00 AM - 10:00 PM""],""sat"":[""10:00 AM - 10:00 PM""],""sun"":[""09:30 AM - 10:00 PM""]}","0","sb-gunupur-gunupur","","","null","Mon, Tues, Wed, Thur, Fri, Sat, Sun"
"473","SB-GUWAHATI CLUB","","G.N.B. Road, Near Guwahati Club Point, Guwahati","GUWAHATI CLUB","ASSAM","781003","India","0","0","9147071279","","","","0","null","1","","{""mon"":[""09:30 AM - 06:30 PM""],""tue"":[""09:30 AM - 06:30 PM""],""wed"":[""09:30 AM - 06:30 PM""],""thu"":[""09:30 AM - 06:30 PM""],""fri"":[""09:30 AM - 06:30 PM""],""sat"":[""09:30 AM - 06:30 PM""],""sun"":[""09:30 AM - 06:30 PM""]}","0","sb-guwahati-club-guwahati-club","","","null","Mon, Tues, Wed, Thur, Fri, Sat, Sun"
"389","SB-HABRA","","78,Bus Stand,Jessore Road,24 Pgs(N),Near-Sbi Bank, Habra","HABRA","WEST BENGAL","743263","India","0","0","7044083970","","","","0","null","1","","{""mon"":[""10:00 AM - 10:00 PM""],""tue"":[""10:00 AM - 10:00 PM""],""wed"":[""10:00 AM - 10:00 PM""],""thu"":[""10:00 AM - 10:00 PM""],""fri"":[""10:00 AM - 10:00 PM""],""sat"":[""10:00 AM - 10:00 PM""],""sun"":[""10:00 AM - 10:00 PM""]}","0","sb-habra-habra","","","null","Mon, Tues, Wed, Thur, Fri, Sat, Sun"
"474","SB-HAIBERGAON","","At Road, Near Haibargaon Police Station, Haibargaon, Fauzdaripatty, Nagaon, Assam","HAIBERGAON","ASSAM","782002","India","0","0","9147071277","","","","0","null","1","","{""mon"":[""10:00 AM - 10:00 PM""],""tue"":[""10:00 AM - 10:00 PM""],""wed"":[""10:00 AM - 10:00 PM""],""thu"":[""10:00 AM - 10:00 PM""],""fri"":[""10:00 AM - 10:00 PM""],""sat"":[""10:00 AM - 10:00 PM""],""sun"":[""10:00 AM - 10:00 PM""]}","0","sb-haibergaon-haibergaon","","","null","Mon, Tues, Wed, Thur, Fri, Sat, Sun"
"489","SB-HAILAKANDI","","N.S Road, Opposite DS.A Field, Hailakandi","HAILAKANDI","ASSAM","788155","India","24.6829487","92.5643887","9147078122","","","https://stylebaazar.in","0","null","1","","{""mon"":[""10:00 AM - 10:00 PM""],""tue"":[""10:00 AM - 10:00 PM""],""wed"":[""10:00 AM - 10:00 PM""],""thu"":[""10:00 AM - 10:00 PM""],""fri"":[""10:00 AM - 10:00 PM""],""sat"":[""10:00 AM - 10:00 PM""],""sun"":[""10:00 AM - 10:00 PM""]}","0","sb-hailakandi-hailakandi","","","null","Mon, Tues, Wed, Thur, Fri, Sat, Sun"
"493","SB-HATA","","HATA BAZAR, NEAR SBI MAIN ROAD, HATA, PIN CODE","HATA","UTTAR PRADESH","274203","India","26.3702783","83.4703566","9147375735","","","https://stylebaazar.in","0","null","1","","{""mon"":[""10:00 AM - 10:00 PM""],""tue"":[""10:00 AM - 10:00 PM""],""wed"":[""10:00 AM - 10:00 PM""],""thu"":[""10:00 AM - 10:00 PM""],""fri"":[""10:00 AM - 10:00 PM""],""sat"":[""10:00 AM - 10:00 PM""],""sun"":[""10:00 AM - 10:00 PM""]}","0","sb-hata-hata","","","null","Mon, Tues, Wed, Thur, Fri, Sat, Sun"
"490","SB-HATIGAON","","Sijubari Road, Near SBI bank, Hatigaon","HATIGAON","ASSAM","781038","India","26.1290813","91.7794356","9147078123","","","https://stylebaazar.in","0","null","1","","{""mon"":[""10:00 AM - 10:00 PM""],""tue"":[""10:00 AM - 10:00 PM""],""wed"":[""10:00 AM - 10:00 PM""],""thu"":[""10:00 AM - 10:00 PM""],""fri"":[""10:00 AM - 10:00 PM""],""sat"":[""10:00 AM - 10:00 PM""],""sun"":[""10:00 AM - 10:00 PM""]}","0","sb-hatigaon-hatigaon","","","null","Mon, Tues, Wed, Thur, Fri, Sat, Sun"
"463","SB-HOWLY","","Main Town, Tiniali Road, Guwahati, Assam","HOWLY","ASSAM","781316","India","0","0","8585075183","","","","0","null","1","","{""mon"":[""10:00 AM - 10:00 PM""],""tue"":[""10:00 AM - 10:00 PM""],""wed"":[""10:00 AM - 10:00 PM""],""thu"":[""10:00 AM - 10:00 PM""],""fri"":[""10:00 AM - 10:00 PM""],""sat"":[""10:00 AM - 10:00 PM""],""sun"":[""10:00 AM - 10:00 PM""]}","0","sb-howly-howly","","","null","Mon, Tues, Wed, Thur, Fri, Sat, Sun"
"479","SB-HOWRAH MAIDAN","","545, Gt Road, Beside Hind Apartment Market, Howrah Maidan, Kolkata, West Bengal","HOWRAH MAIDAN","WEST BENGAL","711101","India","0","0","8334883299","","","","0","null","1","","{""mon"":[""10:00 AM - 10:00 PM""],""tue"":[""10:00 AM - 10:00 PM""],""wed"":[""10:00 AM - 10:00 PM""],""thu"":[""10:00 AM - 10:00 PM""],""fri"":[""10:00 AM - 10:00 PM""],""sat"":[""10:00 AM - 10:00 PM""],""sun"":[""10:00 AM - 10:00 PM""]}","0","sb-howrah-maidan-howrah-maidan","","","null","Mon, Tues, Wed, Thur, Fri, Sat, Sun"
"390","SB-ILLAMBAZAR","","Illambazar Bus Stand, Panagarh Rd, Illambazar - 731214","ILLAMBAZAR","WEST BENGAL","731214","India","0","0","9147095633","","","","0","null","1","","{""mon"":[""10:00 AM - 10:00 PM""],""tue"":[""10:00 AM - 10:00 PM""],""wed"":[""10:00 AM - 10:00 PM""],""thu"":[""10:00 AM - 10:00 PM""],""fri"":[""10:00 AM - 10:00 PM""],""sat"":[""10:00 AM - 10:00 PM""],""sun"":[""10:00 AM - 10:00 PM""]}","0","sb-illambazar-illambazar","","","null","Mon, Tues, Wed, Thur, Fri, Sat, Sun"
"494","SB-INDIRA NAGAR","","SANJAY GANDHI PURAM, NEAR KUKRAIL BRIDGE, LUCKNOW","INDRA NAGAR","UTTAR PRADESH","226016","India","26.8915707","80.9926327","9147375736","","","https://stylebaazar.in","0","null","1","","{""mon"":[""10:00 AM - 10:00 PM""],""tue"":[""10:00 AM - 10:00 PM""],""wed"":[""10:00 AM - 10:00 PM""],""thu"":[""10:00 AM - 10:00 PM""],""fri"":[""10:00 AM - 10:00 PM""],""sat"":[""10:00 AM - 10:00 PM""],""sun"":[""10:00 AM - 10:00 PM""]}","0","sb-indira-nagar-indra-nagar","","","null","Mon, Tues, Wed, Thur, Fri, Sat, Sun"
"391","SB-ISLAMPUR","","New Town Road,Deshbandhu Para ,Po+Ps-Islampur, District-Uttar Dinajpur, West Bengal,733202.","ISLAMPUR","WEST BENGAL","733202","India","0","0","9073637671","","","","0","null","1","","{""mon"":[""10:00 AM - 10:00 PM""],""tue"":[""10:00 AM - 10:00 PM""],""wed"":[""10:00 AM - 10:00 PM""],""thu"":[""10:00 AM - 10:00 PM""],""fri"":[""10:00 AM - 10:00 PM""],""sat"":[""10:00 AM - 10:00 PM""],""sun"":[""10:00 AM - 10:00 PM""]}","0","sb-islampur-islampur","","","null","Mon, Tues, Wed, Thur, Fri, Sat, Sun"
"540","SB-ITANAGAR","","Ganga Market (Opposite ANCHU Office), Itanagar Capital Complex, Arunachal Pradesh -791111","ITANAGAR","ARUNACHAL PRADESH","791111","India","27.0865794","93.6143932","","","","https://stylebaazar.in","0","null","1","","{""mon"":[""10:00 AM - 10:00 PM""],""tue"":[""10:00 AM - 10:00 PM""],""wed"":[""10:00 AM - 10:00 PM""],""thu"":[""10:00 AM - 10:00 PM""],""fri"":[""10:00 AM - 10:00 PM""],""sat"":[""10:00 AM - 10:00 PM""],""sun"":[""10:00 AM - 10:00 PM""]}","0","sb-itanagar-itanagar","null","null","null","Mon, Tues, Wed, Thur, Fri, Sat, Sun"
"392","SB-JAJPUR","","Bank Street, Near Axis Bank, Jajpur Road, Jajpur Odisha","JAJPUR","ODISHA","755018","India","0","0","7605009260","","","","0","null","1","","{""mon"":[""10:00 AM - 10:00 PM""],""tue"":[""10:00 AM - 10:00 PM""],""wed"":[""10:00 AM - 10:00 PM""],""thu"":[""10:00 AM - 10:00 PM""],""fri"":[""10:00 AM - 10:00 PM""],""sat"":[""10:00 AM - 10:00 PM""],""sun"":[""10:00 AM - 10:00 PM""]}","0","sb-jajpur-jajpur","","","null","Mon, Tues, Wed, Thur, Fri, Sat, Sun"
"497","SB-JAMES LONG SARANI","","James Long Sarani, Opposite Eastern Railway Sports Complex, Behala, Kolkata","BEHALA","WEST BENGAL","700034","India","22.4921392","88.3192236","9147375734","","","https://stylebaazar.in","0","null","1","","{""mon"":[""10:00 AM - 10:00 PM""],""tue"":[""10:00 AM - 10:00 PM""],""wed"":[""10:00 AM - 10:00 PM""],""thu"":[""10:00 AM - 10:00 PM""],""fri"":[""10:00 AM - 10:00 PM""],""sat"":[""10:00 AM - 10:00 PM""],""sun"":[""10:00 AM - 10:00 PM""]}","0","sb-james-long-sarani-behala","","","null","Mon, Tues, Wed, Thur, Fri, Sat, Sun"
"467","SB-JAUNPUR","","Padav, Badlapur, Uttar Pradesh","JAUNPUR","UTTAR PRADESH","222125","India","0","0","9147071272","","","","0","null","1","","{""mon"":[""10:00 AM - 10:00 PM""],""tue"":[""10:00 AM - 10:00 PM""],""wed"":[""10:00 AM - 10:00 PM""],""thu"":[""10:00 AM - 10:00 PM""],""fri"":[""10:00 AM - 10:00 PM""],""sat"":[""10:00 AM - 10:00 PM""],""sun"":[""10:00 AM - 10:00 PM""]}","0","sb-jaunpur-jaunpur","","","null","Mon, Tues, Wed, Thur, Fri, Sat, Sun"
"393","SB-JEYPORE","","Main Road, Near Bsnl Office,Jeypore,Koraput,Odisha","JEYPORE","ODISHA","764001","India","0","0","7595026198","","","","0","null","1","","{""mon"":[""10:00 AM - 10:00 PM""],""tue"":[""10:00 AM - 10:00 PM""],""wed"":[""10:00 AM - 10:00 PM""],""thu"":[""10:00 AM - 10:00 PM""],""fri"":[""10:00 AM - 10:00 PM""],""sat"":[""10:00 AM - 10:00 PM""],""sun"":[""10:00 AM - 10:00 PM""]}","0","sb-jeypore-jeypore","","","null","Mon, Tues, Wed, Thur, Fri, Sat, Sun"
"394","SB-JHANJHARPUR","","Station road, Near SBI BANK Jhanjharpur","JHANJHARPUR","BIHAR","847403","India","0","0","6292248591","","","","0","null","1","","{""mon"":[""10:00 AM - 10:00 PM""],""tue"":[""10:00 AM - 10:00 PM""],""wed"":[""10:00 AM - 10:00 PM""],""thu"":[""10:00 AM - 10:00 PM""],""fri"":[""10:00 AM - 10:00 PM""],""sat"":[""10:00 AM - 10:00 PM""],""sun"":[""10:00 AM - 10:00 PM""]}","0","sb-jhanjharpur-jhanjharpur","","","null","Mon, Tues, Wed, Thur, Fri, Sat, Sun"
"496","SB-JORHAT","","Kamar Bandha Road, Beside SBI Bank, Jorhat, Assam","JORHAT","ASSAM","785001","India","26.7435464","94.2006443","7605009301","","","https://stylebaazar.in","0","null","1","","{""mon"":[""10:00 AM - 10:00 PM""],""tue"":[""10:00 AM - 10:00 PM""],""wed"":[""10:00 AM - 10:00 PM""],""thu"":[""10:00 AM - 10:00 PM""],""fri"":[""10:00 AM - 10:00 PM""],""sat"":[""10:00 AM - 10:00 PM""],""sun"":[""10:00 AM - 10:00 PM""]}","0","sb-jorhat-jorhat","","","null","Mon, Tues, Wed, Thur, Fri, Sat, Sun"
"395","SB-KAKDWIP","","Old Canara Bank Building, Opposite Girls School,Kakdwip","KAKDWIP","WEST BENGAL","743347","India","0","0","9147005747","","","","0","null","1","","{""mon"":[""10:00 AM - 10:00 PM""],""tue"":[""10:00 AM - 10:00 PM""],""wed"":[""10:00 AM - 10:00 PM""],""thu"":[""10:00 AM - 10:00 PM""],""fri"":[""10:00 AM - 10:00 PM""],""sat"":[""10:00 AM - 10:00 PM""],""sun"":[""10:00 AM - 10:00 PM""]}","0","sb-kakdwip-kakdwip","","","null","Mon, Tues, Wed, Thur, Fri, Sat, Sun"
"396","SB-KALIACHAK","","Kaliachak New Market,Opp - Jibon Rekha Nurshing Home, West Bengal","KALIACHAK","WEST BENGAL","732201","India","0","0","7596072375","","","","0","null","1","","{""mon"":[""10:00 AM - 10:00 PM""],""tue"":[""10:00 AM - 10:00 PM""],""wed"":[""10:00 AM - 10:00 PM""],""thu"":[""10:00 AM - 10:00 PM""],""fri"":[""10:00 AM - 10:00 PM""],""sat"":[""10:00 AM - 10:00 PM""],""sun"":[""10:00 AM - 10:00 PM""]}","0","sb-kaliachak-kaliachak","","","null","Mon, Tues, Wed, Thur, Fri, Sat, Sun"
"337","SB-KANCHRAPARA","","4,Station Road,Kanchrapara,24 Pgs(N),W.B.743145.","KANCHRAPARA","WEST BENGAL","743145","India","0","0","8584867405","","","","0","null","1","","{""mon"":[""10:00 AM - 10:00 PM""],""tue"":[""10:00 AM - 10:00 PM""],""wed"":[""10:00 AM - 10:00 PM""],""thu"":[""10:00 AM - 10:00 PM""],""fri"":[""10:00 AM - 10:00 PM""],""sat"":[""10:00 AM - 10:00 PM""],""sun"":[""10:00 AM - 10:00 PM""]}","0","sb-kanchrapara-kanchrapara","","","null","Mon, Tues, Wed, Thur, Fri, Sat, Sun"
"397","SB-KANCHRAPARA","","4,Station Road,Kanchrapara,24 Pgs(N),W.B.743145.","KANCHRAPARA","WEST BENGAL","743145","India","0","0","9007019312","","","","0","null","1","","{""mon"":[""10:00 AM - 10:00 PM""],""tue"":[""10:00 AM - 10:00 PM""],""wed"":[""10:00 AM - 10:00 PM""],""thu"":[""10:00 AM - 10:00 PM""],""fri"":[""10:00 AM - 10:00 PM""],""sat"":[""10:00 AM - 10:00 PM""],""sun"":[""10:00 AM - 10:00 PM""]}","0","sb-kanchrapara-kanchrapara-1","","","null","Mon, Tues, Wed, Thur, Fri, Sat, Sun"
"398","SB-KARIMPUR","","New Bus Stand, Beside LIC Building, Karimpur, Pin- 741152","KARIMPUR","WEST BENGAL","741152","India","0","0","9147097163","","","","0","null","1","","{""mon"":[""10:00 AM - 10:00 PM""],""tue"":[""10:00 AM - 10:00 PM""],""wed"":[""10:00 AM - 10:00 PM""],""thu"":[""10:00 AM - 10:00 PM""],""fri"":[""10:00 AM - 10:00 PM""],""sat"":[""10:00 AM - 10:00 PM""],""sun"":[""10:00 AM - 10:00 PM""]}","0","sb-karimpur-karimpur","","","null","Mon, Tues, Wed, Thur, Fri, Sat, Sun"
"485","SB-KASIA","","Main Road, Kasia Bazar, Near Jain Building","KASIA","UTTAR PRADESH","274402","India","0","0","7605009267","","","","0","null","1","","{""mon"":[""10:00 AM - 10:00 PM""],""tue"":[""10:00 AM - 10:00 PM""],""wed"":[""10:00 AM - 10:00 PM""],""thu"":[""10:00 AM - 10:00 PM""],""fri"":[""10:00 AM - 10:00 PM""],""sat"":[""10:00 AM - 10:00 PM""],""sun"":[""10:00 AM - 10:00 PM""]}","0","sb-kasia-kasia","","","null","Mon, Tues, Wed, Thur, Fri, Sat, Sun"
"399","SB-KATWA","","Kachari Road,Near-Pwd Office,Hospital More,P.O-Katwa,Dist-Burdhwan,713130.","KATWA","WEST BENGAL","713130","India","0","0","9091254517","","","","0","null","1","","{""mon"":[""10:00 AM - 10:00 PM""],""tue"":[""10:00 AM - 10:00 PM""],""wed"":[""10:00 AM - 10:00 PM""],""thu"":[""10:00 AM - 10:00 PM""],""fri"":[""10:00 AM - 10:00 PM""],""sat"":[""10:00 AM - 10:00 PM""],""sun"":[""10:00 AM - 10:00 PM""]}","0","sb-katwa-katwa","","","null","Mon, Tues, Wed, Thur, Fri, Sat, Sun"
"470","SB-KATWA","","Kachari Road,Near-Pwd Office,Hospital More,P.O-Katwa,Dist-Burdhwan","KATWA","WEST BENGAL","713130","India","0","0","9091254517","","","","0","null","1","","{""mon"":[""10:00 AM - 10:00 PM""],""tue"":[""10:00 AM - 10:00 PM""],""wed"":[""10:00 AM - 10:00 PM""],""thu"":[""10:00 AM - 10:00 PM""],""fri"":[""10:00 AM - 10:00 PM""],""sat"":[""10:00 AM - 10:00 PM""],""sun"":[""10:00 AM - 10:00 PM""]}","0","sb-katwa-katwa-1","","","null","Mon, Tues, Wed, Thur, Fri, Sat, Sun"
"400","SB-KENDRAPARA","","Baniamal, Kendrapara New Bus Stand, Opposite Of Hotel Ananta Balia Palace, Kendrapara, Odisha","KENDRAPARA","ODISHA","754211","India","0","0","9147006155","","","","0","null","1","","{""mon"":[""10:00 AM - 10:00 PM""],""tue"":[""10:00 AM - 10:00 PM""],""wed"":[""10:00 AM - 10:00 PM""],""thu"":[""10:00 AM - 10:00 PM""],""fri"":[""10:00 AM - 10:00 PM""],""sat"":[""10:00 AM - 10:00 PM""],""sun"":[""10:00 AM - 10:00 PM""]}","0","sb-kendrapara-kendrapara","","","null","Mon, Tues, Wed, Thur, Fri, Sat, Sun"
"402","SB-KHAGARIA","","Sagarmal Chowk, Near Rajasthan Hotel, Khagaria ,Bihar","KHAGARIA","BIHAR","851204","India","0","0","8017002368","","","","0","null","1","","{""mon"":[""10:00 AM - 10:00 PM""],""tue"":[""10:00 AM - 10:00 PM""],""wed"":[""10:00 AM - 10:00 PM""],""thu"":[""10:00 AM - 10:00 PM""],""fri"":[""10:00 AM - 10:00 PM""],""sat"":[""10:00 AM - 10:00 PM""],""sun"":[""10:00 AM - 10:00 PM""]}","0","sb-khagaria-khagaria","","","null","Mon, Tues, Wed, Thur, Fri, Sat, Sun"
"541","SB-KHANDAGIRI","","Near Barabhuja Market Complex ,Khandagiri Square, Bhubaneswar, Khurda, Odisha, Pin -751030","BHUBANESWAR","ODISHA","751030","India","20.2581286","85.787929","","","","https://stylebaazar.in","0","null","1","","{""mon"":[""10:00 AM - 10:00 PM""],""tue"":[""10:00 AM - 10:00 PM""],""wed"":[""10:00 AM - 10:00 PM""],""thu"":[""10:00 AM - 10:00 PM""],""fri"":[""10:00 AM - 10:00 PM""],""sat"":[""10:00 AM - 10:00 PM""],""sun"":[""10:00 AM - 10:00 PM""]}","0","sb-khandagiri-bhubaneswar","null","null","null","Mon, Tues, Wed, Thur, Fri, Sat, Sun"
"403","SB-KHURDA","","Nayagarh Road, Opposite Bharat Petrol Pump, Khurda Road, Odisha","KHURDA","ODISHA","752055","India","0","0","9147094450","","","","0","null","1","","{""mon"":[""10:00 AM - 10:00 PM""],""tue"":[""10:00 AM - 10:00 PM""],""wed"":[""10:00 AM - 10:00 PM""],""thu"":[""10:00 AM - 10:00 PM""],""fri"":[""10:00 AM - 10:00 PM""],""sat"":[""10:00 AM - 10:00 PM""],""sun"":[""10:00 AM - 10:00 PM""]}","0","sb-khurda-khurda","","","null","Mon, Tues, Wed, Thur, Fri, Sat, Sun"
"404","SB-KISHANGANJ","","Saudagar Patti, Fall Chowk, Bara Masjid, Kishanganj, Bihar","KISHANGANJ","BIHAR","855107","India","0","0","9073670514","","","","0","null","1","","{""mon"":[""10:00 AM - 10:00 PM""],""tue"":[""10:00 AM - 10:00 PM""],""wed"":[""10:00 AM - 10:00 PM""],""thu"":[""10:00 AM - 10:00 PM""],""fri"":[""10:00 AM - 10:00 PM""],""sat"":[""10:00 AM - 10:00 PM""],""sun"":[""10:00 AM - 10:00 PM""]}","0","sb-kishanganj-kishanganj","","","null","Mon, Tues, Wed, Thur, Fri, Sat, Sun"
"405","SB-KOKRAJHAR","","Jd Road, Main Police Point, Near Assam Oil, Kokrajhar","KOKRAJHAR","ASSAM","783370","India","0","0","9147005749","","","","0","null","1","","{""mon"":[""10:00 AM - 10:00 PM""],""tue"":[""10:00 AM - 10:00 PM""],""wed"":[""10:00 AM - 10:00 PM""],""thu"":[""10:00 AM - 10:00 PM""],""fri"":[""10:00 AM - 10:00 PM""],""sat"":[""10:00 AM - 10:00 PM""],""sun"":[""10:00 AM - 10:00 PM""]}","0","sb-kokrajhar-kokrajhar","","","null","Mon, Tues, Wed, Thur, Fri, Sat, Sun"
"338","SB-KRISHNANAGAR","","27, M.M. Ghosh St, Opp -Judge Court,Krishnanagar,Nadia","KRISHNANAGAR","WEST BENGAL","741101","India","0","0","6292125845","","","","0","null","1","","{""mon"":[""10:00 AM - 10:00 PM""],""tue"":[""10:00 AM - 10:00 PM""],""wed"":[""10:00 AM - 10:00 PM""],""thu"":[""10:00 AM - 10:00 PM""],""fri"":[""10:00 AM - 10:00 PM""],""sat"":[""10:00 AM - 10:00 PM""],""sun"":[""10:00 AM - 10:00 PM""]}","0","sb-krishnanagar-krishnanagar","","","null","Mon, Tues, Wed, Thur, Fri, Sat, Sun"
"406","SB-KRISHNANAGAR","","27, M.M. Ghosh St, Opp -Judge Court,Krishnanagar,Nadia,741101.","KRISHNANAGAR","WEST BENGAL","741101","India","0","0","7044055670","","","","0","null","1","","{""mon"":[""10:00 AM - 10:00 PM""],""tue"":[""10:00 AM - 10:00 PM""],""wed"":[""10:00 AM - 10:00 PM""],""thu"":[""10:00 AM - 10:00 PM""],""fri"":[""10:00 AM - 10:00 PM""],""sat"":[""10:00 AM - 10:00 PM""],""sun"":[""10:00 AM - 10:00 PM""]}","0","sb-krishnanagar-krishnanagar-1","","","null","Mon, Tues, Wed, Thur, Fri, Sat, Sun"
"407","SB-LAKHIMPUR","","D.K.Road,Opp-Vishal Mega Mart, North Lakhimpur, Assam","LAKHIMPUR","ASSAM","787001","India","0","0","6292125873","","","","0","null","1","","{""mon"":[""10:00 AM - 10:00 PM""],""tue"":[""10:00 AM - 10:00 PM""],""wed"":[""10:00 AM - 10:00 PM""],""thu"":[""10:00 AM - 10:00 PM""],""fri"":[""10:00 AM - 10:00 PM""],""sat"":[""10:00 AM - 10:00 PM""],""sun"":[""10:00 AM - 10:00 PM""]}","0","sb-lakhimpur-lakhimpur","","","null","Mon, Tues, Wed, Thur, Fri, Sat, Sun"
"408","SB-LAKHIMPUR KHERI","","Pramod Palace, Near Vikas Bhawan, Kheri Road, Lakhimpur Kheri, Uttar Pradesh","LAKHIMPUR KHERI","UTTAR PRADESH","262701","India","0","0","9831506088","","","","0","null","1","","{""mon"":[""10:00 AM - 10:00 PM""],""tue"":[""10:00 AM - 10:00 PM""],""wed"":[""10:00 AM - 10:00 PM""],""thu"":[""10:00 AM - 10:00 PM""],""fri"":[""10:00 AM - 10:00 PM""],""sat"":[""10:00 AM - 10:00 PM""],""sun"":[""10:00 AM - 10:00 PM""]}","0","sb-lakhimpur-kheri-lakhimpur-kheri","","","null","Mon, Tues, Wed, Thur, Fri, Sat, Sun"
"495","SB-MADHEPURA","","Near Atithi hotel Karpuri chowk Madhepura, Bihar","MADHEPURA","BIHAR","852113","India","25.9096952","86.7860893","9147375733","","","https://stylebaazar.in","0","null","1","","{""mon"":[""10:00 AM - 10:00 PM""],""tue"":[""10:00 AM - 10:00 PM""],""wed"":[""10:00 AM - 10:00 PM""],""thu"":[""10:00 AM - 10:00 PM""],""fri"":[""10:00 AM - 10:00 PM""],""sat"":[""10:00 AM - 10:00 PM""],""sun"":[""10:00 AM - 10:00 PM""]}","0","sb-madhepura-madhepura","","","null","Mon, Tues, Wed, Thur, Fri, Sat, Sun"
"487","SB-MAHARAJGUNJ","","GORAKHPUR ROAD, NEAR BALIA NALA PUL, MAHARAJGUNJ","MAHARAJGUNJ","UTTAR PRADESH","273303","India","27.0357192","83.6067835","9147078124","","","https://stylebaazar.in","0","null","1","","{""mon"":[""10:00 AM - 10:00 PM""],""tue"":[""10:00 AM - 10:00 PM""],""wed"":[""10:00 AM - 10:00 PM""],""thu"":[""10:00 AM - 10:00 PM""],""fri"":[""10:00 AM - 10:00 PM""],""sat"":[""10:00 AM - 10:00 PM""],""sun"":[""10:00 AM - 10:00 PM""]}","0","sb-maharajgunj-maharajgunj","","","null","Mon, Tues, Wed, Thur, Fri, Sat, Sun"
"409","SB-MALANCHA","","Basirhat Road, Malancha Bazar, West Bengal-743425","MALANCHA","WEST BENGAL","743425","India","0","0","6292125844","","","","0","null","1","","{""mon"":[""10:00 AM - 10:00 PM""],""tue"":[""10:00 AM - 10:00 PM""],""wed"":[""10:00 AM - 10:00 PM""],""thu"":[""10:00 AM - 10:00 PM""],""fri"":[""10:00 AM - 10:00 PM""],""sat"":[""10:00 AM - 10:00 PM""],""sun"":[""10:00 AM - 10:00 PM""]}","0","sb-malancha-malancha","","","null","Mon, Tues, Wed, Thur, Fri, Sat, Sun"
"410","SB-MALBAZAR","","Subhas more,near rupsajja lodge,BDO office,735221","MALBAZAR","WEST BENGAL","735221","India","0","0","6292248592","","","","0","null","1","","{""mon"":[""10:00 AM - 10:00 PM""],""tue"":[""10:00 AM - 10:00 PM""],""wed"":[""10:00 AM - 10:00 PM""],""thu"":[""10:00 AM - 10:00 PM""],""fri"":[""10:00 AM - 10:00 PM""],""sat"":[""10:00 AM - 10:00 PM""],""sun"":[""10:00 AM - 10:00 PM""]}","0","sb-malbazar-malbazar","","","null","Mon, Tues, Wed, Thur, Fri, Sat, Sun"
"411","SB-MALDA","","Rabindra Avenue, English Bazaar, Near-Rabindranath Statue (Bus Stop- Rathbari)","MALDA","WEST BENGAL","732101","India","0","0","9073977190","","","","0","null","1","","{""mon"":[""10:00 AM - 10:00 PM""],""tue"":[""10:00 AM - 10:00 PM""],""wed"":[""10:00 AM - 10:00 PM""],""thu"":[""10:00 AM - 10:00 PM""],""fri"":[""10:00 AM - 10:00 PM""],""sat"":[""10:00 AM - 10:00 PM""],""sun"":[""10:00 AM - 10:00 PM""]}","0","sb-malda-malda","","","null","Mon, Tues, Wed, Thur, Fri, Sat, Sun"
"412","SB-MANGALDOI","","Hospital Road, Opposite Mangaldoi Govt. High School, Mangaldoi, Assam Pin-784125","MANGALDOI","ASSAM","784125","India","0","0","9147100675","","","","0","null","1","","{""mon"":[""10:00 AM - 10:00 PM""],""tue"":[""10:00 AM - 10:00 PM""],""wed"":[""10:00 AM - 10:00 PM""],""thu"":[""10:00 AM - 10:00 PM""],""fri"":[""10:00 AM - 10:00 PM""],""sat"":[""10:00 AM - 10:00 PM""],""sun"":[""10:00 AM - 10:00 PM""]}","0","sb-mangaldoi-mangaldoi","","","null","Mon, Tues, Wed, Thur, Fri, Sat, Sun"
"413","SB-MEMARI","","G.T. Road, Sri Durgapally, Near LIC Office, Memari, Pin- 713146","MEMARI","WEST BENGAL","713146","India","0","0","9147094456","","","","0","null","1","","{""mon"":[""10:00 AM - 10:00 PM""],""tue"":[""10:00 AM - 10:00 PM""],""wed"":[""10:00 AM - 10:00 PM""],""thu"":[""10:00 AM - 10:00 PM""],""fri"":[""10:00 AM - 10:00 PM""],""sat"":[""10:00 AM - 10:00 PM""],""sun"":[""10:00 AM - 10:00 PM""]}","0","sb-memari-memari","","","null","Mon, Tues, Wed, Thur, Fri, Sat, Sun"
"414","SB-METIABRUZ","","Bichali Ghat Road, opposite Garden Reach (1st Gate), Metiaburuz-700024","METIABRUZ","WEST BENGAL","700024","India","0","0","9147097160","","","","0","null","1","","{""mon"":[""10:00 AM - 10:00 PM""],""tue"":[""10:00 AM - 10:00 PM""],""wed"":[""10:00 AM - 10:00 PM""],""thu"":[""10:00 AM - 10:00 PM""],""fri"":[""10:00 AM - 10:00 PM""],""sat"":[""10:00 AM - 10:00 PM""],""sun"":[""10:00 AM - 10:00 PM""]}","0","sb-metiabruz-metiabruz","","","null","Mon, Tues, Wed, Thur, Fri, Sat, Sun"
"415","SB-MOTIHARI","","R J Plaza, Janpul Chowk, Motihari, Bihar","MOTIHARI","BIHAR","845401","India","0","0","8335075327","","","","0","null","1","","{""mon"":[""10:00 AM - 10:00 PM""],""tue"":[""10:00 AM - 10:00 PM""],""wed"":[""10:00 AM - 10:00 PM""],""thu"":[""10:00 AM - 10:00 PM""],""fri"":[""10:00 AM - 10:00 PM""],""sat"":[""10:00 AM - 10:00 PM""],""sun"":[""10:00 AM - 10:00 PM""]}","0","sb-motihari-motihari","","","null","Mon, Tues, Wed, Thur, Fri, Sat, Sun"
"416","SB-NAGAON","","A.T.Road,Shree Smita Commercial Complex Itachali, Opp. Caltax Petrol Pump,Nagaon, 782003.","NAGAON","ASSAM","782003","India","0","0","9051015762","","","","0","null","1","","{""mon"":[""10:00 AM - 10:00 PM""],""tue"":[""10:00 AM - 10:00 PM""],""wed"":[""10:00 AM - 10:00 PM""],""thu"":[""10:00 AM - 10:00 PM""],""fri"":[""10:00 AM - 10:00 PM""],""sat"":[""10:00 AM - 10:00 PM""],""sun"":[""10:00 AM - 10:00 PM""]}","0","sb-nagaon-nagaon","","","null","Mon, Tues, Wed, Thur, Fri, Sat, Sun"
"339","SB-NAIHATI","","Rc Mall, Thakur Para Road, Naihati Hawkers Market","NAIHATI","WEST BENGAL","743165","India","0","0","7605009276","","","","0","null","1","","{""mon"":[""10:00 AM - 10:00 PM""],""tue"":[""10:00 AM - 10:00 PM""],""wed"":[""10:00 AM - 10:00 PM""],""thu"":[""10:00 AM - 10:00 PM""],""fri"":[""10:00 AM - 10:00 PM""],""sat"":[""10:00 AM - 10:00 PM""],""sun"":[""10:00 AM - 10:00 PM""]}","0","sb-naihati-naihati","","","null","Mon, Tues, Wed, Thur, Fri, Sat, Sun"
"417","SB-NALBARI","","Ward No 6,N T Road,Nalbari,Near To Jain Mandir,Assam-781335","NALBARI","ASSAM","781335","India","0","0","7605009263","","","","0","null","1","","{""mon"":[""10:00 AM - 10:00 PM""],""tue"":[""10:00 AM - 10:00 PM""],""wed"":[""10:00 AM - 10:00 PM""],""thu"":[""10:00 AM - 10:00 PM""],""fri"":[""10:00 AM - 10:00 PM""],""sat"":[""10:00 AM - 10:00 PM""],""sun"":[""10:00 AM - 10:00 PM""]}","0","sb-nalbari-nalbari","","","null","Mon, Tues, Wed, Thur, Fri, Sat, Sun"
"471","SB-NALHATI","","Station Road,Opposite Uco Bank, Nalhati,Birbhum,West Bengal","NALHATI","WEST BENGAL","731220","India","0","0","9073637768","","","","0","null","1","","{""mon"":[""10:00 PM - 06:30 PM""],""tue"":[""10:00 AM - 10:00 PM""],""wed"":[""10:00 AM - 10:00 PM""],""thu"":[""10:00 AM - 10:00 PM""],""fri"":[""10:00 AM - 10:00 PM""],""sat"":[""10:00 AM - 10:00 PM""],""sun"":[""10:00 AM - 10:00 PM""]}","0","sb-nalhati-nalhati","","","null","Mon, Tues, Wed, Thur, Fri, Sat, Sun"
"418","SB-NARASANNAPETA","","Sridevi Nagar, Near Rtc Bus Stand, Narasannapeta, Andhra Pradesh","NARASANNAPETA","ANDHRA PRADESH","532421","India","0","0","9147097164","","","","0","null","1","","{""mon"":[""10:00 AM - 10:00 PM""],""tue"":[""10:00 AM - 10:00 PM""],""wed"":[""10:00 AM - 10:00 PM""],""thu"":[""10:00 AM - 10:00 PM""],""fri"":[""10:00 AM - 10:00 PM""],""sat"":[""10:00 AM - 10:00 PM""],""sun"":[""09:30 AM - 06:30 PM""]}","0","sb-narasannapeta-narasannapeta","","","null","Mon, Tues, Wed, Thur, Fri, Sat, Sun"
"461","SB-NAWADA","","Gaya Road, Near Indian Bank, Par Nawada","NAWADA","BIHAR","805110","India","0","0","9147095637","","","","0","null","1","","{""mon"":[""10:00 AM - 10:00 PM""],""tue"":[""10:00 AM - 10:00 PM""],""wed"":[""10:00 AM - 10:00 PM""],""thu"":[""10:00 AM - 10:00 PM""],""fri"":[""10:00 AM - 10:00 PM""],""sat"":[""10:00 AM - 10:00 PM""],""sun"":[""10:00 AM - 10:00 PM""]}","0","sb-nawada-nawada","","","null","Mon, Tues, Wed, Thur, Fri, Sat, Sun"
"419","SB-NAYAGARH","","Radhakrishna Cinemax, Near Adb Sbi Branch, Khandapada Road, Nayagarh","NAYAGARH","ODISHA","752069","India","0","0","9073362513","","","","0","null","1","","{""mon"":[""10:00 AM - 10:00 PM""],""tue"":[""10:00 AM - 10:00 PM""],""wed"":[""10:00 AM - 10:00 PM""],""thu"":[""10:00 AM - 10:00 PM""],""fri"":[""10:00 AM - 10:00 PM""],""sat"":[""10:00 AM - 10:00 PM""],""sun"":[""10:00 AM - 10:00 PM""]}","0","sb-nayagarh-nayagarh","","","null","Mon, Tues, Wed, Thur, Fri, Sat, Sun"
"420","SB-NIMAPARA","","Old Bus Stand, Opp Taxi Stand, Nimapada, Odisha, Pin – 752106","NIMAPARA","ODISHA","752106","India","0","0","9147094453","","","","0","null","1","","{""mon"":[""10:00 AM - 10:00 PM""],""tue"":[""10:00 AM - 10:00 PM""],""wed"":[""10:00 AM - 10:00 PM""],""thu"":[""10:00 AM - 10:00 PM""],""fri"":[""10:00 AM - 10:00 PM""],""sat"":[""10:00 AM - 10:00 PM""],""sun"":[""10:00 AM - 10:00 PM""]}","0","sb-nimapara-nimapara","","","null","Mon, Tues, Wed, Thur, Fri, Sat, Sun"
"421","SB-NORTH BONGAIGAON","","Chapaguri Road,Ward No 8,Near Baraf Mill,North Bongaigaon,Assam-783380","NORTH BONGAIGAON","ASSAM","783380","India","0","0","7596036667","","","","0","null","1","","{""mon"":[""10:00 AM - 10:00 PM""],""tue"":[""10:00 AM - 10:00 PM""],""wed"":[""10:00 AM - 10:00 PM""],""thu"":[""10:00 AM - 10:00 PM""],""fri"":[""10:00 AM - 10:00 PM""],""sat"":[""10:00 AM - 10:00 PM""],""sun"":[""10:00 AM - 10:00 PM""]}","0","sb-north-bongaigaon-north-bongaigaon","","","null","Mon, Tues, Wed, Thur, Fri, Sat, Sun"
"422","SB-PAKUAHAT","","Beside Pakuahat Bdo Office, Pakuahat, West Bengal","PAKUAHAT","WEST BENGAL","732138","India","0","0","9147100678","","","","0","null","1","","{""mon"":[""10:00 AM - 10:00 PM""],""tue"":[""10:00 AM - 10:00 PM""],""wed"":[""10:00 AM - 10:00 PM""],""thu"":[""10:00 AM - 10:00 PM""],""fri"":[""10:00 AM - 10:00 PM""],""sat"":[""10:00 AM - 10:00 PM""],""sun"":[""10:00 AM - 10:00 PM""]}","0","sb-pakuahat-pakuahat","","","null","Mon, Tues, Wed, Thur, Fri, Sat, Sun"
"423","SB-PAKUR","","Main Road, Opp-Bank Colony, Pakur,Jharkhand ,816107.","PAKUR","JHARKHAND","816107","India","0","0","8336943890","","","","0","null","1","","{""mon"":[""10:00 AM - 10:00 PM""],""tue"":[""10:00 AM - 10:00 PM""],""wed"":[""10:00 AM - 10:00 PM""],""thu"":[""10:00 AM - 10:00 PM""],""fri"":[""10:00 AM - 10:00 PM""],""sat"":[""10:00 AM - 10:00 PM""],""sun"":[""10:00 AM - 10:00 PM""]}","0","sb-pakur-pakur","","","null","Mon, Tues, Wed, Thur, Fri, Sat, Sun"
"458","SB-PALASA","","K.T. Main Road, Opp. S.V. Max Theatre, Palasa","PALASA","ANDHRA PRADESH","532221","India","0","0","9147095636","","","","0","null","1","","{""mon"":[""10:00 AM - 10:00 PM""],""tue"":[""10:00 AM - 10:00 PM""],""wed"":[""10:00 AM - 10:00 PM""],""thu"":[""10:00 AM - 10:00 PM""],""fri"":[""10:00 AM - 10:00 PM""],""sat"":[""10:00 AM - 10:00 PM""],""sun"":[""10:00 AM - 10:00 PM""]}","0","sb-palasa-palasa","","","null","Mon, Tues, Wed, Thur, Fri, Sat, Sun"
"424","SB-PANDUA","","Station Road,Near B.D.O Office,Pandua ,West Bengal","PANDUA","WEST BENGAL","712149","India","0","0","8420120637","","","","0","null","1","","{""mon"":[""10:00 AM - 10:00 PM""],""tue"":[""10:00 AM - 10:00 PM""],""wed"":[""10:00 AM - 10:00 PM""],""thu"":[""10:00 AM - 10:00 PM""],""fri"":[""10:00 AM - 10:00 PM""],""sat"":[""10:00 AM - 10:00 PM""],""sun"":[""10:00 AM - 10:00 PM""]}","0","sb-pandua-pandua","","","null","Mon, Tues, Wed, Thur, Fri, Sat, Sun"
"477","SB-PARADEEP","","Udaya Vihar, Near Furniture Plaza, Paradeep, Odisha","PARADEEP","ODISHA","754141","India","0","0","9147071276","","","","0","null","1","","{""mon"":[""10:00 AM - 10:00 PM""],""tue"":[""10:00 AM - 10:00 PM""],""wed"":[""10:00 AM - 10:00 PM""],""thu"":[""10:00 AM - 10:00 PM""],""fri"":[""10:00 AM - 10:00 PM""],""sat"":[""10:00 AM - 10:00 PM""],""sun"":[""10:00 AM - 10:00 PM""]}","0","sb-paradeep-paradeep","","","null","Mon, Tues, Wed, Thur, Fri, Sat, Sun"
"511","SB-PARADEEP","","UDAYA VIHAR, Near Furniture Plaza, Paradeep, Odisha 754141","PARADEEP","ODISHA","754141","India","20.3071334","86.63343359999999","9147071276","","","https://stylebaazar.in","0","null","1","","{""mon"":[""10:00 AM - 10:00 PM""],""tue"":[""10:00 AM - 10:00 PM""],""wed"":[""10:00 AM - 10:00 PM""],""thu"":[""10:00 AM - 10:00 PM""],""fri"":[""10:00 AM - 10:00 PM""],""sat"":[""10:00 AM - 10:00 PM""],""sun"":[""10:00 AM - 10:00 PM""]}","0","sb-paradeep-paradeep-1","null","null","null","Mon, Tues, Wed, Thur, Fri, Sat, Sun"
"425","SB-PARALAKHEMUNDI","","SK Cinemax, Main Road, Paralakhemundi, Pin-761200","PARALAKHEMUNDI","ODISHA","761200","India","0","0","9147100676","","","","0","null","1","","{""mon"":[""10:00 AM - 10:00 PM""],""tue"":[""10:00 AM - 10:00 PM""],""wed"":[""10:00 AM - 10:00 PM""],""thu"":[""10:00 AM - 10:00 PM""],""fri"":[""10:00 AM - 10:00 PM""],""sat"":[""10:00 AM - 10:00 PM""],""sun"":[""10:00 AM - 10:00 PM""]}","0","sb-paralakhemundi-paralakhemundi","","","null","Mon, Tues, Wed, Thur, Fri, Sat, Sun"
"426","SB-PARVATHIPURAM","","Bela Gram Main Road,Corporation Bank Building, Andhara Pardesh","PARVATHIPURAM","ANDHRA PRADESH","535501","India","0","0","8334973332","","","","0","null","1","","{""mon"":[""10:00 AM - 10:00 PM""],""tue"":[""10:00 AM - 10:00 PM""],""wed"":[""10:00 AM - 10:00 PM""],""thu"":[""10:00 AM - 10:00 PM""],""fri"":[""10:00 AM - 10:00 PM""],""sat"":[""10:00 AM - 10:00 PM""],""sun"":[""10:00 AM - 10:00 PM""]}","0","sb-parvathipuram-parvathipuram","","","null","Mon, Tues, Wed, Thur, Fri, Sat, Sun"
"427","SB-PATHSALA","","Station road, opposite Bhagabati Khetra, Pathsala, Assam - 781325","PATHSALA","ASSAM","781325","India","0","0","9147097168","","","","0","null","1","","{""mon"":[""10:00 AM - 10:00 PM""],""tue"":[""10:00 AM - 10:00 PM""],""wed"":[""10:00 AM - 10:00 PM""],""thu"":[""10:00 AM - 10:00 PM""],""fri"":[""10:00 AM - 10:00 PM""],""sat"":[""10:00 AM - 10:00 PM""],""sun"":[""10:00 AM - 10:00 PM""]}","0","sb-pathsala-pathsala","","","null","Mon, Tues, Wed, Thur, Fri, Sat, Sun"
"428","SB-PATNA (03)","","Kumar Complex Pillar-13,Near Khajpura Shiv Mandir,Patna,Bihar","PATNA (03)","BIHAR","800014","India","0","0","6292127043","","","","0","null","1","","{""mon"":[""10:00 AM - 10:00 PM""],""tue"":[""10:00 AM - 10:00 PM""],""wed"":[""10:00 AM - 10:00 PM""],""thu"":[""10:00 AM - 10:00 PM""],""fri"":[""10:00 AM - 10:00 PM""],""sat"":[""10:00 AM - 10:00 PM""],""sun"":[""10:00 AM - 10:00 PM""]}","0","sb-patna-03-patna-03","","","null","Mon, Tues, Wed, Thur, Fri, Sat, Sun"
"429","SB-PATNA (04)","","Imperial Arcade,Sampatchak,Naharpar,Patna","PATNA (04)","BIHAR","800007","India","0","0","6292127044","","","","0","null","1","","{""mon"":[""10:00 AM - 10:00 PM""],""tue"":[""10:00 AM - 10:00 PM""],""wed"":[""10:00 AM - 10:00 PM""],""thu"":[""10:00 AM - 10:00 PM""],""fri"":[""10:00 AM - 10:00 PM""],""sat"":[""10:00 AM - 10:00 PM""],""sun"":[""10:00 AM - 10:00 PM""]}","0","sb-patna-04-patna-04","","","null","Mon, Tues, Wed, Thur, Fri, Sat, Sun"
"430","SB-PIRO","","New Bus Stand,Opposite - Bank Of Boroda,Piro,Bihar-802207","PIRO","BIHAR","802207","India","0","0","9007264564","","","","0","null","1","","{""mon"":[""10:00 AM - 10:00 PM""],""tue"":[""10:00 AM - 10:00 PM""],""wed"":[""10:00 AM - 10:00 PM""],""thu"":[""10:00 AM - 10:00 PM""],""fri"":[""10:00 AM - 10:00 PM""],""sat"":[""10:00 AM - 10:00 PM""],""sun"":[""10:00 AM - 10:00 PM""]}","0","sb-piro-piro","","","null","Mon, Tues, Wed, Thur, Fri, Sat, Sun"
"431","SB-PRAYAGRAJ","","Gt Road,Labour Chourahe, New Police Station, Dhumanganj","PRAYAGRAJ","UTTAR PRADESH","211011","India","0","0","9147095639","","","","0","null","1","","{""mon"":[""10:00 AM - 10:00 PM""],""tue"":[""10:00 AM - 10:00 PM""],""wed"":[""10:00 AM - 10:00 PM""],""thu"":[""10:00 AM - 10:00 PM""],""fri"":[""10:00 AM - 10:00 PM""],""sat"":[""10:00 AM - 10:00 PM""],""sun"":[""10:00 AM - 10:00 PM""]}","0","sb-prayagraj-prayagraj","","","null","Mon, Tues, Wed, Thur, Fri, Sat, Sun"
"488","SB-PRAYAGRAJ (01)","","GT Road,Labour Chourahe, New Police Station, Dhumanganj","PRAYAGRAJ","UTTAR PRADESH","211011","India","25.4492285","81.7792208","9147095639","","","https://stylebaazar.in","0","null","1","","{""mon"":[""10:00 AM - 10:00 PM""],""tue"":[""10:00 AM - 10:00 PM""],""wed"":[""10:00 AM - 10:00 PM""],""thu"":[""10:00 AM - 10:00 PM""],""fri"":[""10:00 AM - 10:00 PM""],""sat"":[""10:00 AM - 10:00 PM""],""sun"":[""10:00 AM - 10:00 PM""]}","0","sb-prayagraj-01-prayagraj","","","null","Mon, Tues, Wed, Thur, Fri, Sat, Sun"
"432","SB-PUPRI","","Madhubani Road, Near Madhubani Bus Stand,Pupri, District-Sitamarhi, 843320.","PUPRI","BIHAR","843320","India","0","0","8017002365","","","","0","null","1","","{""mon"":[""10:00 AM - 10:00 PM""],""tue"":[""10:00 AM - 10:00 PM""],""wed"":[""10:00 AM - 10:00 PM""],""thu"":[""10:00 AM - 10:00 PM""],""fri"":[""10:00 AM - 10:00 PM""],""sat"":[""10:00 AM - 10:00 PM""],""sun"":[""10:00 AM - 10:00 PM""]}","0","sb-pupri-pupri","","","null","Mon, Tues, Wed, Thur, Fri, Sat, Sun"
"433","SB-RAEBARELI","","Kutchery Road, Opposite Icici Bank, Raebareli, Uttar Pradesh","RAEBARELI","UTTAR PRADESH","229001","India","0","0","9073339220","","","","0","null","1","","{""mon"":[""10:00 AM - 10:00 PM""],""tue"":[""10:00 AM - 10:00 PM""],""wed"":[""10:00 AM - 10:00 PM""],""thu"":[""10:00 AM - 10:00 PM""],""fri"":[""10:00 AM - 10:00 PM""],""sat"":[""10:00 AM - 10:00 PM""],""sun"":[""10:00 AM - 10:00 PM""]}","0","sb-raebareli-raebareli","","","null","Mon, Tues, Wed, Thur, Fri, Sat, Sun"
"434","SB-RAGHUNATHGANJ","","Mackinze Park Road,Hospital Gate No - 2 , Raghunathganj,West bengal","RAGHUNATHGANJ","WEST BENGAL","742225","India","0","0","6292125874","","","","0","null","1","","{""mon"":[""10:00 AM - 10:00 PM""],""tue"":[""10:00 AM - 10:00 PM""],""wed"":[""10:00 AM - 10:00 PM""],""thu"":[""10:00 AM - 10:00 PM""],""fri"":[""10:00 AM - 10:00 PM""],""sat"":[""10:00 AM - 10:00 PM""],""sun"":[""10:00 AM - 10:00 PM""]}","0","sb-raghunathganj-raghunathganj","","","null","Mon, Tues, Wed, Thur, Fri, Sat, Sun"
"435","SB-RAHAMA","","Talapada, In Front Of Sarala Hero Showroom, Rahama, Odisha","RAHAMA","ODISHA","754160","India","0","0","9147087090","","","","0","null","1","","{""mon"":[""10:00 AM - 10:00 PM""],""tue"":[""10:00 AM - 10:00 PM""],""wed"":[""10:00 AM - 10:00 PM""],""thu"":[""10:00 AM - 10:00 PM""],""fri"":[""10:00 AM - 10:00 PM""],""sat"":[""10:00 AM - 10:00 PM""],""sun"":[""10:00 AM - 10:00 PM""]}","0","sb-rahama-rahama","","","null","Mon, Tues, Wed, Thur, Fri, Sat, Sun"
"436","SB-RAIGANJ","","Dehoshree More, N.S.Road,Raiganj,Near-Mohanbati,North Dinajpore","RAIGANJ","WEST BENGAL","733134","India","0","0","9073977191","","","","0","null","1","","{""mon"":[""10:00 AM - 10:00 PM""],""tue"":[""10:00 AM - 10:00 PM""],""wed"":[""10:00 AM - 10:00 PM""],""thu"":[""10:00 AM - 10:00 PM""],""fri"":[""10:00 AM - 10:00 PM""],""sat"":[""10:00 AM - 10:00 PM""],""sun"":[""10:00 AM - 10:00 PM""]}","0","sb-raiganj-raiganj","","","null","Mon, Tues, Wed, Thur, Fri, Sat, Sun"
"437","SB-RAIGARH","","Alok City Mall, Near Subhash Chowk, Station Road Raigarh, Chhattisgarh","RAIGARH","CHHATTISGARH","496001","India","0","0","9147097162","","","","0","null","1","","{""mon"":[""10:00 AM - 10:00 PM""],""tue"":[""10:00 AM - 10:00 PM""],""wed"":[""10:00 AM - 10:00 PM""],""thu"":[""10:00 AM - 10:00 PM""],""fri"":[""10:00 AM - 10:00 PM""],""sat"":[""10:00 AM - 10:00 PM""],""sun"":[""10:00 AM - 10:00 PM""]}","0","sb-raigarh-raigarh","","","null","Mon, Tues, Wed, Thur, Fri, Sat, Sun"
"439","SB-RAJAM","","Palakonda Road, Opp Apsara Theatre Hall , Rajam","RAJAM","ANDHRA PRADESH","532127","India","0","0","9147097165","","","","0","null","1","","{""mon"":[""10:00 AM - 10:00 PM""],""tue"":[""10:00 AM - 10:00 PM""],""wed"":[""10:00 AM - 10:00 PM""],""thu"":[""10:00 AM - 10:00 PM""],""fri"":[""10:00 AM - 10:00 PM""],""sat"":[""10:00 AM - 10:00 PM""],""sun"":[""10:00 AM - 10:00 PM""]}","0","sb-rajam-rajam","","","null","Mon, Tues, Wed, Thur, Fri, Sat, Sun"
"440","SB-RAMGARH","","Gola Road, Chatti Bazar, Beside Govt. Basic School , Ramgarh","RAMGARH","JHARKHAND","829122","India","0","0","7603006282","","","","0","null","1","","{""mon"":[""10:00 AM - 10:00 PM""],""tue"":[""10:00 AM - 10:00 PM""],""wed"":[""10:00 AM - 10:00 PM""],""thu"":[""10:00 AM - 10:00 PM""],""fri"":[""10:00 AM - 10:00 PM""],""sat"":[""10:00 AM - 10:00 PM""],""sun"":[""10:00 AM - 10:00 PM""]}","0","sb-ramgarh-ramgarh","","","null","Mon, Tues, Wed, Thur, Fri, Sat, Sun"
"441","SB-RAMPUR HAT","","Deshbandhu Road,Hatatala, Near Rampurhat Court, Rampurhat, West Bengal","RAMPUR HAT","WEST BENGAL","731324","India","0","0","9073341782","","","","0","null","1","","{""mon"":[""10:00 AM - 10:00 PM""],""tue"":[""10:00 AM - 10:00 PM""],""wed"":[""10:00 AM - 10:00 PM""],""thu"":[""10:00 AM - 10:00 PM""],""fri"":[""10:00 AM - 10:00 PM""],""sat"":[""10:00 AM - 10:00 PM""],""sun"":[""10:00 AM - 10:00 PM""]}","0","sb-rampur-hat-rampur-hat","","","null","Mon, Tues, Wed, Thur, Fri, Sat, Sun"
"442","SB-RANAGHAT","","G.N.P.C Road, Beside Head Post Office, Ranaghat","RANAGHAT","WEST BENGAL","741201","India","0","0","9147005748","","","","0","null","1","","{""mon"":[""09:30 AM - 06:30 PM""],""tue"":[""09:30 AM - 06:30 PM""],""wed"":[""09:30 AM - 06:30 PM""],""thu"":[""09:30 AM - 06:30 PM""],""fri"":[""09:30 AM - 06:30 PM""],""sat"":[""09:30 AM - 06:30 PM""],""sun"":[""09:30 AM - 06:30 PM""]}","0","sb-ranaghat-ranaghat","","","null","Mon, Tues, Wed, Thur, Fri, Sat, Sun"
"443","SB-RANCHI","","Budhia Bulding,Main Road,Jharkhand,Ranchi","RANCHI","JHARKHAND","834008","India","0","0","7605009265","","","","0","null","1","","{""mon"":[""10:00 AM - 10:00 PM""],""tue"":[""10:00 AM - 10:00 PM""],""wed"":[""10:00 AM - 10:00 PM""],""thu"":[""10:00 AM - 10:00 PM""],""fri"":[""10:00 AM - 10:00 PM""],""sat"":[""10:00 AM - 10:00 PM""],""sun"":[""10:00 AM - 10:00 PM""]}","0","sb-ranchi-ranchi","","","null","Mon, Tues, Wed, Thur, Fri, Sat, Sun"
"464","SB-RANGIA","","RANGIA BHUTAN BUS STAND, RANGIA","RANGIA","ASSAM","781354","India","0","0","9147095635","","","","0","null","1","","{""mon"":[""10:00 AM - 10:00 PM""],""tue"":[""10:00 AM - 10:00 PM""],""wed"":[""10:00 AM - 10:00 PM""],""thu"":[""10:00 AM - 10:00 PM""],""fri"":[""10:00 AM - 10:00 PM""],""sat"":[""10:00 AM - 10:00 PM""],""sun"":[""10:00 AM - 10:00 PM""]}","0","sb-rangia-rangia","","","null","Mon, Tues, Wed, Thur, Fri, Sat, Sun"
"444","SB-RATUA","","Bus Stand,Chandana Gardens, Opposite Sbi Atm. Ratua, West Bengal","RATUA","WEST BENGAL","732205","India","0","0","9147100672","","","","0","null","1","","{""mon"":[""10:00 AM - 10:00 PM""],""tue"":[""10:00 AM - 10:00 PM""],""wed"":[""10:00 AM - 10:00 PM""],""thu"":[""10:00 AM - 10:00 PM""],""fri"":[""10:00 AM - 10:00 PM""],""sat"":[""10:00 AM - 10:00 PM""],""sun"":[""10:00 AM - 10:00 PM""]}","0","sb-ratua-ratua","","","null","Mon, Tues, Wed, Thur, Fri, Sat, Sun"
"445","SB-RAYAGADA","","Kapilas Road , Near Sbi Bank , Rayagada,Odisha","RAYAGADA","ODISHA","765001","India","0","0","7596026199","","","","0","null","1","","{""mon"":[""10:00 AM - 10:00 PM""],""tue"":[""10:00 AM - 10:00 PM""],""wed"":[""10:00 AM - 10:00 PM""],""thu"":[""10:00 AM - 10:00 PM""],""fri"":[""10:00 AM - 10:00 PM""],""sat"":[""10:00 AM - 10:00 PM""],""sun"":[""10:00 AM - 10:00 PM""]}","0","sb-rayagada-rayagada","","","null","Mon, Tues, Wed, Thur, Fri, Sat, Sun"
"438","SB-ROURKELA","","Kacheri Road,Krishna Plaza ,Rourkela,Odisha","ROURKELA","ODISHA","769001","India","0","0","7603006281","","","","0","null","1","","{""mon"":[""10:00 AM - 10:00 PM""],""tue"":[""10:00 AM - 10:00 PM""],""wed"":[""10:00 AM - 10:00 PM""],""thu"":[""10:00 AM - 10:00 PM""],""fri"":[""10:00 AM - 10:00 PM""],""sat"":[""10:00 AM - 10:00 PM""],""sun"":[""10:00 AM - 10:00 PM""]}","0","sb-rourkela-rourkela","","","null","Mon, Tues, Wed, Thur, Fri, Sat, Sun"
"537","SB-SAHEBGANJ","","KP TOWER, NEAR MIDDLE SCHOOL, MAIN ROAD, SAHEBGANJ - 843125","SAHEBGANJ","BIHAR","843125","India","26.2991183","84.931022","03361256125","","","https://stylebaazar.in","0","null","1","","{""mon"":[""10:00 AM - 10:00 PM""],""tue"":[""10:00 AM - 10:00 PM""],""wed"":[""10:00 AM - 10:00 PM""],""thu"":[""10:00 AM - 10:00 PM""],""fri"":[""10:00 AM - 10:00 PM""],""sat"":[""10:00 AM - 10:00 PM""],""sun"":[""10:00 AM - 10:00 PM""]}","0","sb-sahebganj-sahebganj","","","null","Mon, Tues, Wed, Thur, Fri, Sat, Sun"
"481","SB-SAHJANWA","","Maa Vaishnavi Complex ,Main Market, Near Baroda UP Bank , Sahjanwa","SAHJANWA","UTTAR PRADESH","273209","India","0","0","8336943891","","","","0","null","1","","{""mon"":[""10:00 AM - 10:00 PM""],""tue"":[""10:00 AM - 10:00 PM""],""wed"":[""10:00 AM - 10:00 PM""],""thu"":[""10:00 AM - 10:00 PM""],""fri"":[""10:00 AM - 10:00 PM""],""sat"":[""10:00 AM - 10:00 PM""],""sun"":[""10:00 AM - 10:00 PM""]}","0","sb-sahjanwa-sahjanwa","","","null","Mon, Tues, Wed, Thur, Fri, Sat, Sun"
"446","SB-SALKIA","","Piccadilly Point,(Axis Bank Building),68,Aurobindo Road,Opp-Sitaram Super Market,Salkia,Howrah","SALKIA","WEST BENGAL","711106","India","0","0","8584867409","","","","0","null","1","","{""mon"":[""10:00 AM - 10:00 PM""],""tue"":[""10:00 AM - 10:00 PM""],""wed"":[""10:00 AM - 10:00 PM""],""thu"":[""10:00 AM - 10:00 PM""],""fri"":[""10:00 AM - 10:00 PM""],""sat"":[""10:00 AM - 10:00 PM""],""sun"":[""10:00 AM - 10:00 PM""]}","0","sb-salkia-salkia","","","null","Mon, Tues, Wed, Thur, Fri, Sat, Sun"
"472","SB-SALKIA","","Piccadilly Point,(Axis Bank Building),68,Aurobindo Road,Opp-Sitaram Super Market,Salkia,Howrah","SALKIA","WEST BENGAL","711106","India","0","0","8584867409","","","","0","null","1","","{""mon"":[""10:00 AM - 10:00 PM""],""tue"":[""10:00 AM - 10:00 PM""],""wed"":[""10:00 AM - 10:00 PM""],""thu"":[""10:00 AM - 10:00 PM""],""fri"":[""10:00 AM - 10:00 PM""],""sat"":[""10:00 AM - 10:00 PM""],""sun"":[""10:00 AM - 10:00 PM""]}","0","sb-salkia-salkia-1","","","null","Mon, Tues, Wed, Thur, Fri, Sat, Sun"
"447","SB-SAMASTIPUR","","Ward No 19, Gola Road, Samastipur. Bihar","SAMASTIPUR","BIHAR","848101","India","0","0","7605009261","","","","0","null","1","","{""mon"":[""10:00 AM - 10:00 PM""],""tue"":[""10:00 AM - 10:00 PM""],""wed"":[""10:00 AM - 10:00 PM""],""thu"":[""10:00 AM - 10:00 PM""],""fri"":[""10:00 AM - 10:00 PM""],""sat"":[""10:00 AM - 10:00 PM""],""sun"":[""10:00 AM - 10:00 PM""]}","0","sb-samastipur-samastipur","","","null","Mon, Tues, Wed, Thur, Fri, Sat, Sun"
"448","SB-SAMBALPUR","","Laxmi Talkies Chowk,V.S.S Marg,Beside Chandramani Hotel","SAMBALPUR","ODISHA","768002","India","0","0","9073637767","","","","0","null","1","","{""mon"":[""10:00 AM - 10:00 PM""],""tue"":[""10:00 AM - 10:00 PM""],""wed"":[""10:00 AM - 10:00 PM""],""thu"":[""10:00 AM - 10:00 PM""],""fri"":[""10:00 AM - 10:00 PM""],""sat"":[""10:00 AM - 10:00 PM""],""sun"":[""10:00 AM - 10:00 PM""]}","0","sb-sambalpur-sambalpur","","","null","Mon, Tues, Wed, Thur, Fri, Sat, Sun"
"499","SB-SAMBALPUR","","BUDHARAJA RD, SAHAYOG NAGAR, NEAR TANISHQ SHOWROOM, SAMBALPUR- 768004","SAMBALPUR","ODISHA","768004","India","21.4841353","83.9820232","9147372812","","","https://stylebaazar.in","0","null","1","","{""mon"":[""10:00 AM - 10:00 PM""],""tue"":[""10:00 AM - 10:00 PM""],""wed"":[""10:00 AM - 10:00 PM""],""thu"":[""10:00 AM - 10:00 PM""],""fri"":[""10:00 AM - 10:00 PM""],""sat"":[""10:00 AM - 10:00 PM""],""sun"":[""10:00 AM - 10:00 PM""]}","0","sb-sambalpur-sambalpur-1","","","11","Mon, Tues, Wed, Thur, Fri, Sat, Sun"
"480","SB-SERAMPORE","","55, K.M. Shah Road Beside Punjab & Sind Bank. Serampore","SERAMPORE","WEST BENGAL","712201","India","0","0","9147071278","","","","0","null","1","","{""mon"":[""10:00 AM - 10:00 PM""],""tue"":[""10:00 AM - 10:00 PM""],""wed"":[""10:00 AM - 10:00 PM""],""thu"":[""10:00 AM - 10:00 PM""],""fri"":[""10:00 AM - 10:00 PM""],""sat"":[""10:00 AM - 10:00 PM""],""sun"":[""10:00 AM - 10:00 PM""]}","0","sb-serampore-serampore","","","null","Mon, Tues, Wed, Thur, Fri, Sat, Sun"
"449","SB-SIBSAGAR","","G.N.G Road,Near A.S.T.C Bus Stand,","SIBSAGAR","ASSAM","785640","India","0","0","9051015844","","","","0","null","1","","{""mon"":[""10:00 AM - 10:00 PM""],""tue"":[""10:00 AM - 10:00 PM""],""wed"":[""10:00 AM - 10:00 PM""],""thu"":[""10:00 AM - 10:00 PM""],""fri"":[""10:00 AM - 10:00 PM""],""sat"":[""10:00 AM - 10:00 PM""],""sun"":[""10:00 AM - 10:00 PM""]}","0","sb-sibsagar-sibsagar","","","null","Mon, Tues, Wed, Thur, Fri, Sat, Sun"
"465","SB-SILCHAR","","INDIA CLUB TARAPUR ROAD, OPP LAW COLLEGE. SILCHAR","SILCHAR","ASSAM","788003","India","0","0","9147071273","","","","0","null","1","","{""mon"":[""10:00 AM - 10:00 PM""],""tue"":[""10:00 AM - 10:00 PM""],""wed"":[""10:00 AM - 10:00 PM""],""thu"":[""10:00 AM - 10:00 PM""],""fri"":[""10:00 AM - 10:00 PM""],""sat"":[""10:00 AM - 10:00 PM""],""sun"":[""10:00 AM - 10:00 PM""]}","0","sb-silchar-silchar","","","null","Mon, Tues, Wed, Thur, Fri, Sat, Sun"
"486","SB-SINGUR","","Singur bazar ( mullick more), singur hooghly","SINGUR","WEST BENGAL","712409","India","22.8133812","88.2277948","9.19147E+11","","","https://stylebaazar.in","1","default.png","1","","{""mon"":[""10:00 AM - 10:00 PM""],""tue"":[""10:00 AM - 10:00 PM""],""wed"":[""10:00 AM - 10:00 PM""],""thu"":[""10:00 AM - 10:00 PM""],""fri"":[""10:00 AM - 10:00 PM""],""sat"":[""10:00 AM - 10:00 PM""],""sun"":[""10:00 AM - 10:00 PM""]}","0","sb-singur-singur","","","5,17","Mon, Tues, Wed, Thur, Fri, Sat, Sun"
"450","SB-SITAMARHI","","Dumra Road, Kargil Chowk, Near Bus Stand, Beside Hotel Kishore, District: Sitamarhi, Bihar","SITAMARHI","BIHAR","843302","India","0","0","9073341740","","","","0","null","1","","{""mon"":[""10:00 AM - 10:00 PM""],""tue"":[""10:00 AM - 10:00 PM""],""wed"":[""10:00 AM - 10:00 PM""],""thu"":[""10:00 AM - 10:00 PM""],""fri"":[""10:00 AM - 10:00 PM""],""sat"":[""10:00 AM - 10:00 PM""],""sun"":[""10:00 AM - 10:00 PM""]}","0","sb-sitamarhi-sitamarhi","","","null","Mon, Tues, Wed, Thur, Fri, Sat, Sun"
"451","SB-SIWAN","","Babunia Road, Star City Building ,Near Syndicate Bank, Siwan-","SIWAN","BIHAR","841226","India","0","0","6292145286","","","","0","null","1","","{""mon"":[""10:00 AM - 10:00 PM""],""tue"":[""10:00 AM - 10:00 PM""],""wed"":[""10:00 AM - 10:00 PM""],""thu"":[""10:00 AM - 10:00 PM""],""fri"":[""10:00 AM - 10:00 PM""],""sat"":[""10:00 AM - 10:00 PM""],""sun"":[""10:00 AM - 10:00 PM""]}","0","sb-siwan-siwan","","","null","Mon, Tues, Wed, Thur, Fri, Sat, Sun"
"452","SB-SODEPUR","","Station Road, Near Sbi Bank,Sodepur","SODEPUR","WEST BENGAL","700110","India","0","0","6292125843","","","","0","null","1","","{""mon"":[""10:00 AM - 10:00 PM""],""tue"":[""10:00 AM - 10:00 PM""],""wed"":[""10:00 AM - 10:00 PM""],""thu"":[""10:00 AM - 10:00 PM""],""fri"":[""10:00 AM - 10:00 PM""],""sat"":[""10:00 AM - 10:00 PM""],""sun"":[""10:00 AM - 10:00 PM""]}","0","sb-sodepur-sodepur","","","null","Mon, Tues, Wed, Thur, Fri, Sat, Sun"
"453","SB-SUNABEDA","","Opposite Semiliguda Bus Stand,Nandapur Road,Semiliguda","SUNABEDA","ODISHA","","India","0","0","6292248597","","","","0","null","1","","{""mon"":[""10:00 AM - 10:00 PM""],""tue"":[""10:00 AM - 10:00 PM""],""wed"":[""10:00 AM - 10:00 PM""],""thu"":[""10:00 AM - 10:00 PM""],""fri"":[""10:00 AM - 10:00 PM""],""sat"":[""10:00 AM - 10:00 PM""],""sun"":[""10:00 AM - 10:00 PM""]}","0","sb-sunabeda-sunabeda","","","null","Mon, Tues, Wed, Thur, Fri, Sat, Sun"
"454","SB-SURI","","C.R.Das Road, Suri, West Bengal","SURI","WEST BENGAL","731101","India","0","0","6292145379","","","","0","null","1","","{""mon"":[""10:00 AM - 10:00 PM""],""tue"":[""10:00 AM - 10:00 PM""],""wed"":[""10:00 AM - 10:00 PM""],""thu"":[""10:00 AM - 10:00 PM""],""fri"":[""10:00 AM - 10:00 PM""],""sat"":[""10:00 AM - 10:00 PM""],""sun"":[""10:00 AM - 10:00 PM""]}","0","sb-suri-suri","","","null","Mon, Tues, Wed, Thur, Fri, Sat, Sun"
"484","SB-TANGLA","","M.B. Road, opposite UCO bank, Tangla, Assam","TANGLA","ASSAM","784521","India","0","0","7605009323","","","","0","null","1","","{""mon"":[""09:30 AM - 06:30 PM""],""tue"":[""09:30 AM - 06:30 PM""],""wed"":[""09:30 AM - 06:30 PM""],""thu"":[""09:30 AM - 06:30 PM""],""fri"":[""09:30 AM - 06:30 PM""],""sat"":[""09:30 AM - 06:30 PM""],""sun"":[""09:30 AM - 06:30 PM""]}","0","sb-tangla-tangla","","","null","Mon, Tues, Wed, Thur, Fri, Sat, Sun"
"455","SB-TEZPUR","","M.B. Road, Opp: Eddgah Field, Tezpur","TEZPUR","ASSAM","784001","India","0","0","9073341749","","","","0","null","1","","{""mon"":[""10:00 AM - 10:00 PM""],""tue"":[""10:00 AM - 10:00 PM""],""wed"":[""10:00 AM - 10:00 PM""],""thu"":[""10:00 AM - 10:00 PM""],""fri"":[""10:00 AM - 10:00 PM""],""sat"":[""10:00 AM - 10:00 PM""],""sun"":[""10:00 AM - 10:00 PM""]}","0","sb-tezpur-tezpur","","","null","Mon, Tues, Wed, Thur, Fri, Sat, Sun"
"456","SB-TUFANGANJ","","Main Road, Tufan Ganj ,Near Raj Hotel Dist-Cooch Behar","TUFANGANJ","WEST BENGAL","736159","India","0","0","6293125842","","","","0","null","1","","{""mon"":[""10:00 AM - 10:00 PM""],""tue"":[""10:00 AM - 10:00 PM""],""wed"":[""10:00 AM - 10:00 PM""],""thu"":[""10:00 AM - 10:00 PM""],""fri"":[""10:00 AM - 10:00 PM""],""sat"":[""10:00 AM - 10:00 PM""],""sun"":[""10:00 AM - 10:00 PM""]}","0","sb-tufanganj-tufanganj","","","null","Mon, Tues, Wed, Thur, Fri, Sat, Sun"
"457","SB-UDAIPUR","","Central Road, Near Hdfc Bank, Udaipur, Gomati, Tripura","UDAIPUR","TRIPURA","799120","India","0","0","7605009266","","","","0","null","1","","{""mon"":[""10:00 AM - 10:00 PM""],""tue"":[""10:00 AM - 10:00 PM""],""wed"":[""10:00 AM - 10:00 PM""],""thu"":[""10:00 AM - 10:00 PM""],""fri"":[""10:00 AM - 10:00 PM""],""sat"":[""10:00 AM - 10:00 PM""],""sun"":[""10:00 AM - 10:00 PM""]}","0","sb-udaipur-udaipur","","","null","Mon, Tues, Wed, Thur, Fri, Sat, Sun"
"459","SB-ULUBERIA","","O.T. Road, Nona, Near Central Bank, Uluberia","ULUBERIA","WEST BENGAL","711316","India","0","0","9147095634","","","","0","null","1","","{""mon"":[""10:00 AM - 10:00 PM""],""tue"":[""10:00 AM - 10:00 PM""],""wed"":[""10:00 AM - 10:00 PM""],""thu"":[""10:00 AM - 10:00 PM""],""fri"":[""10:00 AM - 10:00 PM""],""sat"":[""10:00 AM - 10:00 PM""],""sun"":[""10:00 AM - 10:00 PM""]}","0","sb-uluberia-uluberia","","","null","Mon, Tues, Wed, Thur, Fri, Sat, Sun"
