"id","title","description","street","city","state","postal_code","country","lat","lng","phone","fax","email","website","logo_id","path","marker_id","description_2","open_hours","ordr","slug","brand","special","categories","days_str"
"126","V2 Retail Ltd. (HA10)","HA10","Aab Arcade, &#039;0 &#039;(Zero) Point, Tinali","Itanagar","Arunachal Pradesh","791111","India","27.1017374","93.6296897","6002809663 / 8759521202","","itanagar@v2kart.com","https://v2retail.com","2","v2-LOGO-5.png","1","","{""mon"":""0"",""tue"":""0"",""wed"":""0"",""thu"":""0"",""fri"":""0"",""sat"":""0"",""sun"":""0""}","0","v2-retail-ltd-ha10-itanagar","","","null",""
"69","V2 Retail Ltd. (HB05)","HB05","Maharaja Kameshwar Complex, Frazer Road","Patna","Bihar","800001","India","25.60654196","85.13754175","9155010280 / 8083858655","","patna@v2kart.com","https://v2retail.com","2","v2-LOGO-5.png","1","","{""mon"":""0"",""tue"":""0"",""wed"":""0"",""thu"":""0"",""fri"":""0"",""sat"":""0"",""sun"":""0""}","0","v2-retail-ltd-hb05-patna","","","null",""
"63","V2 Retail Ltd. (HB06)","HB06","New Krishna Road, Opposite Civil Line P.S., Town Gaya","Gaya","Bihar","823001","India","24.7924443","85.0024026","7277262754 / 9939129292","","gaya@v2kart.com","https://v2retail.com","2","v2-LOGO-5.png","1","","{""mon"":""0"",""tue"":""0"",""wed"":""0"",""thu"":""0"",""fri"":""0"",""sat"":""0"",""sun"":""0""}","0","v2-retail-ltd-hb06-gaya","","","null",""
"108","V2 Retail Ltd. (HB07)","HB07","RBSS Sahay Road, Kachahri Chowk","Bhagalpur","Bihar","812001","India","25.2497385","86.9892144","8539921879 / 8582011671","","bhagalpur@v2kart.com","https://v2retail.com","2","v2-LOGO-5.png","1","","{""mon"":""0"",""tue"":""0"",""wed"":""0"",""thu"":""0"",""fri"":""0"",""sat"":""0"",""sun"":""0""}","0","v2-retail-ltd-hb07-bhagalpur","","","null",""
"87","V2 Retail Ltd. (HB08)","HB08","Mirzapur Chowk, Station Road","Darbhanga","Bihar","846004","India","26.1524178","85.8989204","9835756431 / 8340200166","","darbhanga@v2kart.com","https://v2retail.com","2","v2-LOGO-5.png","1","","{""mon"":""0"",""tue"":""0"",""wed"":""0"",""thu"":""0"",""fri"":""0"",""sat"":""0"",""sun"":""0""}","0","v2-retail-ltd-hb08-darbhanga","","","null",""
"57","V2 Retail Ltd. (HB09)","HB09","Supriya Cinema Road, Betia (West)","Betia","Bihar","845438","India","26.8054241","84.511511","8789492347 / 8709667563","","bettiah@v2kart.com","https://v2retail.com","2","v2-LOGO-5.png","1","","{""mon"":""0"",""tue"":""0"",""wed"":""0"",""thu"":""0"",""fri"":""0"",""sat"":""0"",""sun"":""0""}","0","v2-retail-ltd-hb09-betia","","","null",""
"143","V2 Retail Ltd. (HB10)","HB10","Khesra Kasba, Jail Road, Arrah","Ara","Bihar","802301","India","25.469","84.5437","8521179642 / 9973626131","","arrah@v2kart.com","https://v2retail.com","2","v2-LOGO-5.png","1","","{""mon"":""0"",""tue"":""0"",""wed"":""0"",""thu"":""0"",""fri"":""0"",""sat"":""0"",""sun"":""0""}","0","v2-retail-ltd-hb10-ara","","","null",""
"111","V2 Retail Ltd. (HB11)","HB11","Subhash Nagar, Polytechnic Chowk","Purnia","Bihar","854301","India","25.7619053","87.4688928","8210522356 / 7766878418","","purnia@v2kart.com","https://v2retail.com","2","v2-LOGO-5.png","1","","{""mon"":""0"",""tue"":""0"",""wed"":""0"",""thu"":""0"",""fri"":""0"",""sat"":""0"",""sun"":""0""}","0","v2-retail-ltd-hb11-purnia","","","null",""
"142","V2 Retail Ltd. (HB13)","HB13","Gousala Road, Pakri More","Siwan","Bihar","841227","India","26.2008","84.4418","7903957119 / 7367813149","","siwan@v2kart.com","https://v2retail.com","2","v2-LOGO-5.png","1","","{""mon"":""0"",""tue"":""0"",""wed"":""0"",""thu"":""0"",""fri"":""0"",""sat"":""0"",""sun"":""0""}","0","v2-retail-ltd-hb13-siwan","","","null",""
"145","V2 Retail Ltd. (HB15)","HB15","Mohalla Bhainsasoor (Nala Road)","Bihar Sharif","Bihar","803101","India","25.1991186","85.5160441","9852314191 / 8540944625","","biharsharif@v2kart.com","https://v2retail.com","2","v2-LOGO-5.png","1","","{""mon"":""0"",""tue"":""0"",""wed"":""0"",""thu"":""0"",""fri"":""0"",""sat"":""0"",""sun"":""0""}","0","v2-retail-ltd-hb15-bihar-sharif","","","null",""
"76","V2 Retail Ltd. (HB16)","HB16","Badi Bazar, Talkhapur","Sitamarhi","Bihar","843302","India","26.5650282","85.5156531","9628242995 / 7352119447","","sitamarhi@v2kart.com","https://v2retail.com","2","v2-LOGO-5.png","1","","{""mon"":""0"",""tue"":""0"",""wed"":""0"",""thu"":""0"",""fri"":""0"",""sat"":""0"",""sun"":""0""}","0","v2-retail-ltd-hb16-sitamarhi","","","null",""
"61","V2 Retail Ltd. (HB17)","HB17","Janpur Road","Motihari","Bihar","845401","India","26.6619493","84.9126161","8882755043 / 9082976539","","motihari@v2kart.com","https://v2retail.com","2","v2-LOGO-5.png","1","","{""mon"":""0"",""tue"":""0"",""wed"":""0"",""thu"":""0"",""fri"":""0"",""sat"":""0"",""sun"":""0""}","0","v2-retail-ltd-hb17-motihari","","","null",""
"81","V2 Retail Ltd. (HB19)","HB19","Tajpur Road, Kashipur","Samstipur","Bihar","848101","India","25.8652279","85.776226","7779925413 / 7004398098","","samastipur@v2kart.com","https://v2retail.com","2","v2-LOGO-5.png","1","","{""mon"":""0"",""tue"":""0"",""wed"":""0"",""thu"":""0"",""fri"":""0"",""sat"":""0"",""sun"":""0""}","0","v2-retail-ltd-hb19-samstipur","","","null",""
"92","V2 Retail Ltd. (HB20)","HB20","Near Shadatt Market Traffic Chowk, Kacheri Road","Begusarai","Bihar","851101","India","25.421226","86.1360423","8298971669 / 9717562990","","begusarai3@v2kart.com","https://v2retail.com","2","v2-LOGO-5.png","1","","{""mon"":""0"",""tue"":""0"",""wed"":""0"",""thu"":""0"",""fri"":""0"",""sat"":""0"",""sun"":""0""}","0","v2-retail-ltd-hb20-begusarai","","","null",""
"98","V2 Retail Ltd. (HB21)","HB21","Mouza Saharsa, Purab Bazar","Sahrsa","Bihar","852201","India","25.8768699","86.6025813","7903647168 / 7903834162","","saharsa@v2kart.com","https://v2retail.com","2","v2-LOGO-5.png","1","","{""mon"":""0"",""tue"":""0"",""wed"":""0"",""thu"":""0"",""fri"":""0"",""sat"":""0"",""sun"":""0""}","0","v2-retail-ltd-hb21-sahrsa","","","null",""
"79","V2 Retail Ltd. (HB22)","HB22","Kazichack, Near Bank of India, Barh","Barh","Bihar","803213","India","25.4747111","85.706218","8873277055 / 9117310173","","barh@v2kart.com","https://v2retail.com","2","v2-LOGO-5.png","1","","{""mon"":""0"",""tue"":""0"",""wed"":""0"",""thu"":""0"",""fri"":""0"",""sat"":""0"",""sun"":""0""}","0","v2-retail-ltd-hb22-barh","","","null",""
"103","V2 Retail Ltd. (HB24)","HB24","Mauza Bogoria, Station Road, District Banka","Banka","Bihar","852131","India","24.8840997","86.9243684","9534892536 / 7654727758","","banka@v2kart.com","https://v2retail.com","2","v2-LOGO-5.png","1","","{""mon"":""0"",""tue"":""0"",""wed"":""0"",""thu"":""0"",""fri"":""0"",""sat"":""0"",""sun"":""0""}","0","v2-retail-ltd-hb24-banka","","","null",""
"56","V2 Retail Ltd. (HB26)","HB26","MG Road, Near IDBI Bank","Aurangabad","Bihar","824101","India","24.7503772","84.3660482","7004578993 / 8130280592","","aurangabad@v2kart.com","https://v2retail.com","2","v2-LOGO-5.png","1","","{""mon"":""0"",""tue"":""0"",""wed"":""0"",""thu"":""0"",""fri"":""0"",""sat"":""0"",""sun"":""0""}","0","v2-retail-ltd-hb26-aurangabad","","","null",""
"64","V2 Retail Ltd. (HB29)","HB29","Mauza, Saguna","Patna","Bihar","801503","India","25.6230131","85.0411223","8877416794 / 7739276828","","patna2@v2kart.com","https://v2retail.com","2","v2-LOGO-5.png","1","","{""mon"":""0"",""tue"":""0"",""wed"":""0"",""thu"":""0"",""fri"":""0"",""sat"":""0"",""sun"":""0""}","0","v2-retail-ltd-hb29-patna","","","null",""
"141","V2 Retail Ltd. (HB30)","HB30","Thawe - Bheria Road","Gopalganj","Bihar","841428","India","26.4612131","84.4366529","8789768152 / 9262827477","","gopalganj@v2kart.com","https://v2retail.com","2","v2-LOGO-5.png","1","","{""mon"":""0"",""tue"":""0"",""wed"":""0"",""thu"":""0"",""fri"":""0"",""sat"":""0"",""sun"":""0""}","0","v2-retail-ltd-hb30-gopalganj","","","null",""
"90","V2 Retail Ltd. (HB31)","HB31","Mauza - Cheskdeh","Madhubani","Bihar","847211","India","26.36036036","86.06637032","9572854746 / 9905275795","","madhubani@v2kart.com","https://v2retail.com","2","v2-LOGO-5.png","1","","{""mon"":""0"",""tue"":""0"",""wed"":""0"",""thu"":""0"",""fri"":""0"",""sat"":""0"",""sun"":""0""}","0","v2-retail-ltd-hb31-madhubani","","","null",""
"53","V2 Retail Ltd. (HB32)","HB32","Anandy Complex, G.T. Road, Sasaram","Sasaram","Bihar","821115","India","24.95467","84.0151317","9608373167 / 7004291279","","sasaram@v2kart.com","https://v2retail.com","2","v2-LOGO-5.png","1","","{""mon"":""0"",""tue"":""0"",""wed"":""0"",""thu"":""0"",""fri"":""0"",""sat"":""0"",""sun"":""0""}","0","v2-retail-ltd-hb32-sasaram","","","null",""
"66","V2 Retail Ltd. (HB34)","HB34","Saket Vihar, Bank of Baroda, Anishabad, Khagol Fulwari, Sareef","Patna","Bihar","800002","India","25.5821522","85.0852055","8789037589 / 9241675230","","patna3@v2kart.com","https://v2retail.com","2","v2-LOGO-5.png","1","","{""mon"":""0"",""tue"":""0"",""wed"":""0"",""thu"":""0"",""fri"":""0"",""sat"":""0"",""sun"":""0""}","0","v2-retail-ltd-hb34-patna","","","null",""
"144","V2 Retail Ltd. (HB35)","HB35","Dak Bangla Road, Near Prasad Petrol Pump, In Front of Ram Jaipal College","Chappra","Bihar","841301","India","25.7231","84.8277","9135254558 / 8178183673","","chapra2@v2kart.com","https://v2retail.com","2","v2-LOGO-5.png","1","","{""mon"":""0"",""tue"":""0"",""wed"":""0"",""thu"":""0"",""fri"":""0"",""sat"":""0"",""sun"":""0""}","0","v2-retail-ltd-hb35-chappra","","","null",""
"72","V2 Retail Ltd. (HB36)","HB36","Shop No. 01, Ground Floor and Upper Floor, Cine Krishna, Boobna Plaza, Campus Cinema Road, Hazipur, District Vaishali","Hajipur","Bihar","844101","India","25.6943606","85.2116663","9006726837 / 9570670353","","hajipur@v2kart.com","https://v2retail.com","2","v2-LOGO-5.png","1","","{""mon"":""0"",""tue"":""0"",""wed"":""0"",""thu"":""0"",""fri"":""0"",""sat"":""0"",""sun"":""0""}","0","v2-retail-ltd-hb36-hajipur","","","null",""
"68","V2 Retail Ltd. (HB37)","HB37","Kurjee Industrial Street Road, Radha Complex, Po Sadaquat Ashram, Ps Patliputra","Patna","Bihar","800010","India","25.6371759","85.1087369","8789108425 / 7319946212","","patna4@v2kart.com","https://v2retail.com","2","v2-LOGO-5.png","1","","{""mon"":""0"",""tue"":""0"",""wed"":""0"",""thu"":""0"",""fri"":""0"",""sat"":""0"",""sun"":""0""}","0","v2-retail-ltd-hb37-patna","","","null",""
"106","V2 Retail Ltd. (HB38)","HB38","Arun Tower, Nathnagar Road, Near Muslim Minority College","Bhagalpur","Bihar","812002","India","25.241271","86.962573","9716883199 / 6205314394","","bhagalpur2@v2kart.com","https://v2retail.com","2","v2-LOGO-5.png","1","","{""mon"":""0"",""tue"":""0"",""wed"":""0"",""thu"":""0"",""fri"":""0"",""sat"":""0"",""sun"":""0""}","0","v2-retail-ltd-hb38-bhagalpur","","","null",""
"55","V2 Retail Ltd. (HB39)","HB39","Ambedkar Chowk, Dehri, Rohtas","Dehri On Sone","Bihar","821307","India","24.905806","84.1770929","9472303104 / 8766258684","","dehrionsone@v2kart.com","https://v2retail.com","2","v2-LOGO-5.png","1","","{""mon"":""0"",""tue"":""0"",""wed"":""0"",""thu"":""0"",""fri"":""0"",""sat"":""0"",""sun"":""0""}","0","v2-retail-ltd-hb39-dehri-on-sone","","","null",""
"65","V2 Retail Ltd. (HB41)","HB41","Naya Tola, AIIMS Road, Phulwari Sharif","Patna","Bihar","801505","India","25.5750353","85.0636469","8789108425 / 9262827477","","patna5@v2kart.com","https://v2retail.com","2","v2-LOGO-5.png","1","","{""mon"":""0"",""tue"":""0"",""wed"":""0"",""thu"":""0"",""fri"":""0"",""sat"":""0"",""sun"":""0""}","0","v2-retail-ltd-hb41-patna","","","null",""
"70","V2 Retail Ltd. (HB43)","HB43","Arya Kumar Road, Near Dinkar Golamber, Mchhuatoli Road","Patna","Bihar","800004","India","25.6111256","85.1590885","8789176093","","machuatoli@v2kart.com","https://v2retail.com","2","v2-LOGO-5.png","1","","{""mon"":""0"",""tue"":""0"",""wed"":""0"",""thu"":""0"",""fri"":""0"",""sat"":""0"",""sun"":""0""}","0","v2-retail-ltd-hb43-patna","","","null",""
"96","V2 Retail Ltd. (HB44)","HB44","Main Road, Near Purab Sarai Masjid","Munger","Bihar","811202","India","25.374763","86.4808322","7352075255","","munger@v2kart.com","https://v2retail.com","2","v2-LOGO-5.png","1","","{""mon"":""0"",""tue"":""0"",""wed"":""0"",""thu"":""0"",""fri"":""0"",""sat"":""0"",""sun"":""0""}","0","v2-retail-ltd-hb44-munger","","","null",""
"71","V2 Retail Ltd. (HB45)","HB45","Sadikpur, Gulzarbagh Station Road, Opposite PMC East Gate","Patna","Bihar","800007","India","25.602207","85.206846","7352075255","","patnacity@v2kart.com","https://v2retail.com","2","v2-LOGO-5.png","1","","{""mon"":""0"",""tue"":""0"",""wed"":""0"",""thu"":""0"",""fri"":""0"",""sat"":""0"",""sun"":""0""}","0","v2-retail-ltd-hb45-patna","","","null",""
"62","V2 Retail Ltd. (HB48)","HB48","Court Area, PG Road, Horilganj","Jehanabad","Bihar","804408","India","25.2059473","84.9846783","7352075255","","jehanabad@v2kart.com","https://v2retail.com","2","v2-LOGO-5.png","1","","{""mon"":""0"",""tue"":""0"",""wed"":""0"",""thu"":""0"",""fri"":""0"",""sat"":""0"",""sun"":""0""}","0","v2-retail-ltd-hb48-jehanabad","","","null",""
"51","V2 Retail Ltd. (HB50)","HB50","Bhabua Mohania Road, Opposite Zila Mukhyalaya","Bhabua","Bihar","821101","India","25.0486412","83.61580658","7352075255","","bhabua@v2kart.com","https://v2retail.com","2","v2-LOGO-5.png","1","","{""mon"":""0"",""tue"":""0"",""wed"":""0"",""thu"":""0"",""fri"":""0"",""sat"":""0"",""sun"":""0""}","0","v2-retail-ltd-hb50-bhabua","","","null",""
"10","V2 Retail Ltd. (HD22)","HD22","Kapashera Village, Opposite Fun N Food Village","Delhi","Delhi","110037","India","28.5231629","77.0819133","9319478168 / 9718658519","","kapashera@v2kart.com","https://v2retail.com","2","v2-LOGO-5.png","1","","{""mon"":""0"",""tue"":""0"",""wed"":""0"",""thu"":""0"",""fri"":""0"",""sat"":""0"",""sun"":""0""}","0","v2-retail-ltd-hd22-delhi","","","null",""
"17","V2 Retail Ltd. (HD24)","HD24","F-397, Main Wazirabad Road, Bhajanpura","Delhi","Delhi","110094","India","28.6978429","77.3243176","8305106132 / 8920034022","","bhajanpura@v2kart.com","https://v2retail.com","2","v2-LOGO-5.png","1","","{""mon"":""0"",""tue"":""0"",""wed"":""0"",""thu"":""0"",""fri"":""0"",""sat"":""0"",""sun"":""0""}","0","v2-retail-ltd-hd24-delhi","","","null",""
"13","V2 Retail Ltd. (HD25)","HD25","House No. 880/804, Arya Samaj Road, Main Market, Ranibagh","Delhi","Delhi","110034","India","28.6861906","77.1291703","8178789728 / 8178789728","","ranibagh@v2kart.com","https://v2retail.com","2","v2-LOGO-5.png","1","","{""mon"":""0"",""tue"":""0"",""wed"":""0"",""thu"":""0"",""fri"":""0"",""sat"":""0"",""sun"":""0""}","0","v2-retail-ltd-hd25-delhi","","","null",""
"14","V2 Retail Ltd. (HD26)","HD26","Prakash House, In Front of Indian Overseas Bank, Near Small Red Light, Vasant Kunj Road","Delhi","Delhi","110037","India","28.5598377","77.1580803","7011922346 / 9289679159","","mahipalpur2@v2kart.com","https://v2retail.com","2","v2-LOGO-5.png","1","","{""mon"":""0"",""tue"":""0"",""wed"":""0"",""thu"":""0"",""fri"":""0"",""sat"":""0"",""sun"":""0""}","0","v2-retail-ltd-hd26-delhi","","","null",""
"133","V2 Retail Ltd. (HD30)","HD30","Mubarakpur Main Road, Prem Nagar, Kirari, Near Police Station","Delhi","Delhi","110086","India","28.7095","77.0621","9958016033","","kirari@v2kart.com","https://v2retail.com","2","v2-LOGO-5.png","1","","{""mon"":""0"",""tue"":""0"",""wed"":""0"",""thu"":""0"",""fri"":""0"",""sat"":""0"",""sun"":""0""}","0","v2-retail-ltd-hd30-delhi","","","null",""
"1","V2 Retail Ltd. (HG10)","HG10","Located in City of Panaji, Taluka and Sub District of Tiswadi","Panjim","Goa","403001","India","15.4988779","73.8735821","8088074124 / 7654010517","","goa@v2kart.com","https://v2retail.com","2","v2-LOGO-5.png","1","","{""mon"":""0"",""tue"":""0"",""wed"":""0"",""thu"":""0"",""fri"":""0"",""sat"":""0"",""sun"":""0""}","0","v2-retail-ltd-hg10-panjim","","","null",""
"2","V2 Retail Ltd. (HG11)","HG11","Z Square, Hira Talkies Theatre Complex, Pazwada","Bicholim","Goa","403504","India","15.5877649","73.9440501","9552418128 / 7517016372","","goa2@v2kart.com","https://v2retail.com","2","v2-LOGO-5.png","1","","{""mon"":""0"",""tue"":""0"",""wed"":""0"",""thu"":""0"",""fri"":""0"",""sat"":""0"",""sun"":""0""}","0","v2-retail-ltd-hg11-bicholim","","","null",""
"16","V2 Retail Ltd. (HH13)","HH13","NIT 1, Main Market St, Block C, Greenfields Colony","Faridabad","Haryana","121003","India","28.3813512","77.3020752","8565842777 / 7210005025","","faridabad2@v2kart.com","https://v2retail.com","2","v2-LOGO-5.png","1","","{""mon"":""0"",""tue"":""0"",""wed"":""0"",""thu"":""0"",""fri"":""0"",""sat"":""0"",""sun"":""0""}","0","v2-retail-ltd-hh13-faridabad","","","null",""
"12","V2 Retail Ltd. (HI05)","HI05","Anand Cinema Complex, No. 2 MC","Solan","Himachal Pradesh","173212","India","30.9095108","77.1003526","7011607635 / 8894901613","","solan@v2kart.com","https://v2retail.com","2","v2-LOGO-5.png","1","","{""mon"":""0"",""tue"":""0"",""wed"":""0"",""thu"":""0"",""fri"":""0"",""sat"":""0"",""sun"":""0""}","0","v2-retail-ltd-hi05-solan","","","null",""
"93","V2 Retail Ltd. (HJ08)","HJ08","No. 7, New Planning Area, Sakchi","Jamshedpur","Jharkhand","831001","India","22.8068837","86.202897","7979786477 / 8936871071","","jamshedpur@v2kart.com","https://v2retail.com","2","v2-LOGO-5.png","1","","{""mon"":""0"",""tue"":""0"",""wed"":""0"",""thu"":""0"",""fri"":""0"",""sat"":""0"",""sun"":""0""}","0","v2-retail-ltd-hj08-jamshedpur","","","null",""
"73","V2 Retail Ltd. (HJ09)","HJ09","Ps Lower Bazar, Ward No. IV, Main Road","Ranchi","Jharkhand","834001","India","23.3649638","85.3295476","8709537101 / 7677022412","","ranchi@v2kart.com","https://v2retail.com","2","v2-LOGO-5.png","1","","{""mon"":""0"",""tue"":""0"",""wed"":""0"",""thu"":""0"",""fri"":""0"",""sat"":""0"",""sun"":""0""}","0","v2-retail-ltd-hj09-ranchi","","","null",""
"75","V2 Retail Ltd. (HJ10)","HJ10","Mauza Contonment, Thanna No. 157, Thana-Hazaribag, Pargana-Champa","Hazaribagh","Jharkhand","825301","India","23.9970052","85.3739314","7978658805 / 8051032952","","hazaribag@v2kart.com","https://v2retail.com","2","v2-LOGO-5.png","1","","{""mon"":""0"",""tue"":""0"",""wed"":""0"",""thu"":""0"",""fri"":""0"",""sat"":""0"",""sun"":""0""}","0","v2-retail-ltd-hj10-hazaribagh","","","null",""
"100","V2 Retail Ltd. (HJ11)","HJ11","Mouza-Madhusudan, Deogarh","Deoghar","Jharkhand","814112","India","24.49257469","86.6864624","8882581318 / 6205314394","","deoghar@v2kart.com","https://v2retail.com","2","v2-LOGO-5.png","1","","{""mon"":""0"",""tue"":""0"",""wed"":""0"",""thu"":""0"",""fri"":""0"",""sat"":""0"",""sun"":""0""}","0","v2-retail-ltd-hj11-deoghar","","","null",""
"88","V2 Retail Ltd. (HJ12)","HJ12","Thana-Rajhanwar, District Giridih","Rajdhwar","Jharkhand","825412","India","24.4111327","85.980646","8210347853 / 8092430691","","rajdhanwar@v2kart.com","https://v2retail.com","2","v2-LOGO-5.png","1","","{""mon"":""0"",""tue"":""0"",""wed"":""0"",""thu"":""0"",""fri"":""0"",""sat"":""0"",""sun"":""0""}","0","v2-retail-ltd-hj12-rajdhwar","","","null",""
"149","V2 Retail Ltd. (HJ14)","HJ14","Thana Road, In Front of 1 India Mart","Dumka","Jharkhand","814101","India","24.2652196","87.2481618","7488421355 / 8051841276","","dumka@v2kart.com","https://v2retail.com","2","v2-LOGO-5.png","1","","{""mon"":""0"",""tue"":""0"",""wed"":""0"",""thu"":""0"",""fri"":""0"",""sat"":""0"",""sun"":""0""}","0","v2-retail-ltd-hj14-dumka","","","null",""
"147","V2 Retail Ltd. (HJ15)","HJ15","Mauza, Chas, District Bokaro","Chas","Jharkhand","827013","India","23.6331918","86.1753511","7735451008 / 7739339911","","chas@v2kart.com","https://v2retail.com","2","v2-LOGO-5.png","1","","{""mon"":""0"",""tue"":""0"",""wed"":""0"",""thu"":""0"",""fri"":""0"",""sat"":""0"",""sun"":""0""}","0","v2-retail-ltd-hj15-chas","","","null",""
"146","V2 Retail Ltd. (HJ17)","HJ17","Kandra, Adityapur Highway Road, Near Shere Punjab Chowk, Dayal Trade Centre Building","Jamshedpur","Jharkhand","831013","India","22.7870238","86.1630689","8936871071 / 6200058083","","jamshedpur2@v2kart.com","https://v2retail.com","2","v2-LOGO-5.png","1","","{""mon"":""0"",""tue"":""0"",""wed"":""0"",""thu"":""0"",""fri"":""0"",""sat"":""0"",""sun"":""0""}","0","v2-retail-ltd-hj17-jamshedpur","","","null",""
"74","V2 Retail Ltd. (HJ19)","HJ19","Ground Floor, Butala Mall Decore, Ranchi Municipal Corp, PS Lalpur, PO Lalpur","Ranchi","Jharkhand","834001","India","23.3719943","85.3383921","-","","ranchi2@v2kart.com","https://v2retail.com","2","v2-LOGO-5.png","1","","{""mon"":""0"",""tue"":""0"",""wed"":""0"",""thu"":""0"",""fri"":""0"",""sat"":""0"",""sun"":""0""}","0","v2-retail-ltd-hj19-ranchi","","","null",""
"94","V2 Retail Ltd. (HJ20)","HJ20","Mouza, East Singhbhum, Mango","Jamshedpur","Jharkhand","831012","India","22.8200188","86.2115908","-","","mango@v2kart.com","https://v2retail.com","2","v2-LOGO-5.png","1","","{""mon"":""0"",""tue"":""0"",""wed"":""0"",""thu"":""0"",""fri"":""0"",""sat"":""0"",""sun"":""0""}","0","v2-retail-ltd-hj20-jamshedpur","","","null",""
"95","V2 Retail Ltd. (HJ21)","HJ21","Centre Point Mall, Bank More, Dhanbad","Dhanbad (Bank More)","Jharkhand","826001","India","23.7879283","86.417645","#N/A","","","https://v2retail.com","2","v2-LOGO-5.png","1","","{""mon"":""0"",""tue"":""0"",""wed"":""0"",""thu"":""0"",""fri"":""0"",""sat"":""0"",""sun"":""0""}","0","v2-retail-ltd-hj21-dhanbad-bank-more","","","null",""
"148","V2 Retail Ltd. (HJ22)","HJ22","R. Road, Bistupur, Near Baby Hotel","Jamshedpur","Jharkhand","831001","India","22.8018","86.2029","8507209989","","bistupur@v2kart.com","https://v2retail.com","2","v2-LOGO-5.png","1","","{""mon"":""0"",""tue"":""0"",""wed"":""0"",""thu"":""0"",""fri"":""0"",""sat"":""0"",""sun"":""0""}","0","v2-retail-ltd-hj22-jamshedpur","","","null",""
"129","V2 Retail Ltd. (HK04)","HK04","Krishnapur Village, Hubli Taluk, District Dharwad","Hubli","Karnataka","580030","India","15.3773","75.116","9598049624 / 9598049624","","hubli@v2kart.com","https://v2retail.com","2","v2-LOGO-5.png","1","","{""mon"":""0"",""tue"":""0"",""wed"":""0"",""thu"":""0"",""fri"":""0"",""sat"":""0"",""sun"":""0""}","0","v2-retail-ltd-hk04-hubli","","","null",""
"4","V2 Retail Ltd. (HK05)","HK05","Nehru Nagar, Kolhapur Circle","Belgaum","Karnataka","590010","India","15.8774637","74.5150315","7353111453 / 9964262642","","belgaum@v2kart.com","https://v2retail.com","2","v2-LOGO-5.png","1","","{""mon"":""0"",""tue"":""0"",""wed"":""0"",""thu"":""0"",""fri"":""0"",""sat"":""0"",""sun"":""0""}","0","v2-retail-ltd-hk05-belgaum","","","null",""
"7","V2 Retail Ltd. (HK07)","HK07","Vijayapur","Vijyapur","Karnataka","586101","India","16.8371934","75.7164642","8073557432 / 7348577100","","vijayapura@v2kart.com","https://v2retail.com","2","v2-LOGO-5.png","1","","{""mon"":""0"",""tue"":""0"",""wed"":""0"",""thu"":""0"",""fri"":""0"",""sat"":""0"",""sun"":""0""}","0","v2-retail-ltd-hk07-vijyapur","","","null",""
"9","V2 Retail Ltd. (HK10)","HK10","Station Main Road, Opp. G.E.S.C.O.M Offices","Gulberga","Karnataka","585102","India","17.3225384","76.8311444","8618984174 / 8197502056","","gulbarga@v2kart.com","https://v2retail.com","2","v2-LOGO-5.png","1","","{""mon"":""0"",""tue"":""0"",""wed"":""0"",""thu"":""0"",""fri"":""0"",""sat"":""0"",""sun"":""0""}","0","v2-retail-ltd-hk10-gulberga","","","null",""
"5","V2 Retail Ltd. (HK11)","HK11","Dharwad Business Centre Mall, R.S. No. 33/1, BRTS Main Road, Near Gandhi Nagar Cross, Vidyagiri","Dharwar","Karnataka","580007","India","15.4362058","75.0205419","9986473683 / 8151946130","","dharwad@v2kart.com","https://v2retail.com","2","v2-LOGO-5.png","1","","{""mon"":""0"",""tue"":""0"",""wed"":""0"",""thu"":""0"",""fri"":""0"",""sat"":""0"",""sun"":""0""}","0","v2-retail-ltd-hk11-dharwar","","","null",""
"3","V2 Retail Ltd. (HK12)","HK12","CTS No. 2742/2, Angol","Belgaum","Karnataka","590006","India","15.8319954","74.5032065","9931318165 / 6291263345","","belgaum2@v2kart.com","https://v2retail.com","2","v2-LOGO-5.png","1","","{""mon"":""0"",""tue"":""0"",""wed"":""0"",""thu"":""0"",""fri"":""0"",""sat"":""0"",""sun"":""0""}","0","v2-retail-ltd-hk12-belgaum","","","null",""
"132","V2 Retail Ltd. (HK13)","HK13","New Kanthaj Urs Road, Near Kavitha Bakery","Mysore","Karnataka","570023","India","12.3537","76.5368","-","","mysore@v2kart.com","https://v2retail.com","2","v2-LOGO-5.png","1","","{""mon"":""0"",""tue"":""0"",""wed"":""0"",""thu"":""0"",""fri"":""0"",""sat"":""0"",""sun"":""0""}","0","v2-retail-ltd-hk13-mysore","","","null",""
"18","V2 Retail Ltd. (HK15)","HK15","V2 Retail Ltd. Gunj Road, Raichur, Miraj Mall","Raichur","Karnataka","584101","India","16.2110961","77.3566238","-","","raichur@v2kart.com","https://v2retail.com","2","v2-LOGO-5.png","1","","{""mon"":""0"",""tue"":""0"",""wed"":""0"",""thu"":""0"",""fri"":""0"",""sat"":""0"",""sun"":""0""}","0","v2-retail-ltd-hk15-raichur","","","null",""
"6","V2 Retail Ltd. (HK16)","HK16","Opposite Kanchan Showroom, Keshwapur","Hubli","Karnataka","580023","India","15.3608898","75.148816","8507209989","","hubli2@v2kart.com","https://v2retail.com","2","v2-LOGO-5.png","1","","{""mon"":""0"",""tue"":""0"",""wed"":""0"",""thu"":""0"",""fri"":""0"",""sat"":""0"",""sun"":""0""}","0","v2-retail-ltd-hk16-hubli","","","null",""
"20","V2 Retail Ltd. (HM20)","HM20","Pt Halka No. 77, Sagar","Sagar","Madhya Pradesh","470001","India","23.8520117","78.791968","9617765215","","sagar@v2kart.com","https://v2retail.com","2","v2-LOGO-5.png","1","","{""mon"":""0"",""tue"":""0"",""wed"":""0"",""thu"":""0"",""fri"":""0"",""sat"":""0"",""sun"":""0""}","0","v2-retail-ltd-hm20-sagar","","","null",""
"23","V2 Retail Ltd. (HM21)","HM21","Noudra Brij, Rajeevghandi Chowk, Hanuman Mandir, Apojit","Jabalpur","Madhya Pradesh","482001","India","23.1664426","79.9363305","7417155482 / 9329424289","","jabalpur@v2kart.com","https://v2retail.com","2","v2-LOGO-5.png","1","","{""mon"":""0"",""tue"":""0"",""wed"":""0"",""thu"":""0"",""fri"":""0"",""sat"":""0"",""sun"":""0""}","0","v2-retail-ltd-hm21-jabalpur","","","null",""
"32","V2 Retail Ltd. (HM22)","HM22","Tehsil Hazur, District Rewa","Rewa","Madhya Pradesh","486001","India","24.5444242","81.3159623","8368925898 / 9144639091","","rewa@v2kart.com","https://v2retail.com","2","v2-LOGO-5.png","1","","{""mon"":""0"",""tue"":""0"",""wed"":""0"",""thu"":""0"",""fri"":""0"",""sat"":""0"",""sun"":""0""}","0","v2-retail-ltd-hm22-rewa","","","null",""
"11","V2 Retail Ltd. (HM23)","HM23","GP Mall, Station Road","Harda","Madhya Pradesh","461331","India","22.3417151","77.0958539","7355254053","","harda@v2kart.com","https://v2retail.com","2","v2-LOGO-5.png","1","","{""mon"":""0"",""tue"":""0"",""wed"":""0"",""thu"":""0"",""fri"":""0"",""sat"":""0"",""sun"":""0""}","0","v2-retail-ltd-hm23-harda","","","null",""
"131","V2 Retail Ltd. (HM25)","HM25","Signature Business Park, Karond","Bhopal","Madhya Pradesh","462018","India","22.751809","75.896975","9760659584","","bhopal@v2kart.com","https://v2retail.com","2","v2-LOGO-5.png","1","","{""mon"":""0"",""tue"":""0"",""wed"":""0"",""thu"":""0"",""fri"":""0"",""sat"":""0"",""sun"":""0""}","0","v2-retail-ltd-hm25-bhopal","","","null",""
"8","V2 Retail Ltd. (HM26)","HM26","Khandwa Road Near Reliance Petrol Pump","Khargone","MadhyaPradesh","450331","India","21.3159754","76.2284597","9936122835","","burhanpur@v2kart.com","https://v2retail.com","2","v2-LOGO-5.png","1","","{""mon"":""0"",""tue"":""0"",""wed"":""0"",""thu"":""0"",""fri"":""0"",""sat"":""0"",""sun"":""0""}","0","v2-retail-ltd-hm26-khargone","","","null",""
"120","V2 Retail Ltd. (HN10)","HN10","G.S. Road, Paltan Bazar, Opposite Gitanjali Hotel","Guwahati","Assam","781008","India","26.1795908","91.751532","9101088476 / 9577834860","","guwahati@v2kart.com","https://v2retail.com","2","v2-LOGO-5.png","1","","{""mon"":""0"",""tue"":""0"",""wed"":""0"",""thu"":""0"",""fri"":""0"",""sat"":""0"",""sun"":""0""}","0","v2-retail-ltd-hn10-guwahati","","","null",""
"124","V2 Retail Ltd. (HN11)","HN11","Mouza Silchar Town, Porganabarakpar","Silchar","Assam","788001","India","24.8262015","92.8008563","7628950914 / 9395328741","","silchar@v2kart.com","https://v2retail.com","2","v2-LOGO-5.png","1","","{""mon"":""0"",""tue"":""0"",""wed"":""0"",""thu"":""0"",""fri"":""0"",""sat"":""0"",""sun"":""0""}","0","v2-retail-ltd-hn11-silchar","","","null",""
"116","V2 Retail Ltd. (HN13)","HN13","B.H. Road","Barpeta","Assam","781314","India","26.3367633","91.001347","8134035947 / 8486941084","","barpeta@v2kart.com","https://v2retail.com","2","v2-LOGO-5.png","1","","{""mon"":""0"",""tue"":""0"",""wed"":""0"",""thu"":""0"",""fri"":""0"",""sat"":""0"",""sun"":""0""}","0","v2-retail-ltd-hn13-barpeta","","","null",""
"150","V2 Retail Ltd. (HN14)","HN14","Under Jorhat Town, Mouza No. 2, Ward No. 8, P.O., P.S. &amp;District Jorhat","Jorhat","Assam","785001","India","26.7167","94.2333","9395507151 / 9101067208","","jorhat@v2kart.com","https://v2retail.com","2","v2-LOGO-5.png","1","","{""mon"":""0"",""tue"":""0"",""wed"":""0"",""thu"":""0"",""fri"":""0"",""sat"":""0"",""sun"":""0""}","0","v2-retail-ltd-hn14-jorhat","","","null",""
"119","V2 Retail Ltd. (HN15)","HN15","Mauza-Jalukbari DG Road, Adhunik Vasundhra, Adabari Tinali","Guwahati","Assam","781012","India","26.1579916","91.6839796","7035903881 / 7635875537","","guwahati3@v2kart.com","https://v2retail.com","2","v2-LOGO-5.png","1","","{""mon"":""0"",""tue"":""0"",""wed"":""0"",""thu"":""0"",""fri"":""0"",""sat"":""0"",""sun"":""0""}","0","v2-retail-ltd-hn15-guwahati","","","null",""
"117","V2 Retail Ltd. (HN21)","HN21","P.S. East Agartala, Sub Div. &amp;Sub Registry - Sadar, Tahasil - Sadar East, Mouza - Agartala","Agartala","Tripura","799001","India","23.8244478","91.2853413","9591841182 / 6009893938","","agartala@v2kart.com","https://v2retail.com","2","v2-LOGO-5.png","1","","{""mon"":""0"",""tue"":""0"",""wed"":""0"",""thu"":""0"",""fri"":""0"",""sat"":""0"",""sun"":""0""}","0","v2-retail-ltd-hn21-agartala","","","null",""
"123","V2 Retail Ltd. (HN22)","HN22","Prabha Shopping Complex, Opposite PNB Bank, Vawel Point, Central Road","Silchar","Assam","788001","India","24.8271682","92.8000141","9707408740 / 7002640280","","silchar2@v2kart.com","https://v2retail.com","2","v2-LOGO-5.png","1","","{""mon"":""0"",""tue"":""0"",""wed"":""0"",""thu"":""0"",""fri"":""0"",""sat"":""0"",""sun"":""0""}","0","v2-retail-ltd-hn22-silchar","","","null",""
"121","V2 Retail Ltd. (HN23)","HN23","V2 Retail Ltd. Shilong Police Bazar, Near Thana Road, Opp. Shubham Uniform Shop, East Khasi Hills","Shilong","Meghalaya","793001","India","25.5773108","91.8809639","8638698143 / 7679696645","","shillong@v2kart.com","https://v2retail.com","2","v2-LOGO-5.png","1","","{""mon"":""0"",""tue"":""0"",""wed"":""0"",""thu"":""0"",""fri"":""0"",""sat"":""0"",""sun"":""0""}","0","v2-retail-ltd-hn23-shilong","","","null",""
"115","V2 Retail Ltd. (HN25)","HN25","MPC Complex, Ward No. 6, Barpeta Road","Barpeta","Assam","781315","India","26.5015843","90.9690232","-","","barpeta2@v2kart.com","https://v2retail.com","2","v2-LOGO-5.png","1","","{""mon"":""0"",""tue"":""0"",""wed"":""0"",""thu"":""0"",""fri"":""0"",""sat"":""0"",""sun"":""0""}","0","v2-retail-ltd-hn25-barpeta","","","null",""
"122","V2 Retail Ltd. (HN26)","HN26","KRC Plaza, JN Road, Kacharigaon","Tezpur","Assam","784001","India","26.6255199","92.7901739","-","","tezpur@v2kart.com","https://v2retail.com","2","v2-LOGO-5.png","1","","{""mon"":""0"",""tue"":""0"",""wed"":""0"",""thu"":""0"",""fri"":""0"",""sat"":""0"",""sun"":""0""}","0","v2-retail-ltd-hn26-tezpur","","","null",""
"118","V2 Retail Ltd. (HN28)","HN28","NT Road, Beside HP Petrol Pump","Nalbari","Assam","781335","India","26.4501743","91.4464791","9958016033","","nalbari@v2kart.com","https://v2retail.com","2","v2-LOGO-5.png","1","","{""mon"":""0"",""tue"":""0"",""wed"":""0"",""thu"":""0"",""fri"":""0"",""sat"":""0"",""sun"":""0""}","0","v2-retail-ltd-hn28-nalbari","","","null",""
"125","V2 Retail Ltd. (HN29)","HN29","Dharamshala Road, Hanuman Mandir Ke Pass, Diphu","Diphu","Assam","782460","India","25.84456736","93.44201814","9467273095","","diphu@v2kart.com","https://v2retail.com","2","v2-LOGO-5.png","1","","{""mon"":""0"",""tue"":""0"",""wed"":""0"",""thu"":""0"",""fri"":""0"",""sat"":""0"",""sun"":""0""}","0","v2-retail-ltd-hn29-diphu","","","null",""
"59","V2 Retail Ltd. (HO08)","HO08","City Mall, Telephone Bhavan Road, Brahmapur (GM)","Brahmapur","Odisha","760001","India","19.3103722","84.7911957","7008119140 / 7735778027","","brahmapur@v2kart.com","https://v2retail.com","2","v2-LOGO-5.png","1","","{""mon"":""0"",""tue"":""0"",""wed"":""0"",""thu"":""0"",""fri"":""0"",""sat"":""0"",""sun"":""0""}","0","v2-retail-ltd-ho08-brahmapur","","","null",""
"86","V2 Retail Ltd. (HO09)","HO09","Badambaadi, Brajraj Complex, P.S. Badambadi","Cuttack","Odisha","753012","India","20.4568283","85.8851716","7377425294 / 8338810896","","cuttack@v2kart.com","https://v2retail.com","2","v2-LOGO-5.png","1","","{""mon"":""0"",""tue"":""0"",""wed"":""0"",""thu"":""0"",""fri"":""0"",""sat"":""0"",""sun"":""0""}","0","v2-retail-ltd-ho09-cuttack","","","null",""
"82","V2 Retail Ltd. (HO10)","HO10","Mouza - Jayadev Vihar","Bhubneshwar","Odisha","751013","India","20.2896524","85.8146816","7978229166 / 7978804299","","bhubaneswar@v2kart.com","https://v2retail.com","2","v2-LOGO-5.png","1","","{""mon"":""0"",""tue"":""0"",""wed"":""0"",""thu"":""0"",""fri"":""0"",""sat"":""0"",""sun"":""0""}","0","v2-retail-ltd-ho10-bhubneshwar","","","null",""
"38","V2 Retail Ltd. (HO11)","HO11","Main Road, Aurobinda Nagar, Parabeda, Jeypore, District Koraput","Jeypore","Odisha","764001","India","18.8664502","82.5746493","7978800834 / 8895849084","","jeypore@v2kart.com","https://v2retail.com","2","v2-LOGO-5.png","1","","{""mon"":""0"",""tue"":""0"",""wed"":""0"",""thu"":""0"",""fri"":""0"",""sat"":""0"",""sun"":""0""}","0","v2-retail-ltd-ho11-jeypore","","","null",""
"80","V2 Retail Ltd. (HO12)","HO12","Near Indian Oil Petrol Pump","Bhubneshwar","Odisha","751019","India","20.242861","85.7649232","7008730564 / 8917481883","","patrapada@v2kart.com","https://v2retail.com","2","v2-LOGO-5.png","1","","{""mon"":""0"",""tue"":""0"",""wed"":""0"",""thu"":""0"",""fri"":""0"",""sat"":""0"",""sun"":""0""}","0","v2-retail-ltd-ho12-bhubneshwar","","","null",""
"83","V2 Retail Ltd. (HO13)","HO13","Near Axis Bank, Patia","Bhubneshwar","Odisha","751024","India","20.3530985","85.8249911","8895615014 / 9679658185","","patia@v2kart.com","https://v2retail.com","2","v2-LOGO-5.png","1","","{""mon"":""0"",""tue"":""0"",""wed"":""0"",""thu"":""0"",""fri"":""0"",""sat"":""0"",""sun"":""0""}","0","v2-retail-ltd-ho13-bhubneshwar","","","null",""
"91","V2 Retail Ltd. (HO15)","HO15","Mouza Bhatia, Unit No 4, Jajpur Road","Jajpur","Odisha","755019","India","20.9525291","86.129757","8249692260 / 8327720616","","jajpur@v2kart.com","https://v2retail.com","2","v2-LOGO-5.png","1","","{""mon"":""0"",""tue"":""0"",""wed"":""0"",""thu"":""0"",""fri"":""0"",""sat"":""0"",""sun"":""0""}","0","v2-retail-ltd-ho15-jajpur","","","null",""
"67","V2 Retail Ltd. (HO16)","HO16","Khata No. 333, Plot Number 1068, Mz-Angul Town","Angul","Odisha","759122","India","20.8361148","85.0911724","7077109294 / 9040824269","","angul@v2kart.com","https://v2retail.com","2","v2-LOGO-5.png","1","","{""mon"":""0"",""tue"":""0"",""wed"":""0"",""thu"":""0"",""fri"":""0"",""sat"":""0"",""sun"":""0""}","0","v2-retail-ltd-ho16-angul","","","null",""
"104","V2 Retail Ltd. (HO18)","HO18","District Collectorate, SRO, P.S - Town, Mouza - Bagbrundaban","Balasore","Odisha","756001","India","21.4998715","86.9304285","7008995415 / 9090302380","","balasore@v2kart.com","https://v2retail.com","2","v2-LOGO-5.png","1","","{""mon"":""0"",""tue"":""0"",""wed"":""0"",""thu"":""0"",""fri"":""0"",""sat"":""0"",""sun"":""0""}","0","v2-retail-ltd-ho18-balasore","","","null",""
"97","V2 Retail Ltd. (HO19)","HO19","Mouza- Mathasahi","Bhadrak","Odisha","756100","India","21.07302856","86.50761414","9149805787 / 9619935931","","bhadrak@v2kart.com","https://v2retail.com","2","v2-LOGO-5.png","1","","{""mon"":""0"",""tue"":""0"",""wed"":""0"",""thu"":""0"",""fri"":""0"",""sat"":""0"",""sun"":""0""}","0","v2-retail-ltd-ho19-bhadrak","","","null",""
"89","V2 Retail Ltd. (HO20)","HO20","Dolabedi, Nimapada Chowk, Po - Nimapada, P.S. - Nimapada, District Puri","Nimapada","Odisha","752106","India","20.06098557","86.00518799","8249485083 / 9937999808","","nimapada@v2kart.com","https://v2retail.com","2","v2-LOGO-5.png","1","","{""mon"":""0"",""tue"":""0"",""wed"":""0"",""thu"":""0"",""fri"":""0"",""sat"":""0"",""sun"":""0""}","0","v2-retail-ltd-ho20-nimapada","","","null",""
"54","V2 Retail Ltd. (HO21)","HO21","Kisam - Gharabari-1, Sundargarh","Sundargarh","Odisha","770001","India","22.1079395","84.0344327","8455907546 / 9337200129","","sundargarh@v2kart.com","https://v2retail.com","2","v2-LOGO-5.png","1","","{""mon"":""0"",""tue"":""0"",""wed"":""0"",""thu"":""0"",""fri"":""0"",""sat"":""0"",""sun"":""0""}","0","v2-retail-ltd-ho21-sundargarh","","","null",""
"78","V2 Retail Ltd. (HO23)","HO23","Near Bharat Petrol Pump, Nayagarh Road","Khorda","Odisha","752055","India","20.187201","85.6201029","7008103130 / 9668463862","","khordha@v2kart.com","https://v2retail.com","2","v2-LOGO-5.png","1","","{""mon"":""0"",""tue"":""0"",""wed"":""0"",""thu"":""0"",""fri"":""0"",""sat"":""0"",""sun"":""0""}","0","v2-retail-ltd-ho23-khorda","","","null",""
"60","V2 Retail Ltd. (HO24)","HO24","Mouza- R.T.U. No-36, Vill/Ps- Uditnagar","Rourkela","Odisha","769012","India","22.2266972","84.849066","9337001310 / 8328890213","","rourkela@v2kart.com","https://v2retail.com","2","v2-LOGO-5.png","1","","{""mon"":""0"",""tue"":""0"",""wed"":""0"",""thu"":""0"",""fri"":""0"",""sat"":""0"",""sun"":""0""}","0","v2-retail-ltd-ho24-rourkela","","","null",""
"102","V2 Retail Ltd. (HO25)","HO25","V2 Retail Ltd. Mugabai Golei","Baripada","Odisha","757001","India","21.9553158","86.7387761","6371468895 / 8847858813","","baripada@v2kart.com","https://v2retail.com","2","v2-LOGO-5.png","1","","{""mon"":""0"",""tue"":""0"",""wed"":""0"",""thu"":""0"",""fri"":""0"",""sat"":""0"",""sun"":""0""}","0","v2-retail-ltd-ho25-baripada","","","null",""
"85","V2 Retail Ltd. (HO26)","HO26","Plot Number 254/1165, Rasulgarh","Bhubneshwar","Odisha","751010","India","20.2973426","85.8597509","9778311687 / 9658127526","","rasulgarh@v2kart.com","https://v2retail.com","2","v2-LOGO-5.png","1","","{""mon"":""0"",""tue"":""0"",""wed"":""0"",""thu"":""0"",""fri"":""0"",""sat"":""0"",""sun"":""0""}","0","v2-retail-ltd-ho26-bhubneshwar","","","null",""
"58","V2 Retail Ltd. (HO27)","HO27","Urban Bank Road, Girija Square","Brahmapur","Odisha","760001","India","19.3132028","84.7875228","8908094309 / 8280230673","","brahmapur2@v2kart.com","https://v2retail.com","2","v2-LOGO-5.png","1","","{""mon"":""0"",""tue"":""0"",""wed"":""0"",""thu"":""0"",""fri"":""0"",""sat"":""0"",""sun"":""0""}","0","v2-retail-ltd-ho27-brahmapur","","","null",""
"84","V2 Retail Ltd. (HO28)","HO28","Plot No. 72, Behind Pushpak Hotel, Buddha Nagar, Kalpana Square","Bhubneshwar","Odisha","751006","India","20.2592416","85.8408697","7978866106","","bhubaneswar5@v2kart.com","https://v2retail.com","2","v2-LOGO-5.png","1","","{""mon"":""0"",""tue"":""0"",""wed"":""0"",""thu"":""0"",""fri"":""0"",""sat"":""0"",""sun"":""0""}","0","v2-retail-ltd-ho28-bhubneshwar","","","null",""
"77","V2 Retail Ltd. (HO29)","HO29","At- Pabitradiha, Po- Keonjhar, Ps- Town","Keonjhar","Odisha","758001","India","21.6427135","85.613086","-","","keonjhar@v2kart.com","https://v2retail.com","2","v2-LOGO-5.png","1","","{""mon"":""0"",""tue"":""0"",""wed"":""0"",""thu"":""0"",""fri"":""0"",""sat"":""0"",""sun"":""0""}","0","v2-retail-ltd-ho29-keonjhar","","","null",""
"99","V2 Retail Ltd. (HO32)","HO32","PPL Chak, Near Bharat Petrol Pump, Paradeep, Jagatsinghpur","Paradeep","Odisha","754142","India","20.30543518","86.63752747","7978229166","","paradeep@v2kart.com","https://v2retail.com","2","v2-LOGO-5.png","1","","{""mon"":""0"",""tue"":""0"",""wed"":""0"",""thu"":""0"",""fri"":""0"",""sat"":""0"",""sun"":""0""}","0","v2-retail-ltd-ho32-paradeep","","","null",""
"36","V2 Retail Ltd. (HO36)","HO36","Hotel Anish Building, Mahavir Chowk, Amsena Road, Opposite Gupta Canteen, Khariar Road, District Nuapada","Nuapada","Odisha","766104","India","20.8938049","82.5118456","9818544899","","nuapada@v2kart.com","https://v2retail.com","2","v2-LOGO-5.png","1","","{""mon"":""0"",""tue"":""0"",""wed"":""0"",""thu"":""0"",""fri"":""0"",""sat"":""0"",""sun"":""0""}","0","v2-retail-ltd-ho36-nuapada","","","null",""
"101","V2 Retail Ltd. (HO38)","HO38","Swastik Hotel, Savitri Tower, Udala Road","Baripada","Odisha","757001","India","21.9265895","86.7255467","9818544899","","baripada2@v2kart.com","https://v2retail.com","2","v2-LOGO-5.png","1","","{""mon"":""0"",""tue"":""0"",""wed"":""0"",""thu"":""0"",""fri"":""0"",""sat"":""0"",""sun"":""0""}","0","v2-retail-ltd-ho38-baripada","","","null",""
"128","V2 Retail Ltd. (HR18)","HR18","Maya Bazar, Near Lal Mandir, Ajmer Road","Beawar","Rajasthan","305801","India","26.5778","74.8534","9958016033","","kishangarh@v2kart.com","https://v2retail.com","2","v2-LOGO-5.png","1","","{""mon"":""0"",""tue"":""0"",""wed"":""0"",""thu"":""0"",""fri"":""0"",""sat"":""0"",""sun"":""0""}","0","v2-retail-ltd-hr18-beawar","","","null",""
"48","V2 Retail Ltd. (HS01)","HS01","Celest Mall, New Bus Stand, Near Sujatha Hospital, Gajuwaka","Gajuwaka","Andhra Pradesh","530026","India","17.6843084","83.1992294","9639088287","","gajuwaka@v2kart.com","https://v2retail.com","2","v2-LOGO-5.png","1","","{""mon"":""0"",""tue"":""0"",""wed"":""0"",""thu"":""0"",""fri"":""0"",""sat"":""0"",""sun"":""0""}","0","v2-retail-ltd-hs01-gajuwaka","","","null",""
"135","V2 Retail Ltd. (HT14)","HT14","3 Civil Line Compound","Roorkee","Uttarakhand","247667","India","29.9144","77.9291","9870118557 / 8439408764","","roorkee@v2kart.com","https://v2retail.com","2","v2-LOGO-5.png","1","","{""mon"":""0"",""tue"":""0"",""wed"":""0"",""thu"":""0"",""fri"":""0"",""sat"":""0"",""sun"":""0""}","0","v2-retail-ltd-ht14-roorkee","","","null",""
"137","V2 Retail Ltd. (HT16)","HT16","Old State Bank Building, Khatima","Khtima","Uttarakhand","262308","India","29.2988","80.0697","9756891844 / 9870739709","","khatima@v2kart.com","https://v2retail.com","2","v2-LOGO-5.png","1","","{""mon"":""0"",""tue"":""0"",""wed"":""0"",""thu"":""0"",""fri"":""0"",""sat"":""0"",""sun"":""0""}","0","v2-retail-ltd-ht16-khtima","","","null",""
"136","V2 Retail Ltd. (HT17)","HT17","Opposite GCIC Kaladhungi Road","Haldwani","Uttarakhand","263129","India","29.232949","79.482729","9675261701 / 9557273800","","haldwani2@v2kart.com","https://v2retail.com","2","v2-LOGO-5.png","1","","{""mon"":""0"",""tue"":""0"",""wed"":""0"",""thu"":""0"",""fri"":""0"",""sat"":""0"",""sun"":""0""}","0","v2-retail-ltd-ht17-haldwani","","","null",""
"19","V2 Retail Ltd. (HT18)","HT18","Lalpul Road, Near Hero Honda Showroom","Dehradun","Uttarakhand","248001","India","30.305819","78.0137979","6230896757 / 9536875895","","dehradun@v2kart.com","https://v2retail.com","2","v2-LOGO-5.png","1","","{""mon"":""0"",""tue"":""0"",""wed"":""0"",""thu"":""0"",""fri"":""0"",""sat"":""0"",""sun"":""0""}","0","v2-retail-ltd-ht18-dehradun","","","null",""
"50","V2 Retail Ltd. (HU34)","HU34","23, Asuran Chowk, Medical Road","Gorakhpur","Uttar Pradesh","273006","India","26.768913","83.3793289","9873117652 / 8181906940","","gorakhpur2@v2kart.com","https://v2retail.com","2","v2-LOGO-5.png","1","","{""mon"":""0"",""tue"":""0"",""wed"":""0"",""thu"":""0"",""fri"":""0"",""sat"":""0"",""sun"":""0""}","0","v2-retail-ltd-hu34-gorakhpur","","","null",""
"39","V2 Retail Ltd. (HU36)","HU36","Opposite Adarsh Tower, Wajid Pur Tiraha","Jaunpur","Uttar Pradesh","222002","India","25.7369155","82.6829052","9821036392 / 7275394505","","jaunpur@v2kart.com","https://v2retail.com","2","v2-LOGO-5.png","1","","{""mon"":""0"",""tue"":""0"",""wed"":""0"",""thu"":""0"",""fri"":""0"",""sat"":""0"",""sun"":""0""}","0","v2-retail-ltd-hu36-jaunpur","","","null",""
"44","V2 Retail Ltd. (HU41)","HU41","Lanka Bhu Main Road, Lanka","Varanasi","Uttar Pradesh","221005","India","25.27991867","83.00238037","7011841115 / 6386829296","","varanasi@v2kart.com","https://v2retail.com","2","v2-LOGO-5.png","1","","{""mon"":""0"",""tue"":""0"",""wed"":""0"",""thu"":""0"",""fri"":""0"",""sat"":""0"",""sun"":""0""}","0","v2-retail-ltd-hu41-varanasi","","","null",""
"140","V2 Retail Ltd. (HU44)","HU44","Mauza Vill.-Sikanderpur, Pargana","Gazipur","Uttar Pradesh","233224","India","25.4631","83.4554","6393274994 / 7393998778","","gazipur@v2kart.com","https://v2retail.com","2","v2-LOGO-5.png","1","","{""mon"":""0"",""tue"":""0"",""wed"":""0"",""thu"":""0"",""fri"":""0"",""sat"":""0"",""sun"":""0""}","0","v2-retail-ltd-hu44-gazipur","","","null",""
"35","V2 Retail Ltd. (HU45)","HU45","Ajit Nagar, Belhaghat, Pratap Garh, Landmark - Janki Mandir","Pratapgarh","Uttar Pradesh","230001","India","25.9283378","82.004003","8076503981 / 9889641902","","pratapgarh@v2kart.com","https://v2retail.com","2","v2-LOGO-5.png","1","","{""mon"":""0"",""tue"":""0"",""wed"":""0"",""thu"":""0"",""fri"":""0"",""sat"":""0"",""sun"":""0""}","0","v2-retail-ltd-hu45-pratapgarh","","","null",""
"37","V2 Retail Ltd. (HU48)","HU48","Village - Sisani, Akbarpur, Sisane Akbarpur, Ambedkar Nagar","Akabpur","Uttar Pradesh","224146","India","26.4238921","82.535716","9795485869 / 9525794815","","akbarpur@v2kart.com","https://v2retail.com","2","v2-LOGO-5.png","1","","{""mon"":""0"",""tue"":""0"",""wed"":""0"",""thu"":""0"",""fri"":""0"",""sat"":""0"",""sun"":""0""}","0","v2-retail-ltd-hu48-akabpur","","","null",""
"138","V2 Retail Ltd. (HU49)","HU49","Janki Plaza, Bahrakh","Bahraich","Uttar Pradesh","271801","India","27.5293","81.814","9120318676 / 8858300072","","bahraich@v2kart.com","https://v2retail.com","2","v2-LOGO-5.png","1","","{""mon"":""0"",""tue"":""0"",""wed"":""0"",""thu"":""0"",""fri"":""0"",""sat"":""0"",""sun"":""0""}","0","v2-retail-ltd-hu49-bahraich","","","null",""
"52","V2 Retail Ltd. (HU54)","HU54","Subhash Chowk, Mouza Padrauna","Padrona","Uttar Pradesh","274304","India","26.8960968","83.9785992","9140640162 / 7909007476","","padrauna@v2kart.com","https://v2retail.com","2","v2-LOGO-5.png","1","","{""mon"":""0"",""tue"":""0"",""wed"":""0"",""thu"":""0"",""fri"":""0"",""sat"":""0"",""sun"":""0""}","0","v2-retail-ltd-hu54-padrona","","","null",""
"41","V2 Retail Ltd. (HU55)","HU55","DLW Road, Chitaipur Cuaraha, Near Pragati Public School","Varanasi","Uttar Pradesh","221005","India","25.2721137","82.9669394","9125386181","","varanasi3@v2kart.com","https://v2retail.com","2","v2-LOGO-5.png","1","","{""mon"":""0"",""tue"":""0"",""wed"":""0"",""thu"":""0"",""fri"":""0"",""sat"":""0"",""sun"":""0""}","0","v2-retail-ltd-hu55-varanasi","","","null",""
"29","V2 Retail Ltd. (HU57)","HU57","Saraswati Puram, Viswas Sweet, 60 Ft Road, Jankipuram Extension","Lucknow","Uttar Pradesh","226021","India","26.9319741","80.9461669","8173856458","","lucknow4@v2kart.com","https://v2retail.com","2","v2-LOGO-5.png","1","","{""mon"":""0"",""tue"":""0"",""wed"":""0"",""thu"":""0"",""fri"":""0"",""sat"":""0"",""sun"":""0""}","0","v2-retail-ltd-hu57-lucknow","","","null",""
"47","V2 Retail Ltd. (HU58)","HU58","Chakla, Sadar","Azamgarh","Uttar Pradesh","276001","India","26.0747693","83.1867135","7388295777 / 7007691145","","azamgarh2@v2kart.com","https://v2retail.com","2","v2-LOGO-5.png","1","","{""mon"":""0"",""tue"":""0"",""wed"":""0"",""thu"":""0"",""fri"":""0"",""sat"":""0"",""sun"":""0""}","0","v2-retail-ltd-hu58-azamgarh","","","null",""
"40","V2 Retail Ltd. (HU59)","HU59","Vill-Sival Station, Tappa Havli, Pragana Basti Puraba, District Basti","Basti","Uttar Pradesh","272001","India","26.7924955","82.7228004","8173813987 / 9910580065","","basti@v2kart.com","https://v2retail.com","2","v2-LOGO-5.png","1","","{""mon"":""0"",""tue"":""0"",""wed"":""0"",""thu"":""0"",""fri"":""0"",""sat"":""0"",""sun"":""0""}","0","v2-retail-ltd-hu59-basti","","","null",""
"31","V2 Retail Ltd. (HU61)","HU61","Near Fire Station, Degree College Chowk","Raibarely","Uttar Pradesh","229001","India","26.2170347","81.2456788","7906747319 / 7905982343","","raibarelli@v2kart.com","https://v2retail.com","2","v2-LOGO-5.png","1","","{""mon"":""0"",""tue"":""0"",""wed"":""0"",""thu"":""0"",""fri"":""0"",""sat"":""0"",""sun"":""0""}","0","v2-retail-ltd-hu61-raibarely","","","null",""
"139","V2 Retail Ltd. (HU64)","HU64","Purainiya Talab, Balrampur, Tahsil &amp;District Balrampur","Balrampur","Uttar Pradesh","271201","India","27.4306759","82.1864107","8808107298 / 6393948012","","balrampur@v2kart.com","https://v2retail.com","2","v2-LOGO-5.png","1","","{""mon"":""0"",""tue"":""0"",""wed"":""0"",""thu"":""0"",""fri"":""0"",""sat"":""0"",""sun"":""0""}","0","v2-retail-ltd-hu64-balrampur","","","null",""
"33","V2 Retail Ltd. (HU65)","HU65","Mohalla Katra, Pargana &amp;Tehsil - Sadar, District Prayagraj","Pryagraj","Uttar Pradesh","211002","India","25.4638517","81.8534727","7717739235 / 7860612108","","prayagraj@v2kart.com","https://v2retail.com","2","v2-LOGO-5.png","1","","{""mon"":""0"",""tue"":""0"",""wed"":""0"",""thu"":""0"",""fri"":""0"",""sat"":""0"",""sun"":""0""}","0","v2-retail-ltd-hu65-pryagraj","","","null",""
"25","V2 Retail Ltd. (HU67)","HU67","Bus Stand Road, Nagar Palika, Opp. Aryavart Bank","Lakhimpur","Uttar Pradesh","262701","India","27.9451881","80.7807601","9457489801 / 9616274371","","lakhimpur@v2kart.com","https://v2retail.com","2","v2-LOGO-5.png","1","","{""mon"":""0"",""tue"":""0"",""wed"":""0"",""thu"":""0"",""fri"":""0"",""sat"":""0"",""sun"":""0""}","0","v2-retail-ltd-hu67-lakhimpur","","","null",""
"30","V2 Retail Ltd. (HU69)","HU69","Matiyari Chauraha, Deva Road, Chinhat, In Front of City Cart","Lucknow","Uttar Pradesh","226028","India","26.8821556","81.0400431","9821036392 / 7905530199","","lucknow05@v2kart.com","https://v2retail.com","2","v2-LOGO-5.png","1","","{""mon"":""0"",""tue"":""0"",""wed"":""0"",""thu"":""0"",""fri"":""0"",""sat"":""0"",""sun"":""0""}","0","v2-retail-ltd-hu69-lucknow","","","null",""
"24","V2 Retail Ltd. (HU70)","HU70","House No. 643, Ward No. 29, Safipur 1st, Harjinder Nagar Chauraha, Lalbangla Road","Kanpur","Uttar Pradesh","208007","India","26.41674232","80.39170074","6397920353 / 7037626969","","kanpur@v2kart.com","https://v2retail.com","2","v2-LOGO-5.png","1","","{""mon"":""0"",""tue"":""0"",""wed"":""0"",""thu"":""0"",""fri"":""0"",""sat"":""0"",""sun"":""0""}","0","v2-retail-ltd-hu70-kanpur","","","null",""
"34","V2 Retail Ltd. (HU71)","HU71","Gurunanak Chowk, Near Sardar Petrol Pump, Patel Nagar, Kachori Road","Gonda","Uttar Pradesh","271001","India","27.13370323","81.9603653","8953433843 / 9151813116","","gonda@v2kart.com","https://v2retail.com","2","v2-LOGO-5.png","1","","{""mon"":""0"",""tue"":""0"",""wed"":""0"",""thu"":""0"",""fri"":""0"",""sat"":""0"",""sun"":""0""}","0","v2-retail-ltd-hu71-gonda","","","null",""
"22","V2 Retail Ltd. (HU72)","HU72","Prabha Tower, Issiyo Ki Puliya, Near Bharat Gas Agency, Shahjanpur Road, Opp. Gita Palace","Barelly","Uttar Pradesh","243001","India","28.3535112","79.4368097","8953226096 / 9368863070","","bareilly@v2kart.com","https://v2retail.com","2","v2-LOGO-5.png","1","","{""mon"":""0"",""tue"":""0"",""wed"":""0"",""thu"":""0"",""fri"":""0"",""sat"":""0"",""sun"":""0""}","0","v2-retail-ltd-hu72-barelly","","","null",""
"134","V2 Retail Ltd. (HU74)","HU74","Opp. Salarpur Gate, Main Dadri Road, RC Market, Near Canara Bank","Bhangel","Uttar Pradesh","201304","India","28.4014","77.535","9355688686 / 8448412952","","bhangel@v2kart.com","https://v2retail.com","2","v2-LOGO-5.png","1","","{""mon"":""0"",""tue"":""0"",""wed"":""0"",""thu"":""0"",""fri"":""0"",""sat"":""0"",""sun"":""0""}","0","v2-retail-ltd-hu74-bhangel","","","null",""
"43","V2 Retail Ltd. (HU76)","HU76","V2 Retail Ltd. Ghajipur Road, Near Pahariya Mandi, Opp. Mishra TVS Showroom, Pahariya","Varanasi","Uttar Pradesh","221007","India","25.3524772","83.0009064","9971492339 / 8400295277","","pahariya2@v2kart.com","https://v2retail.com","2","v2-LOGO-5.png","1","","{""mon"":""0"",""tue"":""0"",""wed"":""0"",""thu"":""0"",""fri"":""0"",""sat"":""0"",""sun"":""0""}","0","v2-retail-ltd-hu76-varanasi","","","null",""
"42","V2 Retail Ltd. (HU77)","HU77","C 30/50, Opposite Hindustan Hotel, Maldahiya","Varanasi","Uttar Pradesh","221002","India","25.3242134","82.9941452","8630817192 / 8874852209","","maldahiya@v2kart.com","https://v2retail.com","2","v2-LOGO-5.png","1","","{""mon"":""0"",""tue"":""0"",""wed"":""0"",""thu"":""0"",""fri"":""0"",""sat"":""0"",""sun"":""0""}","0","v2-retail-ltd-hu77-varanasi","","","null",""
"45","V2 Retail Ltd. (HU78)","HU78","Anand Hero, Near Hi-Tech More, Murdhawa","Renukoot","Uttar Pradesh","231217","India","24.2272622","83.042967","-","","renukoot@v2kart.com","https://v2retail.com","2","v2-LOGO-5.png","1","","{""mon"":""0"",""tue"":""0"",""wed"":""0"",""thu"":""0"",""fri"":""0"",""sat"":""0"",""sun"":""0""}","0","v2-retail-ltd-hu78-renukoot","","","null",""
"28","V2 Retail Ltd. (HU80)","HU80","Telibagh, Near Shani Mandir Chauraha","Lucknow","Uttar Pradesh","221002","India","26.7785604","80.9431601","-","","telibagh@v2kart.com","https://v2retail.com","2","v2-LOGO-5.png","1","","{""mon"":""0"",""tue"":""0"",""wed"":""0"",""thu"":""0"",""fri"":""0"",""sat"":""0"",""sun"":""0""}","0","v2-retail-ltd-hu80-lucknow","","","null",""
"27","V2 Retail Ltd. (HU81)","HU81","Near Purnia Railway Crossing, Sitapur Road","Lucknow","Uttar Pradesh","226024","India","26.89641762","80.93764496","-","","sitapur2@v2kart.com","https://v2retail.com","2","v2-LOGO-5.png","1","","{""mon"":""0"",""tue"":""0"",""wed"":""0"",""thu"":""0"",""fri"":""0"",""sat"":""0"",""sun"":""0""}","0","v2-retail-ltd-hu81-lucknow","","","null",""
"46","V2 Retail Ltd. (HU82)","HU82","Vikrant Tower, Nehru Chowk, Old Sabji Mandi, Khalilabad, Sant Kabir Nagar","Khalilabad","Uttar Pradesh","272175","India","26.7735412","83.066451","-","","khalilabad@v2kart.com","https://v2retail.com","2","v2-LOGO-5.png","1","","{""mon"":""0"",""tue"":""0"",""wed"":""0"",""thu"":""0"",""fri"":""0"",""sat"":""0"",""sun"":""0""}","0","v2-retail-ltd-hu82-khalilabad","","","null",""
"26","V2 Retail Ltd. (HU83)","HU83","Main Road, Beside Ajanta Hospital, Alambagh","Lucknow","UttarPradesh","226005","India","26.8154959","80.9050445","9936122835","","alambagh@v2kart.com","https://v2retail.com","2","v2-LOGO-5.png","1","","{""mon"":""0"",""tue"":""0"",""wed"":""0"",""thu"":""0"",""fri"":""0"",""sat"":""0"",""sun"":""0""}","0","v2-retail-ltd-hu83-lucknow","","","null",""
"49","V2 Retail Ltd. (HU84)","HU84","Gorakhnath Road, Lachhipur, Near Khetan Hospital","Gorakhpur","UttarPradesh","273015","India","26.798013","83.3537712","9936122835","","gorakhpur4@v2kart.com","https://v2retail.com","2","v2-LOGO-5.png","1","","{""mon"":""0"",""tue"":""0"",""wed"":""0"",""thu"":""0"",""fri"":""0"",""sat"":""0"",""sun"":""0""}","0","v2-retail-ltd-hu84-gorakhpur","","","null",""
"21","V2 Retail Ltd. (HU90)","HU90","Shaukat Ali Road, Civil Lines, Near Bank Of India","Rampur","UttarPradesh","244901","India","28.7928624","79.0218348","9936122835","","rampur@v2kart.com","https://v2retail.com","2","v2-LOGO-5.png","1","","{""mon"":""0"",""tue"":""0"",""wed"":""0"",""thu"":""0"",""fri"":""0"",""sat"":""0"",""sun"":""0""}","0","v2-retail-ltd-hu90-rampur","","","null",""
"112","V2 Retail Ltd. (HW13)","HW13","Mango City Hotel Pvt Ltd, Rabindra Avenue, Near Hero Showroom, Rathbari","Malda","West Bengal","732101","India","25.0012946","88.1384694","9830439906 / 6207135811","","malda@v2kart.com","https://v2retail.com","2","v2-LOGO-5.png","1","","{""mon"":""0"",""tue"":""0"",""wed"":""0"",""thu"":""0"",""fri"":""0"",""sat"":""0"",""sun"":""0""}","0","v2-retail-ltd-hw13-malda","","","null",""
"127","V2 Retail Ltd. (HW14)","HW14","Kouchpukur, P.O. Hathgachia, P.S. K.L.C, Thakdari Road, Township, Near Rajarhat","Kolkata","West Bengal","700156","India","22.5623629","88.4633856","-","","aquatica.stores@v2kart.com","https://v2retail.com","2","v2-LOGO-5.png","1","","{""mon"":""0"",""tue"":""0"",""wed"":""0"",""thu"":""0"",""fri"":""0"",""sat"":""0"",""sun"":""0""}","0","v2-retail-ltd-hw14-kolkata","","","null",""
"114","V2 Retail Ltd. (HW15)","HW15","Beside Sky Star Building, Sevoke Road","Siliguri","West Bengal","734001","India","26.7220932","88.4269844","6207135811","","siliguri@v2kart.com","https://v2retail.com","2","v2-LOGO-5.png","1","","{""mon"":""0"",""tue"":""0"",""wed"":""0"",""thu"":""0"",""fri"":""0"",""sat"":""0"",""sun"":""0""}","0","v2-retail-ltd-hw15-siliguri","","","null",""
"113","V2 Retail Ltd. (HW16)","HW16","Aims Mall, 9/9 Mearberh Road","Chinsurah","West Bengal","712101","India","22.8886255","88.3944887","-","","chinsurah@v2kart.com","https://v2retail.com","2","v2-LOGO-5.png","1","","{""mon"":""0"",""tue"":""0"",""wed"":""0"",""thu"":""0"",""fri"":""0"",""sat"":""0"",""sun"":""0""}","0","v2-retail-ltd-hw16-chinsurah","","","null",""
"15","V2 Retail Ltd. (HW17)","HW17","Lotus More, Opposite Jaiswal Hardware","Rampurhat","West Bengal","731224","India","24.175331642000888","87.7914645637365","8240632958","","rampurhat@v2kart.com","https://v2retail.com","2","v2-LOGO-5.png","1","","{""mon"":""0"",""tue"":""0"",""wed"":""0"",""thu"":""0"",""fri"":""0"",""sat"":""0"",""sun"":""0""}","0","v2-retail-ltd-hw17-rampurhat","","","null",""
"109","V2 Retail Ltd. (HW18)","HW18","Banerjee &amp;Chatterjee Associates, Grand Heritage Building (Opp. Federal Bank, Beside Corporation Bank), Ananda Gopal Sarani Road, Benachity","Durgapur","West Bengal","713213","India","23.559936","87.2741306","-","","durgapur@v2kart.com","https://v2retail.com","2","v2-LOGO-5.png","1","","{""mon"":""0"",""tue"":""0"",""wed"":""0"",""thu"":""0"",""fri"":""0"",""sat"":""0"",""sun"":""0""}","0","v2-retail-ltd-hw18-durgapur","","","null",""
"110","V2 Retail Ltd. (HW19)","HW19","Malancha Road, Opposite PNB Bank ATM","Kharagpur","West Bengal","721301","India","22.3444167","87.2941575","7602249690","","kharagpur@v2kart.com","https://v2retail.com","2","v2-LOGO-5.png","1","","{""mon"":""0"",""tue"":""0"",""wed"":""0"",""thu"":""0"",""fri"":""0"",""sat"":""0"",""sun"":""0""}","0","v2-retail-ltd-hw19-kharagpur","","","null",""
"107","V2 Retail Ltd. (HW20)","HW20","Beside Kali Mondir, Ambassador Hotel, Godhuli Cinema More and G.T. Road Junction","Asansol","West Bengal","713301","India","23.6838483","86.980018","8617410513","","asansol@v2kart.com","https://v2retail.com","2","v2-LOGO-5.png","1","","{""mon"":""0"",""tue"":""0"",""wed"":""0"",""thu"":""0"",""fri"":""0"",""sat"":""0"",""sun"":""0""}","0","v2-retail-ltd-hw20-asansol","","","null",""
"105","V2 Retail Ltd. (HW24)","HW24","Sentrum Mall, Shristi Nagar Road","Asansol","West Bengal","713305","India","23.7033835","86.9482798","-","","asansol2@v2kart.com","https://v2retail.com","2","v2-LOGO-5.png","1","","{""mon"":""0"",""tue"":""0"",""wed"":""0"",""thu"":""0"",""fri"":""0"",""sat"":""0"",""sun"":""0""}","0","v2-retail-ltd-hw24-asansol","","","null",""
"130","V2 Retail Ltd. (HX10)","HX10","Old Bus Stand, Parliwand","Kathua","Jammu and Kashmir","184101","India","32.4925","75.2689","8826235637 / 9646777161","","kathua@v2kart.com","https://v2retail.com","2","v2-LOGO-5.png","1","","{""mon"":""0"",""tue"":""0"",""wed"":""0"",""thu"":""0"",""fri"":""0"",""sat"":""0"",""sun"":""0""}","0","v2-retail-ltd-hx10-kathua","","","null",""
